{"type": "FeatureCollection", "features": [{"type": "Feature", "properties": {"OBJECTID": 1, "PlaceNode": 1, "PlaceName": "B17", "PersonName": "", "Contact": "", "Email": "", "Details": "", "PlaceType": "Lab"}, "geometry": {"type": "Polygon", "coordinates": [[[122.22696614900008, 21.844035629000075], [132.42150311700004, 21.706271616000038], [132.30166339700008, 12.838132350000024], [122.10712642900012, 12.97589636300006], [122.22696614900008, 21.844035629000075]]]}}, {"type": "Feature", "properties": {"OBJECTID": 2, "PlaceNode": 2, "PlaceName": "B8", "PersonName": "", "Contact": "", "Email": "", "Details": "", "PlaceType": ""}, "geometry": {"type": "Polygon", "coordinates": [[[167.2592520280001, 35.28983113900006], [164.33071589300005, 35.30419364200003], [164.22691416600003, 48.568536452000046], [175.37809210900002, 48.421810427000025], [175.42700078400003, 38.909073103000026], [167.3081607030001, 39.03134479100004], [167.2592520280001, 35.28983113900006]]]}}, {"type": "Feature", "properties": {"OBJECTID": 3, "PlaceNode": 3, "PlaceName": "B24", "PersonName": "Chemical Engineering Lab", "Contact": "", "Email": "", "Details": "", "PlaceType": "Lab"}, "geometry": {"type": "Polygon", "coordinates": [[[78.76447808400007, 35.12385001000007], [113.40783914400004, 34.98637635500006], [113.51781806800011, 25.225746850000064], [111.01579754700003, 25.198252119000074], [110.98830281600004, 24.153452341000047], [100.92523127000004, 24.153452341000047], [100.98022073200008, 25.198252119000074], [94.62893787100006, 25.308231043000035], [94.60144314000007, 21.816400206000026], [88.33264447200008, 21.898884399000053], [88.33264447200008, 24.125957610000057], [81.78889849400008, 24.263431265000065], [81.73390903200004, 26.930420172000026], [78.79197281500007, 26.985409634000064], [78.76447808400007, 35.12385001000007]]]}}, {"type": "Feature", "properties": {"OBJECTID": 4, "PlaceNode": 4, "PlaceName": "B4", "PersonName": "", "Contact": "", "Email": "", "Details": "", "PlaceType": ""}, "geometry": {"type": "Polygon", "coordinates": [[[157.67091915000003, 48.66654617200004], [161.7501069120001, 48.63935158700008], [161.7501069120001, 45.21283386700003], [157.67091915000003, 45.24002845200005], [157.67091915000003, 48.66654617200004]]]}}, {"type": "Feature", "properties": {"OBJECTID": 5, "PlaceNode": 5, "PlaceName": "B5", "PersonName": "Michael Thomas", "Contact": "", "Email": "", "Details": "", "PlaceType": "Faculty"}, "geometry": {"type": "Polygon", "coordinates": [[[157.67091915000003, 45.24002845200005], [161.7501069120001, 45.21283386700003], [161.69571774200006, 41.94948365700003], [157.67091915000003, 42.03106741200003], [157.67091915000003, 45.24002845200005]]]}}, {"type": "Feature", "properties": {"OBJECTID": 6, "PlaceNode": 6, "PlaceName": "B6", "PersonName": "Kirpa Singh", "Contact": "", "Email": "", "Details": "", "PlaceType": "Faculty"}, "geometry": {"type": "Polygon", "coordinates": [[[157.70085764100008, 42.03046055100003], [161.69571774200006, 41.94948365700003], [161.85888525200005, 38.550160522000056], [157.72530832000007, 38.65893886200007], [157.70085764100008, 42.03046055100003]]]}}, {"type": "Feature", "properties": {"OBJECTID": 7, "PlaceNode": 7, "PlaceName": "B7", "PersonName": "Dr. T. Bemner", "Contact": "", "Email": "", "Details": "", "PlaceType": "Faculty"}, "geometry": {"type": "Polygon", "coordinates": [[[157.72530832000007, 38.65893886200007], [161.85888525200005, 38.550160522000056], [161.64132857200002, 35.23242114200008], [157.72530832000007, 35.25961572700004], [157.72530832000007, 38.65893886200007]]]}}, {"type": "Feature", "properties": {"OBJECTID": 8, "PlaceNode": 8, "PlaceName": "B10", "PersonName": "Greg Greer", "Contact": "", "Email": "", "Details": "", "PlaceType": "Faculty"}, "geometry": {"type": "Polygon", "coordinates": [[[148.3372904570001, 35.09054980500008], [154.63816994600006, 35.10795554900005], [154.7426044130001, 25.082246748000045], [148.37210194600004, 25.047435259000054], [148.3372904570001, 35.09054980500008]]]}}, {"type": "Feature", "properties": {"OBJECTID": 9, "PlaceNode": 9, "PlaceName": "B9", "PersonName": "", "Contact": "", "Email": "", "Details": "", "PlaceType": ""}, "geometry": {"type": "Polygon", "coordinates": [[[154.7426044130001, 25.082246748000045], [154.63816994600006, 35.10795554900005], [161.56565623500012, 35.125361293000026], [161.65268495800012, 24.97781228200006], [154.7426044130001, 25.082246748000045]]]}}, {"type": "Feature", "properties": {"OBJECTID": 10, "PlaceNode": 10, "PlaceName": "", "PersonName": "", "Contact": "", "Email": "", "Details": "", "PlaceType": ""}, "geometry": {"type": "Polygon", "coordinates": [[[140.6375970570001, 25.313131722000037], [140.65541248500006, 29.232525891000023], [135.54238463700005, 29.196895035000068], [135.57801549300007, 35.111617145000025], [148.3372904570001, 35.09054980500008], [148.37210194600004, 25.047435259000054], [140.6375970570001, 25.313131722000037]]]}}, {"type": "Feature", "properties": {"OBJECTID": 11, "PlaceNode": 11, "PlaceName": "", "PersonName": "", "Contact": "", "Email": "", "Details": "", "PlaceType": ""}, "geometry": {"type": "Polygon", "coordinates": [[[132.50612543700004, 35.00817709800003], [135.57768366800008, 35.05653418300005], [135.46364794600004, 29.174382699000034], [140.5664653670001, 29.231906050000077], [140.56618677900008, 25.274353018000056], [132.55487580800002, 25.209352523000064], [132.50612543700004, 35.00817709800003]]]}}, {"type": "Feature", "properties": {"OBJECTID": 12, "PlaceNode": 12, "PlaceName": "", "PersonName": "", "Contact": "", "Email": "", "Details": "", "PlaceType": ""}, "geometry": {"type": "Polygon", "coordinates": [[[126.28292411600012, 25.28937270800003], [126.2660779470001, 31.595651126000064], [122.31729789500002, 31.579401003000044], [122.3335480180001, 35.268179076000024], [132.50612543700004, 35.00817709800003], [132.6202675390001, 25.209883085000058], [126.28292411600012, 25.28937270800003]]]}}, {"type": "Feature", "properties": {"OBJECTID": 13, "PlaceNode": 13, "PlaceName": "B12", "PersonName": "Chemical Engineering Workshop", "Contact": "", "Email": "", "Details": "", "PlaceType": ""}, "geometry": {"type": "Polygon", "coordinates": [[[126.28292411600012, 25.28937270800003], [122.3335480180001, 25.30685326500003], [122.31729789500002, 31.579401003000044], [126.2660779470001, 31.595651126000064], [126.28292411600012, 25.28937270800003]]]}}, {"type": "Feature", "properties": {"OBJECTID": 14, "PlaceNode": 14, "PlaceName": "", "PersonName": "", "Contact": "", "Email": "", "Details": "", "PlaceType": ""}, "geometry": {"type": "Polygon", "coordinates": [[[107.23493352200006, 35.01087201200005], [100.91722765300005, 35.13644904900008], [100.91722765300005, 39.26880471800007], [107.23514032000008, 39.23207266700007], [107.23493352200006, 35.01087201200005]]]}}, {"type": "Feature", "properties": {"OBJECTID": 15, "PlaceNode": 15, "PlaceName": "", "PersonName": "", "Contact": "", "Email": "", "Details": "", "PlaceType": ""}, "geometry": {"type": "Polygon", "coordinates": [[[108.88808258700004, 35.26501122600007], [108.85135053600004, 38.99331434000004], [115.775342034, 38.91985023900003], [115.84880613500002, 35.17318110000008], [108.88808258700004, 35.26501122600007]]]}}, {"type": "Feature", "properties": {"OBJECTID": 16, "PlaceNode": 16, "PlaceName": "", "PersonName": "", "Contact": "", "Email": "", "Details": "", "PlaceType": ""}, "geometry": {"type": "Polygon", "coordinates": [[[115.775342034, 38.91985023900003], [119.92606372800003, 38.88311818900007], [119.90769770200006, 35.17318110000008], [115.84880613500002, 35.17318110000008], [115.775342034, 38.91985023900003]]]}}, {"type": "Feature", "properties": {"OBJECTID": 17, "PlaceNode": 17, "PlaceName": "B14", "PersonName": "Carl Mudreau", "Contact": "", "Email": "", "Details": "", "PlaceType": "Faculty"}, "geometry": {"type": "Polygon", "coordinates": [[[113.40783914400004, 34.98637635500006], [119.75444878300004, 35.08094674400007], [119.87397544700002, 27.59060913500008], [116.71315922100007, 27.68357431800007], [116.67331700000011, 26.939852853000048], [113.4980520470001, 26.979981198000075], [113.40783914400004, 34.98637635500006]]]}}, {"type": "Feature", "properties": {"OBJECTID": 18, "PlaceNode": 18, "PlaceName": "Steps5", "PersonName": "C,D,E", "Contact": "", "Email": "", "Details": "", "PlaceType": ""}, "geometry": {"type": "Polygon", "coordinates": [[[113.48888605700006, 21.80650433900007], [116.71231321800008, 21.80650433900007], [116.73730102600007, 15.40962563100004], [113.51387386500005, 15.434613439000032], [113.48888605700006, 21.80650433900007]]]}}, {"type": "Feature", "properties": {"OBJECTID": 19, "PlaceNode": 19, "PlaceName": "B-Restroom (Male) - 3", "PersonName": "", "Contact": "", "Email": "", "Details": "", "PlaceType": "Facility,male"}, "geometry": {"type": "Polygon", "coordinates": [[[113.71377632400004, 8.93778350100007], [113.66417908500011, 15.433448282000029], [116.86224006300006, 15.334662209000044], [116.71270555300009, 21.706066599000053], [119.7858135350001, 21.731540917000075], [119.7108501130001, 8.787856657000077], [113.71377632400004, 8.93778350100007]]]}}, {"type": "Feature", "properties": {"OBJECTID": 20, "PlaceNode": 20, "PlaceName": "", "PersonName": "", "Contact": "", "Email": "", "Details": "", "PlaceType": ""}, "geometry": {"type": "Polygon", "coordinates": [[[113.63881290200004, 8.737881042000026], [119.91075257200009, 8.637929812000039], [119.96072818700009, 2.2410511050000537], [113.53886167200005, 2.166087682000068], [113.63881290200004, 8.737881042000026]]]}}, {"type": "Feature", "properties": {"OBJECTID": 21, "PlaceNode": 21, "PlaceName": "", "PersonName": "", "Contact": "", "Email": "", "Details": "", "PlaceType": ""}, "geometry": {"type": "Polygon", "coordinates": [[[119.96072818700009, 2.2410511050000537], [119.93652577600005, 5.338959713000065], [126.00777759000005, 5.389514843000029], [126.03276539800004, 2.1910754900000597], [119.96072818700009, 2.2410511050000537]]]}}, {"type": "Feature", "properties": {"OBJECTID": 22, "PlaceNode": 22, "PlaceName": "", "PersonName": "", "Contact": "", "Email": "", "Details": "", "PlaceType": ""}, "geometry": {"type": "Polygon", "coordinates": [[[119.93554517400003, 5.464476741000055], [119.98571599500008, 8.737881042000026], [123.55897246000006, 8.737881042000026], [123.68407261900006, 5.3701654220000705], [119.93554517400003, 5.464476741000055]]]}}, {"type": "Feature", "properties": {"OBJECTID": 23, "PlaceNode": 23, "PlaceName": "", "PersonName": "", "Contact": "", "Email": "", "Details": "", "PlaceType": ""}, "geometry": {"type": "Polygon", "coordinates": [[[119.98571599500008, 8.737881042000026], [120.06067941700007, 11.736417936000066], [122.15965524300009, 11.91133258800005], [122.18464305000009, 12.735930234000023], [123.53398465300006, 12.760918042000071], [123.55897246000006, 8.737881042000026], [119.98571599500008, 8.737881042000026]]]}}, {"type": "Feature", "properties": {"OBJECTID": 24, "PlaceNode": 24, "PlaceName": "", "PersonName": "", "Contact": "", "Email": "", "Details": "", "PlaceType": ""}, "geometry": {"type": "Polygon", "coordinates": [[[130.60553416100004, 2.56589260100003], [130.60553416100004, 5.339539228000035], [132.45463191300007, 5.239587999000037], [132.55458314300006, 2.515916986000036], [130.60553416100004, 2.56589260100003]]]}}, {"type": "Feature", "properties": {"OBJECTID": 25, "PlaceNode": 25, "PlaceName": "", "PersonName": "", "Contact": "", "Email": "", "Details": "", "PlaceType": ""}, "geometry": {"type": "Polygon", "coordinates": [[[126.03042140900004, 2.491106084000023], [126.13271662800003, 5.439490458000023], [123.68407261900006, 5.3701654220000705], [123.55897246000006, 8.737881042000026], [132.45463191300007, 8.712893234000035], [132.52959533500007, 5.439490458000023], [130.53057073900004, 5.4644782660000715], [130.45560731700004, 2.56589260100003], [126.03042140900004, 2.491106084000023]]]}}, {"type": "Feature", "properties": {"OBJECTID": 26, "PlaceNode": 26, "PlaceName": "", "PersonName": "", "Contact": "", "Email": "", "Details": "", "PlaceType": ""}, "geometry": {"type": "Polygon", "coordinates": [[[123.55897246000006, 8.737881042000026], [123.53398465300006, 12.760918042000071], [132.30166339700008, 12.838132350000024], [132.45463191300007, 8.712893234000035], [123.55897246000006, 8.737881042000026]]]}}, {"type": "Feature", "properties": {"OBJECTID": 27, "PlaceNode": 27, "PlaceName": "", "PersonName": "", "Contact": "", "Email": "", "Details": "", "PlaceType": ""}, "geometry": {"type": "Polygon", "coordinates": [[[143.0764715260001, 21.960219472000063], [145.14856188900012, 21.98194186300003], [145.13727753000012, 19.55016256600004], [143.0835242500001, 19.53887820800003], [143.0764715260001, 21.960219472000063]]]}}, {"type": "Feature", "properties": {"OBJECTID": 28, "PlaceNode": 28, "PlaceName": "C13", "PersonName": "Auditorium", "Contact": "", "Email": "", "Details": "", "PlaceType": ""}, "geometry": {"type": "Polygon", "coordinates": [[[132.58263896500011, 21.880161085000054], [143.0764715260001, 21.960219472000063], [143.0835242500001, 19.53887820800003], [145.13727753000012, 19.55016256600004], [145.1659627460001, 4.543137208000076], [142.99883476200012, 4.5780908850000515], [143.06874211600007, 2.3410555460000637], [132.55458314300006, 2.515916986000036], [132.58263896500011, 21.880161085000054]]]}}, {"type": "Feature", "properties": {"OBJECTID": 29, "PlaceNode": 29, "PlaceName": "", "PersonName": "", "Contact": "", "Email": "", "Details": "", "PlaceType": ""}, "geometry": {"type": "Polygon", "coordinates": [[[143.06874211600007, 2.3410555460000637], [142.99883476200012, 4.5780908850000515], [145.02843889000007, 4.5453553350000675], [145.0261480380001, 2.3410555460000637], [143.06874211600007, 2.3410555460000637]]]}}, {"type": "Feature", "properties": {"OBJECTID": 30, "PlaceNode": 30, "PlaceName": "B19", "PersonName": "Materials Group", "Contact": "", "Email": "", "Details": "", "PlaceType": ""}, "geometry": {"type": "Polygon", "coordinates": [[[149.53167702500002, 21.80675836300003], [151.67084206800007, 21.764813950000075], [151.4611200050001, 15.431207647000065], [149.69945467500008, 15.473152060000075], [149.53167702500002, 21.80675836300003]]]}}, {"type": "Feature", "properties": {"OBJECTID": 31, "PlaceNode": 31, "PlaceName": "B18", "PersonName": "Materials Group", "Contact": "", "Email": "", "Details": "", "PlaceType": ""}, "geometry": {"type": "Polygon", "coordinates": [[[145.14856188900012, 21.98194186300003], [149.53167702500002, 21.80675836300003], [149.69945467500008, 15.473152060000075], [145.14523159300006, 15.388896228000021], [145.14856188900012, 21.98194186300003]]]}}, {"type": "Feature", "properties": {"OBJECTID": 32, "PlaceNode": 32, "PlaceName": "", "PersonName": "", "Contact": "", "Email": "", "Details": "", "PlaceType": ""}, "geometry": {"type": "Polygon", "coordinates": [[[145.1456323120001, 15.179255105000038], [147.89413485400007, 15.439752571000042], [147.97973375900006, 11.278710799000066], [145.4211245900001, 11.236766386000056], [145.1456323120001, 15.179255105000038]]]}}, {"type": "Feature", "properties": {"OBJECTID": 33, "PlaceNode": 33, "PlaceName": "B20", "PersonName": "", "Contact": "", "Email": "", "Details": "", "PlaceType": ""}, "geometry": {"type": "Polygon", "coordinates": [[[151.67084206800007, 21.764813950000075], [156.0750053910001, 21.722869538000054], [156.03306097900008, 15.22148558400005], [151.4611200050001, 15.431207647000065], [151.67084206800007, 21.764813950000075]]]}}, {"type": "Feature", "properties": {"OBJECTID": 34, "PlaceNode": 34, "PlaceName": "B21", "PersonName": "", "Contact": "", "Email": "", "Details": "", "PlaceType": ""}, "geometry": {"type": "Polygon", "coordinates": [[[156.0750053910001, 21.722869538000054], [159.97583576400007, 21.80675836300003], [160.0597245890001, 15.473152060000075], [156.03415035400008, 15.390338643000064], [156.0750053910001, 21.722869538000054]]]}}, {"type": "Feature", "properties": {"OBJECTID": 35, "PlaceNode": 35, "PlaceName": "B22", "PersonName": "Water Testing Laboratory", "Contact": "", "Email": "", "Details": "", "PlaceType": "Lab"}, "geometry": {"type": "Polygon", "coordinates": [[[167.3580523820001, 21.84870277600004], [177.08915610700012, 21.722869538000054], [177.0472116940001, 15.389263234000055], [167.441941207, 15.473152060000075], [167.3580523820001, 21.84870277600004]]]}}, {"type": "Feature", "properties": {"OBJECTID": 36, "PlaceNode": 36, "PlaceName": "", "PersonName": "", "Contact": "", "Email": "", "Details": "", "PlaceType": ""}, "geometry": {"type": "Polygon", "coordinates": [[[159.97583576400007, 21.80675836300003], [161.23416814200004, 21.84870277600004], [161.36000138000009, 18.36731652900005], [164.17027702400003, 18.40926094200006], [164.17027702400003, 15.347318822000034], [160.05753218600012, 15.638678451000033], [159.97583576400007, 21.80675836300003]]]}}, {"type": "Feature", "properties": {"OBJECTID": 37, "PlaceNode": 37, "PlaceName": "Steps6", "PersonName": "C,D,E", "Contact": "", "Email": "", "Details": "", "PlaceType": ""}, "geometry": {"type": "Polygon", "coordinates": [[[164.17027702400003, 15.347318822000034], [164.46388791200002, 21.93259160100007], [167.14833031900002, 22.016480426000044], [167.19027473200003, 15.347318822000034], [164.17027702400003, 15.347318822000034]]]}}, {"type": "Feature", "properties": {"OBJECTID": 38, "PlaceNode": 38, "PlaceName": "", "PersonName": "", "Contact": "", "Email": "", "Details": "", "PlaceType": ""}, "geometry": {"type": "Polygon", "coordinates": [[[170.2915012190001, 21.81077024800004], [170.3361056770001, 25.37203343500005], [177.0052672820001, 25.120366959000023], [177.08915610700012, 21.722869538000054], [170.2915012190001, 21.81077024800004]]]}}, {"type": "Feature", "properties": {"OBJECTID": 39, "PlaceNode": 39, "PlaceName": "B23", "PersonName": "", "Contact": "", "Email": "", "Details": "Technical Staff", "PlaceType": ""}, "geometry": {"type": "Polygon", "coordinates": [[[167.48388562000002, 35.18702598400006], [176.92137845600007, 35.10313715900003], [177.0052672820001, 25.120366959000023], [167.48388562000002, 25.246200197000064], [167.48388562000002, 35.18702598400006]]]}}, {"type": "Feature", "properties": {"OBJECTID": 40, "PlaceNode": 40, "PlaceName": "B-1D", "PersonName": "", "Contact": "", "Email": "", "Details": "", "PlaceType": ""}, "geometry": {"type": "Polygon", "coordinates": [[[164.33071589300005, 35.30419364200003], [167.48388562000002, 35.18702598400006], [167.48388562000002, 28.433975555000075], [164.17027702400003, 28.47591996700004], [164.33071589300005, 35.30419364200003]]]}}, {"type": "Feature", "properties": {"OBJECTID": 41, "PlaceNode": 41, "PlaceName": "B33", "PersonName": "", "Contact": "", "Email": "", "Details": "", "PlaceType": ""}, "geometry": {"type": "Polygon", "coordinates": [[[164.21222143700004, 25.37203343500005], [164.17027702400003, 28.47591996700004], [167.48388562000002, 28.433975555000075], [167.48388562000002, 25.246200197000064], [164.21222143700004, 25.37203343500005]]]}}, {"type": "Feature", "properties": {"OBJECTID": 42, "PlaceNode": 42, "PlaceName": "", "PersonName": "", "Contact": "", "Email": "", "Details": "", "PlaceType": ""}, "geometry": {"type": "Polygon", "coordinates": [[[167.30719574800003, 38.957525702000055], [172.02018312300004, 38.96038059800003], [172.03615054500005, 35.146561407000036], [167.32196503400007, 35.193042741000056], [167.30719574800003, 38.957525702000055]]]}}, {"type": "Feature", "properties": {"OBJECTID": 43, "PlaceNode": 43, "PlaceName": "", "PersonName": "", "Contact": "", "Email": "", "Details": "", "PlaceType": ""}, "geometry": {"type": "Polygon", "coordinates": [[[172.02055815200004, 38.87080495200007], [175.42700078400003, 38.909073103000026], [175.46467912600008, 35.11608559700005], [172.03615054500005, 35.146561407000036], [172.02055815200004, 38.87080495200007]]]}}, {"type": "Feature", "properties": {"OBJECTID": 44, "PlaceNode": 44, "PlaceName": "", "PersonName": "", "Contact": "", "Email": "", "Details": "", "PlaceType": ""}, "geometry": {"type": "Polygon", "coordinates": [[[71.82896557900006, 35.050572783000064], [78.76447808400007, 35.12385001000007], [78.77761264800006, 31.236019155000065], [71.91979923400004, 31.205281396000032], [71.82896557900006, 35.050572783000064]]]}}, {"type": "Feature", "properties": {"OBJECTID": 45, "PlaceNode": 45, "PlaceName": "", "PersonName": "", "Contact": "", "Email": "", "Details": "", "PlaceType": ""}, "geometry": {"type": "Polygon", "coordinates": [[[71.91979923400004, 31.205281396000032], [78.61121308800006, 31.235273327000073], [78.85343488600006, 24.21108997400006], [71.82896557900006, 24.241367859000036], [71.91979923400004, 31.205281396000032]]]}}, {"type": "Feature", "properties": {"OBJECTID": 46, "PlaceNode": 46, "PlaceName": "", "PersonName": "", "Contact": "", "Email": "", "Details": "", "PlaceType": ""}, "geometry": {"type": "Polygon", "coordinates": [[[100.86545723800003, 18.518847605000076], [107.25193547200007, 18.55013587600007], [107.19353519100008, 21.758581294000066], [113.30966794900007, 21.758581294000066], [113.51387386500005, 15.434613439000032], [100.86545723800003, 15.460781226000051], [100.86545723800003, 18.518847605000076]]]}}, {"type": "Feature", "properties": {"OBJECTID": 47, "PlaceNode": 47, "PlaceName": "", "PersonName": "", "Contact": "", "Email": "", "Details": "", "PlaceType": ""}, "geometry": {"type": "Polygon", "coordinates": [[[100.86545723800003, 18.518847605000076], [100.89573512300007, 21.788859179000042], [107.19353519100008, 21.758581294000066], [107.25193547200007, 18.55013587600007], [100.86545723800003, 18.518847605000076]]]}}, {"type": "Feature", "properties": {"OBJECTID": 48, "PlaceNode": 48, "PlaceName": "", "PersonName": "", "Contact": "", "Email": "", "Details": "", "PlaceType": ""}, "geometry": {"type": "Polygon", "coordinates": [[[94.60144314000007, 21.816400206000026], [94.62893787100006, 25.308231043000035], [97.71680349800005, 25.25476150800006], [97.71655720400008, 21.819137064000074], [94.60144314000007, 21.816400206000026]]]}}, {"type": "Feature", "properties": {"OBJECTID": 49, "PlaceNode": 49, "PlaceName": "", "PersonName": "", "Contact": "", "Email": "", "Details": "", "PlaceType": ""}, "geometry": {"type": "Polygon", "coordinates": [[[97.71655720400008, 21.819137064000074], [97.71680349800005, 25.25476150800006], [100.98022073200008, 25.198252119000074], [100.89573512300007, 21.788859179000042], [97.71655720400008, 21.819137064000074]]]}}, {"type": "Feature", "properties": {"OBJECTID": 50, "PlaceNode": 50, "PlaceName": "", "PersonName": "", "Contact": "", "Email": "", "Details": "", "PlaceType": ""}, "geometry": {"type": "Polygon", "coordinates": [[[94.47682351600008, 15.369947571000068], [94.60144314000007, 21.816400206000026], [100.89573512300007, 21.788859179000042], [100.86545723800003, 15.460781226000051], [94.47682351600008, 15.369947571000068]]]}}, {"type": "Feature", "properties": {"OBJECTID": 51, "PlaceNode": 51, "PlaceName": "", "PersonName": "", "Contact": "", "Email": "", "Details": "", "PlaceType": ""}, "geometry": {"type": "Polygon", "coordinates": [[[88.36069075700004, 15.400225456000044], [88.33264447200008, 21.898884399000053], [94.60144314000007, 21.816400206000026], [94.47682351600008, 15.369947571000068], [88.36069075700004, 15.400225456000044]]]}}, {"type": "Feature", "properties": {"OBJECTID": 52, "PlaceNode": 52, "PlaceName": "", "PersonName": "", "Contact": "", "Email": "", "Details": "", "PlaceType": ""}, "geometry": {"type": "Polygon", "coordinates": [[[83.09233877800006, 15.400225456000044], [83.00150512300007, 20.123575507000055], [82.03261280500004, 20.214409162000038], [81.78889849400008, 24.263431265000065], [88.33264447200008, 24.125957610000057], [88.36069075700004, 15.400225456000044], [83.09233877800006, 15.400225456000044]]]}}, {"type": "Feature", "properties": {"OBJECTID": 53, "PlaceNode": 53, "PlaceName": "", "PersonName": "", "Contact": "", "Email": "", "Details": "", "PlaceType": ""}, "geometry": {"type": "Polygon", "coordinates": [[[71.82896557900006, 35.050572783000064], [71.61702038500005, 23.968866895000076], [79.42871470000006, 23.99914478000005], [79.48927047000006, 24.453313054000034], [79.03510219500004, 24.483590939000067], [78.79197281500007, 26.985409634000064], [81.73390903200004, 26.930420172000026], [81.93186531300006, 21.88820837800006], [69.28562324400008, 21.909970719000057], [69.34617901400003, 35.050572783000064], [71.82896557900006, 35.050572783000064]]]}}, {"type": "Feature", "properties": {"OBJECTID": 54, "PlaceNode": 54, "PlaceName": "", "PersonName": "", "Contact": "", "Email": "", "Details": "", "PlaceType": ""}, "geometry": {"type": "Polygon", "coordinates": [[[100.95233418400005, 24.072898353000028], [104.67501457400004, 24.153452341000047], [104.70022052900003, 21.853718404000062], [100.89573512300007, 21.788859179000042], [100.95233418400005, 24.072898353000028]]]}}, {"type": "Feature", "properties": {"OBJECTID": 55, "PlaceNode": 55, "PlaceName": "", "PersonName": "", "Contact": "", "Email": "", "Details": "", "PlaceType": ""}, "geometry": {"type": "Polygon", "coordinates": [[[69.28562324400008, 21.909970719000057], [71.44116703800006, 21.90626134200005], [71.49285484400008, 20.243015334000063], [69.32221940300008, 20.126731292000045], [69.28562324400008, 21.909970719000057]]]}}, {"type": "Feature", "properties": {"OBJECTID": 56, "PlaceNode": 56, "PlaceName": "", "PersonName": "", "Contact": "", "Email": "", "Details": "", "PlaceType": ""}, "geometry": {"type": "Polygon", "coordinates": [[[71.91931117400003, 21.90543852600007], [74.11575877400003, 21.901658759000043], [74.10278555200006, 20.243015334000063], [72.55233166600004, 20.243015334000063], [72.52649076800003, 21.25081036000006], [71.89338876400006, 21.25081036000006], [71.91931117400003, 21.90543852600007]]]}}, {"type": "Feature", "properties": {"OBJECTID": 57, "PlaceNode": 57, "PlaceName": "<steps>", "PersonName": "", "Contact": "", "Email": "", "Details": "", "PlaceType": ""}, "geometry": {"type": "Polygon", "coordinates": [[[74.11575877400003, 21.901658759000043], [81.88097012600008, 21.88829596100004], [81.97133902300004, 20.075049496000076], [74.10278555200006, 20.243015334000063], [74.11575877400003, 21.901658759000043]]]}}, {"type": "Feature", "properties": {"OBJECTID": 58, "PlaceNode": 58, "PlaceName": "", "PersonName": "", "Contact": "", "Email": "", "Details": "", "PlaceType": ""}, "geometry": {"type": "Polygon", "coordinates": [[[108.94176774700009, 39.26054847300003], [108.92374426400005, 41.74778907900003], [113.53775582200001, 41.783836044000054], [113.53775582200001, 39.26054847300003], [108.94176774700009, 39.26054847300003]]]}}, {"type": "Feature", "properties": {"OBJECTID": 59, "PlaceNode": 59, "PlaceName": "<steps>", "PersonName": "", "Contact": "", "Email": "", "Details": "", "PlaceType": ""}, "geometry": {"type": "Polygon", "coordinates": [[[108.92374426400005, 41.74778907900003], [108.94176774700009, 45.118180334000044], [113.59182627000007, 45.316438643000026], [113.64589671800002, 41.783836044000054], [108.92374426400005, 41.74778907900003]]]}}, {"type": "Feature", "properties": {"OBJECTID": 60, "PlaceNode": 60, "PlaceName": "B-Restroom (Female) - 1", "PersonName": "", "Contact": "", "Email": "", "Details": "", "PlaceType": "Facility,female"}, "geometry": {"type": "Polygon", "coordinates": [[[111.25771509800006, 82.71956241300006], [111.23507380800004, 82.99125789300007], [110.62375897700008, 83.01389918300004], [110.65772091200006, 86.36481010800009], [111.33695961300003, 87.53083654400007], [114.06523506100007, 87.56479847900005], [114.07655570700001, 82.67427983300007], [111.25771509800006, 82.71956241300006]]]}}, {"type": "Feature", "properties": {"OBJECTID": 61, "PlaceNode": 61, "PlaceName": "B-Restroom (Male) - 1", "PersonName": "", "Contact": "", "Email": "", "Details": "", "PlaceType": "Facility,male"}, "geometry": {"type": "Polygon", "coordinates": [[[114.22372409200011, 82.67427983300007], [114.18976215700002, 84.06671917000006], [114.55202279700006, 84.05539852500004], [114.46145763700008, 87.53083654400007], [117.76708598100004, 87.54215718900008], [117.91425436700001, 82.61767660800007], [114.22372409200011, 82.67427983300007]]]}}, {"type": "Feature", "properties": {"OBJECTID": 62, "PlaceNode": 62, "PlaceName": "", "PersonName": "", "Contact": "", "Email": "", "Details": "", "PlaceType": ""}, "geometry": {"type": "Polygon", "coordinates": [[[121.31241533000002, 84.27074268300004], [121.34507124400011, 87.51456341300008], [123.7071823120001, 87.50367810900008], [124.26233284000011, 86.45868888000007], [124.26233284000011, 84.27074268300004], [121.31241533000002, 84.27074268300004]]]}}, {"type": "Feature", "properties": {"OBJECTID": 63, "PlaceNode": 63, "PlaceName": "", "PersonName": "", "Contact": "", "Email": "", "Details": "", "PlaceType": ""}, "geometry": {"type": "Polygon", "coordinates": [[[124.26233284000011, 84.27074268300004], [124.26233284000011, 86.45868888000007], [127.46261235200006, 86.51311540300009], [127.46261235200006, 84.28162798800008], [124.26233284000011, 84.27074268300004]]]}}, {"type": "Feature", "properties": {"OBJECTID": 64, "PlaceNode": 64, "PlaceName": "", "PersonName": "", "Contact": "", "Email": "", "Details": "", "PlaceType": ""}, "geometry": {"type": "Polygon", "coordinates": [[[127.46261235200006, 84.28162798800008], [127.46261235200006, 86.46957418500006], [130.64112125500003, 86.46957418500006], [130.60846534200004, 84.30339859700007], [127.46261235200006, 84.28162798800008]]]}}, {"type": "Feature", "properties": {"OBJECTID": 65, "PlaceNode": 65, "PlaceName": "Steps1", "PersonName": "C,D,E", "Contact": "", "Email": "", "Details": "", "PlaceType": ""}, "geometry": {"type": "Polygon", "coordinates": [[[117.91425436700001, 82.61767660800007], [117.76708598100004, 87.54215718900008], [117.89446189900002, 88.00059786900005], [118.52992427700008, 89.34777811200007], [120.63965937500006, 89.29694112100003], [121.24970325800007, 87.77183141200004], [121.19886626800007, 82.58645840200006], [117.91425436700001, 82.61767660800007]]]}}, {"type": "Feature", "properties": {"OBJECTID": 66, "PlaceNode": 66, "PlaceName": "", "PersonName": "", "Contact": "", "Email": "", "Details": "", "PlaceType": ""}, "geometry": {"type": "Polygon", "coordinates": [[[105.33152211500004, 47.14282229400004], [108.84529371600007, 47.16464696200006], [108.93391928600005, 43.65051813600007], [105.35334678300006, 43.47627801400006], [105.33152211500004, 47.14282229400004]]]}}, {"type": "Feature", "properties": {"OBJECTID": 67, "PlaceNode": 67, "PlaceName": "B114", "PersonName": "", "Contact": "", "Email": "", "Details": "", "PlaceType": ""}, "geometry": {"type": "Polygon", "coordinates": [[[105.33152211500004, 47.14282229400004], [105.39699612000004, 55.52349493400004], [113.55942207600003, 55.52349493400004], [113.59182627000007, 45.316438643000026], [108.89319086300009, 45.26545753200003], [108.97624172600007, 47.23012096700006], [105.33152211500004, 47.14282229400004]]]}}, {"type": "Feature", "properties": {"OBJECTID": 68, "PlaceNode": 68, "PlaceName": "", "PersonName": "", "Contact": "", "Email": "", "Details": "", "PlaceType": ""}, "geometry": {"type": "Polygon", "coordinates": [[[105.54218859000008, 73.92502068500005], [110.72554003600004, 73.90091207300003], [110.67732281300005, 69.19973285400005], [110.05049891700008, 69.17562424300007], [109.92995586000006, 68.45236590200005], [113.54624756700002, 68.57290895900007], [113.55942207600003, 55.52349493400004], [105.39699612000004, 55.52349493400004], [105.54218859000008, 73.92502068500005]]]}}, {"type": "Feature", "properties": {"OBJECTID": 69, "PlaceNode": 69, "PlaceName": "B115", "PersonName": "Turbulence Lab", "Contact": "", "Email": "", "Details": "", "PlaceType": "Lab"}, "geometry": {"type": "Polygon", "coordinates": [[[110.72554003600004, 73.90091207300003], [113.44981312200002, 73.87680346200005], [113.54624756700002, 68.57290895900007], [110.79786587000007, 68.66934340400007], [110.72554003600004, 73.90091207300003]]]}}, {"type": "Feature", "properties": {"OBJECTID": 70, "PlaceNode": 70, "PlaceName": "B118", "PersonName": "Mechanical Engineering Lab", "Contact": "", "Email": "", "Details": "", "PlaceType": "Lab"}, "geometry": {"type": "Polygon", "coordinates": [[[105.50168550900008, 68.79170707300005], [100.08747286600004, 68.72718968000004], [99.97895551000005, 80.07810513300007], [113.60873544300011, 80.09980860400003], [113.44981312200002, 73.87680346200005], [105.38311984700005, 74.02283666000005], [105.50168550900008, 68.79170707300005]]]}}, {"type": "Feature", "properties": {"OBJECTID": 71, "PlaceNode": 71, "PlaceName": "", "PersonName": "", "Contact": "", "Email": "", "Details": "", "PlaceType": ""}, "geometry": {"type": "Polygon", "coordinates": [[[100.08704800600003, 68.77163001100007], [94.33605299000004, 68.64037579500007], [93.46791414100005, 70.09450836700006], [93.35939678500006, 75.52037617500008], [94.74841894400004, 75.56378311700007], [94.79182588600008, 80.05640166200004], [99.97895551000005, 80.07810513300007], [100.08704800600003, 68.77163001100007]]]}}, {"type": "Feature", "properties": {"OBJECTID": 72, "PlaceNode": 72, "PlaceName": "", "PersonName": "", "Contact": "", "Email": "", "Details": "", "PlaceType": ""}, "geometry": {"type": "Polygon", "coordinates": [[[116.00585849200002, 43.375358497000036], [115.94869072800009, 55.91415474400003], [126.27700009800003, 55.89509882300007], [126.11915354900009, 46.10956561200004], [122.6878173120001, 46.10956561200004], [122.6878173120001, 43.37377050400005], [116.00585849200002, 43.375358497000036]]]}}, {"type": "Feature", "properties": {"OBJECTID": 73, "PlaceNode": 73, "PlaceName": "", "PersonName": "", "Contact": "", "Email": "", "Details": "", "PlaceType": ""}, "geometry": {"type": "Polygon", "coordinates": [[[122.6878173120001, 43.37377050400005], [122.6878173120001, 46.10956561200004], [126.11915354900009, 46.10956561200004], [126.15917835400012, 43.305775836000066], [122.6878173120001, 43.37377050400005]]]}}, {"type": "Feature", "properties": {"OBJECTID": 74, "PlaceNode": 74, "PlaceName": "", "PersonName": "", "Contact": "", "Email": "", "Details": "", "PlaceType": ""}, "geometry": {"type": "Polygon", "coordinates": [[[115.91788365500008, 68.78420642300006], [126.11915354900009, 68.55235938000004], [126.2437017200001, 58.56519992800003], [123.186175692, 58.627362377000054], [123.2853992470001, 55.90061838200006], [115.94869072800009, 55.91415474400003], [115.91788365500008, 68.78420642300006]]]}}, {"type": "Feature", "properties": {"OBJECTID": 75, "PlaceNode": 75, "PlaceName": "Steps3", "PersonName": "C,D,E", "Contact": "", "Email": "", "Details": "", "PlaceType": ""}, "geometry": {"type": "Polygon", "coordinates": [[[140.0299761330001, 82.64865959800005], [142.53392419800002, 82.64865959800005], [143.2758347360001, 81.62853260900005], [143.5076817790001, 77.17706938200007], [142.62666301500008, 75.60050948900005], [140.16908435900007, 75.64687889800007], [140.0299761330001, 82.64865959800005]]]}}, {"type": "Feature", "properties": {"OBJECTID": 76, "PlaceNode": 76, "PlaceName": "B107", "PersonName": "", "Contact": "", "Email": "", "Details": "", "PlaceType": ""}, "geometry": {"type": "Polygon", "coordinates": [[[115.87151424600006, 77.22343879100004], [119.8129139780001, 77.17706938200007], [119.67380575200002, 75.60050948900005], [115.91788365500008, 75.46140126300008], [115.87151424600006, 77.22343879100004]]]}}, {"type": "Feature", "properties": {"OBJECTID": 77, "PlaceNode": 77, "PlaceName": "B018", "PersonName": "", "Contact": "", "Email": "", "Details": "", "PlaceType": ""}, "geometry": {"type": "Polygon", "coordinates": [[[115.96425306300011, 74.16305782200004], [115.91788365500008, 75.46140126300008], [119.67380575200002, 75.60050948900005], [119.8129139780001, 73.83847196200003], [115.96425306300011, 74.16305782200004]]]}}, {"type": "Feature", "properties": {"OBJECTID": 78, "PlaceNode": 78, "PlaceName": "", "PersonName": "", "Contact": "", "Email": "", "Details": "", "PlaceType": ""}, "geometry": {"type": "Polygon", "coordinates": [[[119.76350434500011, 68.69680595300008], [119.8129139780001, 77.17706938200007], [119.16328664900004, 77.18471205700007], [118.97826462300009, 79.91286449000006], [130.477877959, 80.09834212500004], [130.57061677600007, 68.45962056300004], [119.76350434500011, 68.69680595300008]]]}}, {"type": "Feature", "properties": {"OBJECTID": 79, "PlaceNode": 79, "PlaceName": "", "PersonName": "", "Contact": "", "Email": "", "Details": "", "PlaceType": ""}, "geometry": {"type": "Polygon", "coordinates": [[[130.57061677600007, 68.45962056300004], [130.477877959, 80.09834212500004], [140.08250305800004, 80.00480439600005], [140.16908435900007, 75.64687889800007], [141.5168169960001, 75.62144998000008], [141.56016661700005, 70.45350513300008], [140.6327784450001, 68.50598997200007], [130.57061677600007, 68.45962056300004]]]}}, {"type": "Feature", "properties": {"OBJECTID": 80, "PlaceNode": 80, "PlaceName": "", "PersonName": "", "Contact": "", "Email": "", "Details": "", "PlaceType": ""}, "geometry": {"type": "Polygon", "coordinates": [[[121.15762682800005, 80.19108094200004], [121.31241533000002, 84.27074268300004], [130.60846534200004, 84.30339859700007], [130.64112125500003, 86.46957418500006], [139.47354323000002, 86.54368992200006], [140.40093140200008, 85.01349943700006], [140.40093140200008, 82.64865959800005], [140.0299761330001, 82.64865959800005], [140.04701530800003, 80.00515000500008], [121.15762682800005, 80.19108094200004]]]}}, {"type": "Feature", "properties": {"OBJECTID": 81, "PlaceNode": 81, "PlaceName": "", "PersonName": "", "Contact": "", "Email": "", "Details": "", "PlaceType": ""}, "geometry": {"type": "Polygon", "coordinates": [[[107.37822477200007, 82.65588959700005], [107.44658908000008, 86.48429082500007], [110.65772091200006, 86.36481010800009], [110.50019482100004, 82.72425390500007], [107.37822477200007, 82.65588959700005]]]}}, {"type": "Feature", "properties": {"OBJECTID": 82, "PlaceNode": 82, "PlaceName": "", "PersonName": "", "Contact": "", "Email": "", "Details": "", "PlaceType": ""}, "geometry": {"type": "Polygon", "coordinates": [[[106.83147871500006, 80.08901679400003], [95.91598708400005, 80.06110526500004], [95.77908057400003, 82.61031339200008], [94.57131113900004, 82.61031339200008], [94.52573493400007, 84.91191175000006], [95.41447093400006, 86.46150272300008], [107.44658908000008, 86.48429082500007], [107.37822477200007, 82.65588959700005], [106.80852220800006, 82.70146580200003], [106.83147871500006, 80.08901679400003]]]}}, {"type": "Feature", "properties": {"OBJECTID": 83, "PlaceNode": 83, "PlaceName": "Steps4", "PersonName": "C,D,E", "Contact": "", "Email": "", "Details": "", "PlaceType": ""}, "geometry": {"type": "Polygon", "coordinates": [[[91.60341350500005, 80.62843236700007], [93.42772303900006, 80.58253778700004], [93.46214397300008, 80.03180283400008], [94.79182588600008, 80.05640166200004], [94.74841894400004, 75.56378311700007], [92.45246322500003, 75.51118675500004], [91.54604528000004, 77.25518077500004], [91.60341350500005, 80.62843236700007]]]}}, {"type": "Feature", "properties": {"OBJECTID": 84, "PlaceNode": 84, "PlaceName": "", "PersonName": "", "Contact": "", "Email": "", "Details": "", "PlaceType": ""}, "geometry": {"type": "Polygon", "coordinates": [[[70.58901274400006, 48.89782952400003], [70.62591078600008, 54.22959658700006], [81.43703708000004, 54.30339267100004], [81.40013903800008, 48.84248246100003], [70.58901274400006, 48.89782952400003]]]}}, {"type": "Feature", "properties": {"OBJECTID": 85, "PlaceNode": 85, "PlaceName": "", "PersonName": "", "Contact": "", "Email": "", "Details": "", "PlaceType": ""}, "geometry": {"type": "Polygon", "coordinates": [[[70.66343673900008, 54.229852737000044], [70.66280882800004, 59.65360875500005], [81.47393512200006, 59.63515973400007], [81.43703708000004, 54.30339267100004], [70.66343673900008, 54.229852737000044]]]}}, {"type": "Feature", "properties": {"OBJECTID": 86, "PlaceNode": 86, "PlaceName": "", "PersonName": "", "Contact": "", "Email": "", "Details": "", "PlaceType": ""}, "geometry": {"type": "Polygon", "coordinates": [[[70.66280882800004, 59.65360875500005], [70.60746176500004, 63.841536517000065], [81.47393512200006, 63.82308749600003], [81.47393512200006, 59.63515973400007], [70.66280882800004, 59.65360875500005]]]}}, {"type": "Feature", "properties": {"OBJECTID": 87, "PlaceNode": 87, "PlaceName": "", "PersonName": "", "Contact": "", "Email": "", "Details": "", "PlaceType": ""}, "geometry": {"type": "Polygon", "coordinates": [[[70.60746176500004, 63.841536517000065], [70.62591078600008, 71.18424686700007], [81.41858805900006, 71.16579784600003], [81.40001396100007, 63.82321299900008], [70.60746176500004, 63.841536517000065]]]}}, {"type": "Feature", "properties": {"OBJECTID": 88, "PlaceNode": 88, "PlaceName": "", "PersonName": "", "Contact": "", "Email": "", "Details": "", "PlaceType": ""}, "geometry": {"type": "Polygon", "coordinates": [[[70.62591078600008, 71.18424686700007], [70.57056372300008, 75.15078637800008], [73.31946784900003, 75.13233735700004], [73.35636589100005, 75.57511386000004], [76.49269945800006, 75.57511386000004], [76.51114847900004, 75.11388833600006], [81.45548610100008, 75.22458246200006], [81.41858805900006, 71.16579784600003], [70.62591078600008, 71.18424686700007]]]}}, {"type": "Feature", "properties": {"OBJECTID": 89, "PlaceNode": 89, "PlaceName": "", "PersonName": "", "Contact": "", "Email": "", "Details": "", "PlaceType": ""}, "geometry": {"type": "Polygon", "coordinates": [[[70.75505393300006, 75.70425700700008], [70.73660491200008, 77.49381204200006], [72.93203840900003, 77.47536302100008], [72.93203840900003, 75.64890994400008], [70.75505393300006, 75.70425700700008]]]}}, {"type": "Feature", "properties": {"OBJECTID": 90, "PlaceNode": 90, "PlaceName": "", "PersonName": "", "Contact": "", "Email": "", "Details": "", "PlaceType": ""}, "geometry": {"type": "Polygon", "coordinates": [[[73.35636589100005, 75.79650211200004], [73.28256980700007, 77.75209833600007], [74.85073659000005, 77.69675127300007], [74.86918561100003, 75.79650211200004], [73.35636589100005, 75.79650211200004]]]}}, {"type": "Feature", "properties": {"OBJECTID": 91, "PlaceNode": 91, "PlaceName": "", "PersonName": "", "Contact": "", "Email": "", "Details": "", "PlaceType": ""}, "geometry": {"type": "Polygon", "coordinates": [[[75.01677777900005, 75.79650211200004], [75.03522680000003, 77.71520029400006], [76.67718966700005, 78.91438665800007], [76.65874064600007, 75.77805309100006], [75.01677777900005, 75.79650211200004]]]}}, {"type": "Feature", "properties": {"OBJECTID": 92, "PlaceNode": 92, "PlaceName": "B-Restroom (Female) - 2", "PersonName": "", "Contact": "", "Email": "", "Details": "", "PlaceType": "Facility,female"}, "geometry": {"type": "Polygon", "coordinates": [[[65.18029541000004, 80.33327110500005], [66.65866902200008, 80.22850447100006], [68.04391673800006, 78.95966412600006], [68.07883895000003, 75.40923930800005], [65.12209172400003, 75.40923930800005], [65.18029541000004, 80.33327110500005]]]}}, {"type": "Feature", "properties": {"OBJECTID": 93, "PlaceNode": 93, "PlaceName": "", "PersonName": "", "Contact": "", "Email": "", "Details": "", "PlaceType": ""}, "geometry": {"type": "Polygon", "coordinates": [[[63.25957378700008, 75.30447267400007], [68.07883895000003, 75.40923930800005], [68.09047968700008, 68.32003040900008], [63.364340421000065, 68.38987483100004], [63.25957378700008, 75.30447267400007]]]}}, {"type": "Feature", "properties": {"OBJECTID": 94, "PlaceNode": 94, "PlaceName": "", "PersonName": "", "Contact": "", "Email": "", "Details": "", "PlaceType": ""}, "geometry": {"type": "Polygon", "coordinates": [[[63.364340421000065, 68.38987483100004], [68.09047968700008, 68.32003040900008], [68.05555747500006, 62.860524705000046], [63.27121452400007, 62.87216544200004], [63.364340421000065, 68.38987483100004]]]}}, {"type": "Feature", "properties": {"OBJECTID": 95, "PlaceNode": 95, "PlaceName": "", "PersonName": "", "Contact": "", "Email": "", "Details": "", "PlaceType": ""}, "geometry": {"type": "Polygon", "coordinates": [[[63.27121452400007, 62.87216544200004], [65.69253015400005, 62.86627416300007], [65.65756563100007, 58.80954819100003], [63.32941821000003, 58.79790745400004], [63.27121452400007, 62.87216544200004]]]}}, {"type": "Feature", "properties": {"OBJECTID": 96, "PlaceNode": 96, "PlaceName": "", "PersonName": "", "Contact": "", "Email": "", "Details": "", "PlaceType": ""}, "geometry": {"type": "Polygon", "coordinates": [[[65.65756563100007, 58.80954819100003], [65.69253015400005, 62.86627416300007], [67.91592610300006, 62.86086444100005], [67.90422789300004, 58.79790745400004], [65.65756563100007, 58.80954819100003]]]}}, {"type": "Feature", "properties": {"OBJECTID": 97, "PlaceNode": 97, "PlaceName": "", "PersonName": "", "Contact": "", "Email": "", "Details": "", "PlaceType": ""}, "geometry": {"type": "Polygon", "coordinates": [[[63.25957378700008, 58.72806303200008], [67.90422789300004, 58.79790745400004], [67.88094641900005, 54.92154199700008], [63.35269968400007, 54.94482347100006], [63.25957378700008, 58.72806303200008]]]}}, {"type": "Feature", "properties": {"OBJECTID": 98, "PlaceNode": 98, "PlaceName": "", "PersonName": "", "Contact": "", "Email": "", "Details": "", "PlaceType": ""}, "geometry": {"type": "Polygon", "coordinates": [[[68.19524632100007, 51.12666170000006], [70.36042342300004, 51.12666170000006], [70.45354932000004, 48.996406809000064], [68.17196484700008, 49.04296975700004], [68.19524632100007, 51.12666170000006]]]}}, {"type": "Feature", "properties": {"OBJECTID": 99, "PlaceNode": 99, "PlaceName": "B-Restroom (Male) - 2", "PersonName": "", "Contact": "", "Email": "", "Details": "", "PlaceType": "Facility,male"}, "geometry": {"type": "Polygon", "coordinates": [[[79.49645340600006, 75.38231163300003], [77.82802263900004, 75.45125505300007], [77.78665658700004, 76.48540635400008], [76.78008265400007, 76.59571582700005], [76.75250528600003, 79.00873553000008], [78.13137368800005, 80.27729446000006], [79.51024209000008, 80.29108314400008], [79.49645340600006, 75.38231163300003]]]}}, {"type": "Feature", "properties": {"OBJECTID": 100, "PlaceNode": 100, "PlaceName": "", "PersonName": "", "Contact": "", "Email": "", "Details": "", "PlaceType": ""}, "geometry": {"type": "Polygon", "coordinates": [[[77.91547507700005, 82.80773469700006], [77.90004767500005, 84.62816811500005], [81.54091451200009, 84.64359551700005], [81.54840562000004, 82.83074738100004], [77.91547507700005, 82.80773469700006]]]}}, {"type": "Feature", "properties": {"OBJECTID": 101, "PlaceNode": 101, "PlaceName": "", "PersonName": "", "Contact": "", "Email": "", "Details": "", "PlaceType": ""}, "geometry": {"type": "Polygon", "coordinates": [[[56.54418455600006, 84.33123884000008], [63.30427920500006, 84.22450050400005], [63.33985865000005, 83.01479935600008], [65.61694316400008, 82.94364046500004], [65.51020482700005, 80.55981761500004], [65.17749280700008, 80.09617086000003], [56.47302566500008, 80.27518205100006], [56.54418455600006, 84.33123884000008]]]}}, {"type": "Feature", "properties": {"OBJECTID": 102, "PlaceNode": 102, "PlaceName": "", "PersonName": "", "Contact": "", "Email": "", "Details": "", "PlaceType": ""}, "geometry": {"type": "Polygon", "coordinates": [[[63.33985865000005, 83.01479935600008], [63.30427920500006, 84.22450050400005], [66.89305555400006, 84.36095176500004], [66.87445847800007, 82.92897687200008], [63.33985865000005, 83.01479935600008]]]}}, {"type": "Feature", "properties": {"OBJECTID": 103, "PlaceNode": 103, "PlaceName": "", "PersonName": "", "Contact": "", "Email": "", "Details": "", "PlaceType": ""}, "geometry": {"type": "Polygon", "coordinates": [[[66.87445847800007, 82.92897687200008], [66.93024970800008, 88.35932322100007], [77.80953948200005, 88.37792029700006], [77.91444407400007, 82.92939308700005], [74.51785693500005, 80.79031307000008], [70.59387378500003, 80.75311891700005], [69.31067550400007, 81.36682244300005], [69.23628719800007, 82.92897687200008], [66.87445847800007, 82.92897687200008]]]}}, {"type": "Feature", "properties": {"OBJECTID": 104, "PlaceNode": 104, "PlaceName": "B109", "PersonName": "", "Contact": "", "Email": "", "Details": "", "PlaceType": ""}, "geometry": {"type": "Polygon", "coordinates": [[[116.06772198600004, 73.95842340700005], [119.711788436, 73.84700062200005], [119.76487911800007, 68.93276071000008], [116.1784100640001, 68.77828536800007], [116.06772198600004, 73.95842340700005]]]}}, {"type": "Feature", "properties": {"OBJECTID": 105, "PlaceNode": 105, "PlaceName": "Lift1", "PersonName": "C,D,E", "Contact": "", "Email": "", "Details": "", "PlaceType": ""}, "geometry": {"type": "Polygon", "coordinates": [[[116.14272507200008, 79.56490405200003], [118.84283615100003, 79.62115636600004], [118.93659000800005, 77.31481148500006], [116.10522352900011, 77.31481148500006], [116.14272507200008, 79.56490405200003]]]}}, {"type": "Feature", "properties": {"OBJECTID": 106, "PlaceNode": 106, "PlaceName": "<steps>", "PersonName": "C,D", "Contact": "", "Email": "", "Details": "", "PlaceType": ""}, "geometry": {"type": "Polygon", "coordinates": [[[67.81453301200008, 54.773496495000074], [67.82821185400007, 51.230676567000046], [68.01971563300003, 51.29907077400003], [68.10178868200006, 49.110456147000036], [63.25947881900004, 49.15149267100003], [63.204763454000044, 54.82821186100006], [67.81453301200008, 54.773496495000074]]]}}, {"type": "Feature", "properties": {"OBJECTID": 107, "PlaceNode": 107, "PlaceName": "Lift3", "PersonName": "C,D,E", "Contact": "", "Email": "", "Details": "", "PlaceType": ""}, "geometry": {"type": "Polygon", "coordinates": [[[161.65369057800012, 21.41817962400006], [163.86689638100006, 21.41817962400006], [163.98493402400004, 18.614785607000044], [161.62418116700007, 18.526257375000057], [161.65369057800012, 21.41817962400006]]]}}, {"type": "Feature", "properties": {"OBJECTID": 108, "PlaceNode": 108, "PlaceName": "", "PersonName": "", "Contact": "", "Email": "", "Details": "", "PlaceType": ""}, "geometry": {"type": "Polygon", "coordinates": [[[113.6290458420001, 26.83546191100004], [116.51946434500007, 26.94179721100005], [116.56461742800002, 25.421469314000035], [113.64441532700005, 25.35999137500005], [113.6290458420001, 26.83546191100004]]]}}, {"type": "Feature", "properties": {"OBJECTID": 109, "PlaceNode": 109, "PlaceName": "Lift2", "PersonName": "C,D,E", "Contact": "", "Email": "", "Details": "", "PlaceType": ""}, "geometry": {"type": "Polygon", "coordinates": [[[117.1793968180001, 25.45220828400005], [117.1025493940001, 27.219699029000026], [119.50018901400006, 27.204329544000075], [119.4848195290001, 25.406099830000073], [117.1793968180001, 25.45220828400005]]]}}, {"type": "Feature", "properties": {"OBJECTID": 110, "PlaceNode": 110, "PlaceName": "", "PersonName": "", "Contact": "", "Email": "", "Details": "", "PlaceType": ""}, "geometry": {"type": "Polygon", "coordinates": [[[81.54840562000004, 82.83074738100004], [81.54298570900005, 84.14236583100006], [91.36089102600005, 84.14273749900008], [91.40300341500006, 82.75302868800009], [81.54840562000004, 82.83074738100004]]]}}, {"type": "Feature", "properties": {"OBJECTID": 111, "PlaceNode": 111, "PlaceName": "", "PersonName": "", "Contact": "", "Email": "", "Details": "", "PlaceType": ""}, "geometry": {"type": "Polygon", "coordinates": [[[123.28558214800012, 55.900618044000055], [123.2905084040001, 58.57064862400006], [126.2437017200001, 58.56519992800003], [126.23877546400001, 55.89516934800008], [123.28558214800012, 55.900618044000055]]]}}]}