{"type": "FeatureCollection", "features": [{"type": "Feature", "properties": {"OBJECTID": 1, "PlaceNode": 19}, "geometry": {"type": "Point", "coordinates": [117.23645123600011, 8.849716629000056]}}, {"type": "Feature", "properties": {"OBJECTID": 2, "PlaceNode": 20}, "geometry": {"type": "Point", "coordinates": [119.97487353500003, 8.030462757000066]}}, {"type": "Feature", "properties": {"OBJECTID": 3, "PlaceNode": 21}, "geometry": {"type": "Point", "coordinates": [123.05486356400002, 5.385996048000038]}}, {"type": "Feature", "properties": {"OBJECTID": 4, "PlaceNode": 22}, "geometry": {"type": "Point", "coordinates": [123.62471867300007, 6.96798282900005]}}, {"type": "Feature", "properties": {"OBJECTID": 5, "PlaceNode": 24}, "geometry": {"type": "Point", "coordinates": [131.41256760400006, 5.267200194000054]}}, {"type": "Feature", "properties": {"OBJECTID": 6, "PlaceNode": 23}, "geometry": {"type": "Point", "coordinates": [120.99496902400006, 11.814275403000067]}}, {"type": "Feature", "properties": {"OBJECTID": 7, "PlaceNode": 22}, "geometry": {"type": "Point", "coordinates": [122.13940897400005, 8.733898004000025]}}, {"type": "Feature", "properties": {"OBJECTID": 8, "PlaceNode": 26}, "geometry": {"type": "Point", "coordinates": [123.54475655700003, 11.02664145700004]}}, {"type": "Feature", "properties": {"OBJECTID": 9, "PlaceNode": 28}, "geometry": {"type": "Point", "coordinates": [141.97539836600004, 21.951819286000045]}}, {"type": "Feature", "properties": {"OBJECTID": 10, "PlaceNode": 27}, "geometry": {"type": "Point", "coordinates": [144.31485697100004, 19.545643772000062]}}, {"type": "Feature", "properties": {"OBJECTID": 11, "PlaceNode": 31}, "geometry": {"type": "Point", "coordinates": [148.41353045100004, 21.851448230000074]}}, {"type": "Feature", "properties": {"OBJECTID": 12, "PlaceNode": 33}, "geometry": {"type": "Point", "coordinates": [152.21845960000007, 21.759598545000074]}}, {"type": "Feature", "properties": {"OBJECTID": 13, "PlaceNode": 34}, "geometry": {"type": "Point", "coordinates": [158.8879709470001, 21.721072913000057]}}, {"type": "Feature", "properties": {"OBJECTID": 14, "PlaceNode": 36}, "geometry": {"type": "Point", "coordinates": [160.63342513700002, 21.828678009000043]}}, {"type": "Feature", "properties": {"OBJECTID": 15, "PlaceNode": 10}, "geometry": {"type": "Point", "coordinates": [146.74789117300008, 25.103230305000068]}}, {"type": "Feature", "properties": {"OBJECTID": 16, "PlaceNode": 8}, "geometry": {"type": "Point", "coordinates": [148.34452957300005, 33.00206484800003]}}, {"type": "Feature", "properties": {"OBJECTID": 17, "PlaceNode": 9}, "geometry": {"type": "Point", "coordinates": [154.660646336, 32.950222120000035]}}, {"type": "Feature", "properties": {"OBJECTID": 18, "PlaceNode": 37}, "geometry": {"type": "Point", "coordinates": [165.58327868100002, 21.967572562000043]}}, {"type": "Feature", "properties": {"OBJECTID": 19, "PlaceNode": 35}, "geometry": {"type": "Point", "coordinates": [168.1109957660001, 21.838966439000046]}}, {"type": "Feature", "properties": {"OBJECTID": 20, "PlaceNode": 38}, "geometry": {"type": "Point", "coordinates": [170.3134143730001, 23.56033773400003]}}, {"type": "Feature", "properties": {"OBJECTID": 21, "PlaceNode": 35}, "geometry": {"type": "Point", "coordinates": [171.54984689900004, 21.747126155000046]}}, {"type": "Feature", "properties": {"OBJECTID": 22, "PlaceNode": 41}, "geometry": {"type": "Point", "coordinates": [166.6263558820001, 25.27918211000008]}}, {"type": "Feature", "properties": {"OBJECTID": 23, "PlaceNode": 39}, "geometry": {"type": "Point", "coordinates": [168.78808031100004, 25.22896414400003]}}, {"type": "Feature", "properties": {"OBJECTID": 24, "PlaceNode": 41}, "geometry": {"type": "Point", "coordinates": [164.18022974500002, 27.739418605000026]}}, {"type": "Feature", "properties": {"OBJECTID": 25, "PlaceNode": 40}, "geometry": {"type": "Point", "coordinates": [164.18848373800006, 29.25079719400003]}}, {"type": "Feature", "properties": {"OBJECTID": 26, "PlaceNode": 9}, "geometry": {"type": "Point", "coordinates": [156.30874056200003, 25.058577184000058]}}, {"type": "Feature", "properties": {"OBJECTID": 27, "PlaceNode": 43}, "geometry": {"type": "Point", "coordinates": [172.0327136830001, 35.96745611000006]}}, {"type": "Feature", "properties": {"OBJECTID": 28, "PlaceNode": 42}, "geometry": {"type": "Point", "coordinates": [171.24885740800005, 35.154324028000076]}}, {"type": "Feature", "properties": {"OBJECTID": 29, "PlaceNode": 7}, "geometry": {"type": "Point", "coordinates": [161.81281433200002, 37.84757898400005]}}, {"type": "Feature", "properties": {"OBJECTID": 30, "PlaceNode": 6}, "geometry": {"type": "Point", "coordinates": [161.7462299780001, 40.89714540800003]}}, {"type": "Feature", "properties": {"OBJECTID": 31, "PlaceNode": 5}, "geometry": {"type": "Point", "coordinates": [161.73721540100007, 44.439343198000074]}}, {"type": "Feature", "properties": {"OBJECTID": 32, "PlaceNode": 4}, "geometry": {"type": "Point", "coordinates": [161.7501069120001, 47.69615588500005]}}, {"type": "Feature", "properties": {"OBJECTID": 33, "PlaceNode": 2}, "geometry": {"type": "Point", "coordinates": [164.23508885600006, 47.52393063800008]}}, {"type": "Feature", "properties": {"OBJECTID": 34, "PlaceNode": 1}, "geometry": {"type": "Point", "coordinates": [127.81683708500009, 21.76849683300003]}}, {"type": "Feature", "properties": {"OBJECTID": 35, "PlaceNode": 1}, "geometry": {"type": "Point", "coordinates": [122.2087142800001, 20.493397344000073]}}, {"type": "Feature", "properties": {"OBJECTID": 36, "PlaceNode": 109}, "geometry": {"type": "Point", "coordinates": [118.51969526000005, 25.425402315000042]}}, {"type": "Feature", "properties": {"OBJECTID": 37, "PlaceNode": 18}, "geometry": {"type": "Point", "coordinates": [115.02478573200005, 23.23785562000006]}}, {"type": "Feature", "properties": {"OBJECTID": 38, "PlaceNode": 17}, "geometry": {"type": "Point", "coordinates": [119.76516942, 33.37432142400007]}}, {"type": "Feature", "properties": {"OBJECTID": 39, "PlaceNode": 13}, "geometry": {"type": "Point", "coordinates": [126.27403417200003, 28.617278558000066]}}, {"type": "Feature", "properties": {"OBJECTID": 40, "PlaceNode": 12}, "geometry": {"type": "Point", "coordinates": [122.32574088600006, 33.49596007800005]}}, {"type": "Feature", "properties": {"OBJECTID": 41, "PlaceNode": 16}, "geometry": {"type": "Point", "coordinates": [119.91785332400002, 37.224616722000064]}}, {"type": "Feature", "properties": {"OBJECTID": 42, "PlaceNode": 15}, "geometry": {"type": "Point", "coordinates": [115.7641603080001, 37.224625063000076]}}, {"type": "Feature", "properties": {"OBJECTID": 43, "PlaceNode": 58}, "geometry": {"type": "Point", "coordinates": [113.53775582200001, 40.78922431800004]}}, {"type": "Feature", "properties": {"OBJECTID": 44, "PlaceNode": 59}, "geometry": {"type": "Point", "coordinates": [113.6355285300001, 42.46122431800006]}}, {"type": "Feature", "properties": {"OBJECTID": 45, "PlaceNode": 66}, "geometry": {"type": "Point", "coordinates": [108.84690753600006, 45.56539254200004]}}, {"type": "Feature", "properties": {"OBJECTID": 46, "PlaceNode": 67}, "geometry": {"type": "Point", "coordinates": [113.58901480500003, 46.20202717900003]}}, {"type": "Feature", "properties": {"OBJECTID": 47, "PlaceNode": 67}, "geometry": {"type": "Point", "coordinates": [113.56744336500003, 52.99685449000003]}}, {"type": "Feature", "properties": {"OBJECTID": 48, "PlaceNode": 68}, "geometry": {"type": "Point", "coordinates": [113.55887608100011, 56.06430603000007]}}, {"type": "Feature", "properties": {"OBJECTID": 49, "PlaceNode": 74}, "geometry": {"type": "Point", "coordinates": [115.94707769000001, 56.58802232700003]}}, {"type": "Feature", "properties": {"OBJECTID": 50, "PlaceNode": 74}, "geometry": {"type": "Point", "coordinates": [115.92155609500003, 67.24999729800004]}}, {"type": "Feature", "properties": {"OBJECTID": 51, "PlaceNode": 68}, "geometry": {"type": "Point", "coordinates": [113.54702425400001, 67.80359655300003]}}, {"type": "Feature", "properties": {"OBJECTID": 52, "PlaceNode": 69}, "geometry": {"type": "Point", "coordinates": [113.49564961400006, 71.35579639800005]}}, {"type": "Feature", "properties": {"OBJECTID": 53, "PlaceNode": 77}, "geometry": {"type": "Point", "coordinates": [115.9459611630001, 74.67523103800005]}}, {"type": "Feature", "properties": {"OBJECTID": 54, "PlaceNode": 76}, "geometry": {"type": "Point", "coordinates": [115.89491663600006, 76.33414797600005]}}, {"type": "Feature", "properties": {"OBJECTID": 55, "PlaceNode": 70}, "geometry": {"type": "Point", "coordinates": [113.50482087500006, 77.04779381200007]}}, {"type": "Feature", "properties": {"OBJECTID": 56, "PlaceNode": 69}, "geometry": {"type": "Point", "coordinates": [111.33577017700009, 73.89551180600006]}}, {"type": "Feature", "properties": {"OBJECTID": 57, "PlaceNode": 68}, "geometry": {"type": "Point", "coordinates": [109.28301451100003, 73.90762149400007]}}, {"type": "Feature", "properties": {"OBJECTID": 59, "PlaceNode": 105}, "geometry": {"type": "Point", "coordinates": [117.27543197700004, 79.58850211200007]}}, {"type": "Feature", "properties": {"OBJECTID": 60, "PlaceNode": 78}, "geometry": {"type": "Point", "coordinates": [119.66286755100009, 79.92390647300005]}}, {"type": "Feature", "properties": {"OBJECTID": 61, "PlaceNode": 61}, "geometry": {"type": "Point", "coordinates": [115.14974327300001, 82.66007708500007]}}, {"type": "Feature", "properties": {"OBJECTID": 62, "PlaceNode": 60}, "geometry": {"type": "Point", "coordinates": [113.62128214800009, 82.68159346400006]}}, {"type": "Feature", "properties": {"OBJECTID": 63, "PlaceNode": 82}, "geometry": {"type": "Point", "coordinates": [106.82033788100006, 81.35684298700005]}}, {"type": "Feature", "properties": {"OBJECTID": 64, "PlaceNode": 81}, "geometry": {"type": "Point", "coordinates": [109.83596267800004, 82.70970867600005]}}, {"type": "Feature", "properties": {"OBJECTID": 65, "PlaceNode": 65}, "geometry": {"type": "Point", "coordinates": [118.46892203800007, 82.61240483500006]}}, {"type": "Feature", "properties": {"OBJECTID": 66, "PlaceNode": 65}, "geometry": {"type": "Point", "coordinates": [120.6673646160001, 82.59150999700006]}}, {"type": "Feature", "properties": {"OBJECTID": 67, "PlaceNode": 62}, "geometry": {"type": "Point", "coordinates": [122.02715502900003, 84.27074268300004]}}, {"type": "Feature", "properties": {"OBJECTID": 68, "PlaceNode": 63}, "geometry": {"type": "Point", "coordinates": [125.91322549600011, 84.28690478000004]}}, {"type": "Feature", "properties": {"OBJECTID": 69, "PlaceNode": 64}, "geometry": {"type": "Point", "coordinates": [129.17740168500006, 84.29349504200007]}}, {"type": "Feature", "properties": {"OBJECTID": 71, "PlaceNode": 80}, "geometry": {"type": "Point", "coordinates": [121.21115204900002, 81.60181103400004]}}, {"type": "Feature", "properties": {"OBJECTID": 72, "PlaceNode": 79}, "geometry": {"type": "Point", "coordinates": [131.99337462800008, 80.08440790500003]}}, {"type": "Feature", "properties": {"OBJECTID": 73, "PlaceNode": 75}, "geometry": {"type": "Point", "coordinates": [140.10751780700002, 81.63711496900004]}}, {"type": "Feature", "properties": {"OBJECTID": 74, "PlaceNode": 83}, "geometry": {"type": "Point", "coordinates": [93.18627669000006, 80.58861190900006]}}, {"type": "Feature", "properties": {"OBJECTID": 75, "PlaceNode": 82}, "geometry": {"type": "Point", "coordinates": [95.83072536300006, 81.64868405200008]}}, {"type": "Feature", "properties": {"OBJECTID": 76, "PlaceNode": 100}, "geometry": {"type": "Point", "coordinates": [78.58911743300007, 82.81200186300003]}}, {"type": "Feature", "properties": {"OBJECTID": 77, "PlaceNode": 99}, "geometry": {"type": "Point", "coordinates": [77.44444352200003, 79.64531870800005]}}, {"type": "Feature", "properties": {"OBJECTID": 78, "PlaceNode": 91}, "geometry": {"type": "Point", "coordinates": [75.77300410500004, 78.25402641600004]}}, {"type": "Feature", "properties": {"OBJECTID": 79, "PlaceNode": 90}, "geometry": {"type": "Point", "coordinates": [73.86451361200005, 77.70085124100007]}}, {"type": "Feature", "properties": {"OBJECTID": 80, "PlaceNode": 89}, "geometry": {"type": "Point", "coordinates": [72.28326586600008, 77.48081489100008]}}, {"type": "Feature", "properties": {"OBJECTID": 81, "PlaceNode": 103}, "geometry": {"type": "Point", "coordinates": [69.29611886500004, 82.50352264100007]}}, {"type": "Feature", "properties": {"OBJECTID": 82, "PlaceNode": 102}, "geometry": {"type": "Point", "coordinates": [66.15276013100004, 82.94650019800008]}}, {"type": "Feature", "properties": {"OBJECTID": 83, "PlaceNode": 101}, "geometry": {"type": "Point", "coordinates": [65.42411841800003, 80.91703421500006]}}, {"type": "Feature", "properties": {"OBJECTID": 84, "PlaceNode": 92}, "geometry": {"type": "Point", "coordinates": [67.24527408000006, 79.69119395500007]}}, {"type": "Feature", "properties": {"OBJECTID": 85, "PlaceNode": 93}, "geometry": {"type": "Point", "coordinates": [68.08009846200008, 74.64219669200008]}}, {"type": "Feature", "properties": {"OBJECTID": 86, "PlaceNode": 88}, "geometry": {"type": "Point", "coordinates": [70.61489626300005, 71.97362098500008]}}, {"type": "Feature", "properties": {"OBJECTID": 87, "PlaceNode": 87}, "geometry": {"type": "Point", "coordinates": [70.66420896000005, 65.78690290600008]}}, {"type": "Feature", "properties": {"OBJECTID": 88, "PlaceNode": 86}, "geometry": {"type": "Point", "coordinates": [70.61781189500005, 63.05837670400007]}}, {"type": "Feature", "properties": {"OBJECTID": 89, "PlaceNode": 94}, "geometry": {"type": "Point", "coordinates": [68.08744180900004, 67.84510881500006]}}, {"type": "Feature", "properties": {"OBJECTID": 90, "PlaceNode": 95}, "geometry": {"type": "Point", "coordinates": [64.81253915100007, 62.86841526000006]}}, {"type": "Feature", "properties": {"OBJECTID": 91, "PlaceNode": 96}, "geometry": {"type": "Point", "coordinates": [67.30157965400008, 62.86235920100006]}}, {"type": "Feature", "properties": {"OBJECTID": 92, "PlaceNode": 97}, "geometry": {"type": "Point", "coordinates": [67.89381742600006, 57.06456476000005]}}, {"type": "Feature", "properties": {"OBJECTID": 93, "PlaceNode": 85}, "geometry": {"type": "Point", "coordinates": [70.66332651600004, 55.181932446000076]}}, {"type": "Feature", "properties": {"OBJECTID": 94, "PlaceNode": 84}, "geometry": {"type": "Point", "coordinates": [70.62123135200005, 53.55341832300007]}}, {"type": "Feature", "properties": {"OBJECTID": 95, "PlaceNode": 106}, "geometry": {"type": "Point", "coordinates": [67.82489751200006, 52.08909101900008]}}, {"type": "Feature", "properties": {"OBJECTID": 96, "PlaceNode": 98}, "geometry": {"type": "Point", "coordinates": [69.34154192600005, 51.12666170000006]}}, {"type": "Feature", "properties": {"OBJECTID": 97, "PlaceNode": 110}, "geometry": {"type": "Point", "coordinates": [86.79308013500008, 82.78938503900008]}}, {"type": "Feature", "properties": {"OBJECTID": 98, "PlaceNode": 46}, "geometry": {"type": "Point", "coordinates": [108.00127846200007, 21.758581294000066]}}, {"type": "Feature", "properties": {"OBJECTID": 99, "PlaceNode": 47}, "geometry": {"type": "Point", "coordinates": [106.30355323600008, 21.762860053000054]}}, {"type": "Feature", "properties": {"OBJECTID": 100, "PlaceNode": 54}, "geometry": {"type": "Point", "coordinates": [104.68571082400007, 23.17755087300003]}}, {"type": "Feature", "properties": {"OBJECTID": 101, "PlaceNode": 3}, "geometry": {"type": "Point", "coordinates": [111.85839064600009, 25.207511384000043]}}, {"type": "Feature", "properties": {"OBJECTID": 102, "PlaceNode": 14}, "geometry": {"type": "Point", "coordinates": [105.49950295800005, 35.01775864100006]}}, {"type": "Feature", "properties": {"OBJECTID": 103, "PlaceNode": 17}, "geometry": {"type": "Point", "coordinates": [113.42656282700011, 33.32464946300007]}}, {"type": "Feature", "properties": {"OBJECTID": 104, "PlaceNode": 107}, "geometry": {"type": "Point", "coordinates": [163.20377748300007, 21.41817962400006]}}, {"type": "Feature", "properties": {"OBJECTID": 105, "PlaceNode": 70}, "geometry": {"type": "Point", "coordinates": [100.65958477700008, 80.07918893800007]}}, {"type": "Feature", "properties": {"OBJECTID": 106, "PlaceNode": 71}, "geometry": {"type": "Point", "coordinates": [99.25885442400005, 80.07509215800007]}}, {"type": "Feature", "properties": {"OBJECTID": 107, "PlaceNode": 47}, "geometry": {"type": "Point", "coordinates": [101.74038036200005, 21.80325877000007]}}, {"type": "Feature", "properties": {"OBJECTID": 108, "PlaceNode": 49}, "geometry": {"type": "Point", "coordinates": [98.64751333600003, 25.238645321000035]}}, {"type": "Feature", "properties": {"OBJECTID": 109, "PlaceNode": 48}, "geometry": {"type": "Point", "coordinates": [95.86610464800003, 25.286808242000063]}}, {"type": "Feature", "properties": {"OBJECTID": 110, "PlaceNode": 50}, "geometry": {"type": "Point", "coordinates": [100.88746292200005, 20.059969242000022]}}, {"type": "Feature", "properties": {"OBJECTID": 111, "PlaceNode": 51}, "geometry": {"type": "Point", "coordinates": [94.58306424400007, 20.86567770000005]}}, {"type": "Feature", "properties": {"OBJECTID": 112, "PlaceNode": 3}, "geometry": {"type": "Point", "coordinates": [88.93234363100004, 21.890993621000064]}}, {"type": "Feature", "properties": {"OBJECTID": 113, "PlaceNode": 52}, "geometry": {"type": "Point", "coordinates": [88.33264447200008, 22.89177340400005]}}, {"type": "Feature", "properties": {"OBJECTID": 114, "PlaceNode": 53}, "geometry": {"type": "Point", "coordinates": [81.89263013100003, 22.88758106100005]}}, {"type": "Feature", "properties": {"OBJECTID": 115, "PlaceNode": 57}, "geometry": {"type": "Point", "coordinates": [80.43530176300004, 21.890783746000068]}}, {"type": "Feature", "properties": {"OBJECTID": 116, "PlaceNode": 56}, "geometry": {"type": "Point", "coordinates": [73.03868640100006, 21.90351224400007]}}, {"type": "Feature", "properties": {"OBJECTID": 117, "PlaceNode": 55}, "geometry": {"type": "Point", "coordinates": [70.24920591500006, 21.90831253400006]}}, {"type": "Feature", "properties": {"OBJECTID": 118, "PlaceNode": 45}, "geometry": {"type": "Point", "coordinates": [78.78966727600005, 27.667849149000062]}}, {"type": "Feature", "properties": {"OBJECTID": 119, "PlaceNode": 44}, "geometry": {"type": "Point", "coordinates": [78.77510277900006, 31.97894041400008]}}, {"type": "Feature", "properties": {"OBJECTID": 120, "PlaceNode": 3}, "geometry": {"type": "Point", "coordinates": [80.35590582200007, 26.956177241000034]}}, {"type": "Feature", "properties": {"OBJECTID": 121, "PlaceNode": 111}, "geometry": {"type": "Point", "coordinates": [123.28689413000006, 56.61171249600005]}}, {"type": "Feature", "properties": {"OBJECTID": 122, "PlaceNode": 71}, "geometry": {"type": "Point", "coordinates": [100.00800110400007, 77.03993603500004]}}]}