{"type": "FeatureCollection", "features": [{"type": "Feature", "properties": {"OBJECTID": 1, "FID_B_Leve": 44, "SHAPE_Leng": 1.58181674387}, "geometry": {"type": "LineString", "coordinates": [[123.05306468200001, 6.967811769000036], [123.05486356400002, 5.385996048000038]]}}, {"type": "Feature", "properties": {"OBJECTID": 2, "FID_B_Leve": 43, "SHAPE_Leng": 0.571654016594}, "geometry": {"type": "LineString", "coordinates": [[123.05306468200001, 6.967811769000036], [123.62471867300007, 6.96798282900005]]}}, {"type": "Feature", "properties": {"OBJECTID": 3, "FID_B_Leve": 45, "SHAPE_Leng": 9.38425338527}, "geometry": {"type": "LineString", "coordinates": [[123.62471867300007, 6.96798282900005], [131.35121599800004, 6.923693568000033], [131.41256760400006, 5.267200194000054]]}}, {"type": "Feature", "properties": {"OBJECTID": 4, "FID_B_Leve": 40, "SHAPE_Leng": 2.15706305404}, "geometry": {"type": "LineString", "coordinates": [[122.13186797700007, 8.047667299000068], [119.97487353500003, 8.030462757000066]]}}, {"type": "Feature", "properties": {"OBJECTID": 5, "FID_B_Leve": 43, "SHAPE_Leng": 2.00132793324}, "geometry": {"type": "LineString", "coordinates": [[122.13186797700007, 8.047667299000068], [122.13186797700007, 6.967536112000062], [123.05306468200001, 6.967811769000036]]}}, {"type": "Feature", "properties": {"OBJECTID": 6, "FID_B_Leve": 41, "SHAPE_Leng": 3.55815288922}, "geometry": {"type": "LineString", "coordinates": [[119.97487353500003, 8.030462757000066], [117.21901322300005, 8.047667299000068], [117.23645123600011, 8.849716629000056]]}}, {"type": "Feature", "properties": {"OBJECTID": 7, "FID_B_Leve": 40, "SHAPE_Leng": 4.12954461643}, "geometry": {"type": "LineString", "coordinates": [[120.99664013000006, 10.99192550400005], [120.99947237800006, 9.598178196000049], [122.1492894480001, 9.63302113800006], [122.13186797700007, 8.047667299000068]]}}, {"type": "Feature", "properties": {"OBJECTID": 8, "FID_B_Leve": 42, "SHAPE_Leng": 2.54835290392}, "geometry": {"type": "LineString", "coordinates": [[120.99664013000006, 10.99192550400005], [123.54475655700003, 11.02664145700004]]}}, {"type": "Feature", "properties": {"OBJECTID": 9, "FID_B_Leve": 40, "SHAPE_Leng": 0.822351596934}, "geometry": {"type": "LineString", "coordinates": [[120.99496902400006, 11.814275403000067], [120.99664013000006, 10.99192550400005]]}}, {"type": "Feature", "properties": {"OBJECTID": 10, "FID_B_Leve": 3, "SHAPE_Leng": 8.67912873598}, "geometry": {"type": "LineString", "coordinates": [[120.99420096500012, 20.493404105000025], [120.99496902400006, 11.814275403000067]]}}, {"type": "Feature", "properties": {"OBJECTID": 11, "FID_B_Leve": 32, "SHAPE_Leng": 1.21451331502}, "geometry": {"type": "LineString", "coordinates": [[120.99420096500012, 20.493404105000025], [122.2087142800001, 20.493397344000073]]}}, {"type": "Feature", "properties": {"OBJECTID": 12, "FID_B_Leve": 109, "SHAPE_Leng": 7.27938482104}, "geometry": {"type": "LineString", "coordinates": [[100.88746292200005, 20.059969242000022], [96.66574553300006, 19.933147591000022], [96.70801161600008, 20.863001418000067], [94.58306424400007, 20.86567770000005]]}}, {"type": "Feature", "properties": {"OBJECTID": 13, "FID_B_Leve": 108, "SHAPE_Leng": 2.63871258637}, "geometry": {"type": "LineString", "coordinates": [[101.74038036200005, 21.80325877000007], [101.82220766300009, 20.102211923000027], [100.88746292200005, 20.059969242000022]]}}, {"type": "Feature", "properties": {"OBJECTID": 14, "FID_B_Leve": 110, "SHAPE_Leng": 6.89471600422}, "geometry": {"type": "LineString", "coordinates": [[94.58306424400007, 20.86567770000005], [88.88878625300003, 20.693937086000062], [88.93234363100004, 21.890993621000064]]}}, {"type": "Feature", "properties": {"OBJECTID": 15, "FID_B_Leve": 47, "SHAPE_Leng": 5.89516514951}, "geometry": {"type": "LineString", "coordinates": [[141.97539836600004, 21.951819286000045], [141.9631331820001, 19.01429399400007], [144.33937994200005, 18.965299216000062], [144.31485697100004, 19.545643772000062]]}}, {"type": "Feature", "properties": {"OBJECTID": 16, "FID_B_Leve": 115, "SHAPE_Leng": 3.73075629673}, "geometry": {"type": "LineString", "coordinates": [[72.99673903000007, 22.89177340400005], [70.24944363200007, 22.89177340400005], [70.24920591500006, 21.90831253400006]]}}, {"type": "Feature", "properties": {"OBJECTID": 17, "FID_B_Leve": 114, "SHAPE_Leng": 0.989151000757}, "geometry": {"type": "LineString", "coordinates": [[72.99673903000007, 22.89177340400005], [73.03868640100006, 21.90351224400007]]}}, {"type": "Feature", "properties": {"OBJECTID": 18, "FID_B_Leve": 112, "SHAPE_Leng": 6.44001570557}, "geometry": {"type": "LineString", "coordinates": [[88.33264447200008, 22.89177340400005], [81.89263013100003, 22.88758106100005]]}}, {"type": "Feature", "properties": {"OBJECTID": 19, "FID_B_Leve": 111, "SHAPE_Leng": 1.55786899898}, "geometry": {"type": "LineString", "coordinates": [[88.93234363100004, 21.890993621000064], [88.88878625300003, 22.89177340400005], [88.33264447200008, 22.89177340400005]]}}, {"type": "Feature", "properties": {"OBJECTID": 20, "FID_B_Leve": 114, "SHAPE_Leng": 7.39704755718}, "geometry": {"type": "LineString", "coordinates": [[80.39330356200009, 22.976305570000022], [72.99673903000007, 22.89177340400005]]}}, {"type": "Feature", "properties": {"OBJECTID": 21, "FID_B_Leve": 113, "SHAPE_Leng": 1.08633396305}, "geometry": {"type": "LineString", "coordinates": [[80.39330356200009, 22.976305570000022], [80.43530176300004, 21.890783746000068]]}}, {"type": "Feature", "properties": {"OBJECTID": 22, "FID_B_Leve": 113, "SHAPE_Leng": 1.5019494662}, "geometry": {"type": "LineString", "coordinates": [[81.89263013100003, 22.88758106100005], [80.39330356200009, 22.976305570000022]]}}, {"type": "Feature", "properties": {"OBJECTID": 23, "FID_B_Leve": 1, "SHAPE_Leng": 1.70339671139}, "geometry": {"type": "LineString", "coordinates": [[104.68571082400007, 23.17755087300003], [106.38907856100008, 23.187486110000066]]}}, {"type": "Feature", "properties": {"OBJECTID": 24, "FID_B_Leve": 97, "SHAPE_Leng": 1.4271909415}, "geometry": {"type": "LineString", "coordinates": [[106.38907856100008, 23.187486110000066], [106.30355323600008, 21.762860053000054]]}}, {"type": "Feature", "properties": {"OBJECTID": 25, "FID_B_Leve": 107, "SHAPE_Leng": 4.2907291135}, "geometry": {"type": "LineString", "coordinates": [[104.68571082400007, 23.17755087300003], [101.77994158000007, 23.187635985000043], [101.74038036200005, 21.80325877000007]]}}, {"type": "Feature", "properties": {"OBJECTID": 26, "FID_B_Leve": 1, "SHAPE_Leng": 1.69651483634}, "geometry": {"type": "LineString", "coordinates": [[106.38907856100008, 23.187486110000066], [108.08556454000006, 23.197381208000024]]}}, {"type": "Feature", "properties": {"OBJECTID": 27, "FID_B_Leve": 98, "SHAPE_Leng": 1.44126657336}, "geometry": {"type": "LineString", "coordinates": [[108.08556454000006, 23.197381208000024], [108.00127846200007, 21.758581294000066]]}}, {"type": "Feature", "properties": {"OBJECTID": 28, "FID_B_Leve": 1, "SHAPE_Leng": 3.77628568477}, "geometry": {"type": "LineString", "coordinates": [[108.08556454000006, 23.197381208000024], [111.86178599100003, 23.219406784000057]]}}, {"type": "Feature", "properties": {"OBJECTID": 29, "FID_B_Leve": 1, "SHAPE_Leng": 2.71630411171}, "geometry": {"type": "LineString", "coordinates": [[111.86178599100003, 23.219406784000057], [114.57804389900002, 23.235249907000025]]}}, {"type": "Feature", "properties": {"OBJECTID": 30, "FID_B_Leve": 1, "SHAPE_Leng": 0.446749432106}, "geometry": {"type": "LineString", "coordinates": [[114.57804389900002, 23.235249907000025], [115.02478573200005, 23.237855619000072]]}}, {"type": "Feature", "properties": {"OBJECTID": 31, "FID_B_Leve": 33, "SHAPE_Leng": 1.43200048581}, "geometry": {"type": "LineString", "coordinates": [[115.02478573200005, 23.237855619000072], [114.98167071600005, 21.80650433900007]]}}, {"type": "Feature", "properties": {"OBJECTID": 32, "FID_B_Leve": 1, "SHAPE_Leng": 3.51624568955}, "geometry": {"type": "LineString", "coordinates": [[115.02478573200005, 23.237855619000072], [118.54097161100003, 23.258364485000072]]}}, {"type": "Feature", "properties": {"OBJECTID": 33, "FID_B_Leve": 1, "SHAPE_Leng": 2.39190681079}, "geometry": {"type": "LineString", "coordinates": [[118.54097161100003, 23.258364485000072], [120.93283773600001, 23.272315528000036]]}}, {"type": "Feature", "properties": {"OBJECTID": 34, "FID_B_Leve": 1, "SHAPE_Leng": 0.0611183176095}, "geometry": {"type": "LineString", "coordinates": [[120.93283773600001, 23.272315528000036], [120.99395501400011, 23.27267200700004]]}}, {"type": "Feature", "properties": {"OBJECTID": 35, "FID_B_Leve": 3, "SHAPE_Leng": 2.77926791288}, "geometry": {"type": "LineString", "coordinates": [[120.99395501400011, 23.27267200700004], [120.99420096500012, 20.493404105000025]]}}, {"type": "Feature", "properties": {"OBJECTID": 36, "FID_B_Leve": 1, "SHAPE_Leng": 6.8660227305}, "geometry": {"type": "LineString", "coordinates": [[120.99395501400011, 23.27267200700004], [127.85986095500004, 23.312718793000045]]}}, {"type": "Feature", "properties": {"OBJECTID": 37, "FID_B_Leve": 31, "SHAPE_Leng": 1.54482119196}, "geometry": {"type": "LineString", "coordinates": [[127.85986095500004, 23.312718793000045], [127.81683708500009, 21.76849683300003]]}}, {"type": "Feature", "properties": {"OBJECTID": 38, "FID_B_Leve": 1, "SHAPE_Leng": 14.1279630135}, "geometry": {"type": "LineString", "coordinates": [[127.85986095500004, 23.312718793000045], [141.9875836550001, 23.395121595000035]]}}, {"type": "Feature", "properties": {"OBJECTID": 39, "FID_B_Leve": 46, "SHAPE_Leng": 1.44335374612}, "geometry": {"type": "LineString", "coordinates": [[141.9875836550001, 23.395121595000035], [141.97539836600004, 21.951819286000045]]}}, {"type": "Feature", "properties": {"OBJECTID": 40, "FID_B_Leve": 1, "SHAPE_Leng": 4.73355565771}, "geometry": {"type": "LineString", "coordinates": [[141.9875836550001, 23.395121595000035], [146.72105879600008, 23.422730546000025]]}}, {"type": "Feature", "properties": {"OBJECTID": 41, "FID_B_Leve": 1, "SHAPE_Leng": 1.6934319699}, "geometry": {"type": "LineString", "coordinates": [[146.72105879600008, 23.422730546000025], [148.41446196100003, 23.432607663000056]]}}, {"type": "Feature", "properties": {"OBJECTID": 42, "FID_B_Leve": 24, "SHAPE_Leng": 1.58115970739}, "geometry": {"type": "LineString", "coordinates": [[148.41446196100003, 23.432607663000056], [148.41353045100004, 21.851448230000074]]}}, {"type": "Feature", "properties": {"OBJECTID": 43, "FID_B_Leve": 1, "SHAPE_Leng": 2.13337648125}, "geometry": {"type": "LineString", "coordinates": [[148.41446196100003, 23.432607663000056], [150.547802154, 23.445050801000036]]}}, {"type": "Feature", "properties": {"OBJECTID": 44, "FID_B_Leve": 99, "SHAPE_Leng": 1.65814879649}, "geometry": {"type": "LineString", "coordinates": [[150.547802154, 23.445050801000036], [150.5441457070001, 21.78690603600006]]}}, {"type": "Feature", "properties": {"OBJECTID": 45, "FID_B_Leve": 1, "SHAPE_Leng": 1.61837861025}, "geometry": {"type": "LineString", "coordinates": [[150.547802154, 23.445050801000036], [152.166153236, 23.454490161000024]]}}, {"type": "Feature", "properties": {"OBJECTID": 46, "FID_B_Leve": 23, "SHAPE_Leng": 1.69569854211}, "geometry": {"type": "LineString", "coordinates": [[152.166153236, 23.454490161000024], [152.21845960000007, 21.759598545000074]]}}, {"type": "Feature", "properties": {"OBJECTID": 47, "FID_B_Leve": 1, "SHAPE_Leng": 4.14269904338}, "geometry": {"type": "LineString", "coordinates": [[152.166153236, 23.454490161000024], [156.3087818130001, 23.478652881000073]]}}, {"type": "Feature", "properties": {"OBJECTID": 48, "FID_B_Leve": 1, "SHAPE_Leng": 2.57937911365}, "geometry": {"type": "LineString", "coordinates": [[156.3087818130001, 23.478652881000073], [158.8881170520001, 23.493697375000067]]}}, {"type": "Feature", "properties": {"OBJECTID": 49, "FID_B_Leve": 20, "SHAPE_Leng": 1.77262446802}, "geometry": {"type": "LineString", "coordinates": [[158.8881170520001, 23.493697375000067], [158.8879709470001, 21.721072913000057]]}}, {"type": "Feature", "properties": {"OBJECTID": 50, "FID_B_Leve": 1, "SHAPE_Leng": 1.7455375692}, "geometry": {"type": "LineString", "coordinates": [[158.8881170520001, 23.493697375000067], [160.6336249300001, 23.503878403000044]]}}, {"type": "Feature", "properties": {"OBJECTID": 51, "FID_B_Leve": 19, "SHAPE_Leng": 1.67520040591}, "geometry": {"type": "LineString", "coordinates": [[160.6336249300001, 23.503878403000044], [160.63342513700002, 21.828678009000043]]}}, {"type": "Feature", "properties": {"OBJECTID": 52, "FID_B_Leve": 1, "SHAPE_Leng": 2.22721299039}, "geometry": {"type": "LineString", "coordinates": [[160.6336249300001, 23.503878403000044], [162.86080003600011, 23.516868853000062]]}}, {"type": "Feature", "properties": {"OBJECTID": 53, "FID_B_Leve": 1, "SHAPE_Leng": 0.371556611093}, "geometry": {"type": "LineString", "coordinates": [[162.86080003600011, 23.516868853000062], [163.23235032700006, 23.519035995000024]]}}, {"type": "Feature", "properties": {"OBJECTID": 54, "FID_B_Leve": 103, "SHAPE_Leng": 2.1010506655}, "geometry": {"type": "LineString", "coordinates": [[163.23235032700006, 23.519035995000024], [163.20377748300007, 21.41817962400006]]}}, {"type": "Feature", "properties": {"OBJECTID": 55, "FID_B_Leve": 1, "SHAPE_Leng": 2.35126231044}, "geometry": {"type": "LineString", "coordinates": [[163.23235032700006, 23.519035995000024], [165.58357264300002, 23.53274997500006]]}}, {"type": "Feature", "properties": {"OBJECTID": 56, "FID_B_Leve": 18, "SHAPE_Leng": 1.56517744061}, "geometry": {"type": "LineString", "coordinates": [[165.58357264300002, 23.53274997500006], [165.58327868100002, 21.967572562000043]]}}, {"type": "Feature", "properties": {"OBJECTID": 57, "FID_B_Leve": 1, "SHAPE_Leng": 1.04226394067}, "geometry": {"type": "LineString", "coordinates": [[165.58357264300002, 23.53274997500006], [166.62581885500003, 23.538829087000067]]}}, {"type": "Feature", "properties": {"OBJECTID": 58, "FID_B_Leve": 1, "SHAPE_Leng": 1.43290397437}, "geometry": {"type": "LineString", "coordinates": [[166.62581885500003, 23.538829087000067], [168.05869845600012, 23.547186647000046]]}}, {"type": "Feature", "properties": {"OBJECTID": 59, "FID_B_Leve": 17, "SHAPE_Leng": 1.70902056385}, "geometry": {"type": "LineString", "coordinates": [[168.05869845600012, 23.547186647000046], [168.1109957660001, 21.838966439000046]]}}, {"type": "Feature", "properties": {"OBJECTID": 60, "FID_B_Leve": 1, "SHAPE_Leng": 0.781735944155}, "geometry": {"type": "LineString", "coordinates": [[168.05869845600012, 23.547186647000046], [168.84042110300004, 23.55174620300005]]}}, {"type": "Feature", "properties": {"OBJECTID": 61, "FID_B_Leve": 1, "SHAPE_Leng": 1.47301832571}, "geometry": {"type": "LineString", "coordinates": [[168.84042110300004, 23.55174620300005], [170.3134143730001, 23.56033773400003]]}}, {"type": "Feature", "properties": {"OBJECTID": 62, "FID_B_Leve": 22, "SHAPE_Leng": 3.0342038985}, "geometry": {"type": "LineString", "coordinates": [[170.3134143730001, 23.56033773400003], [171.54984689900004, 23.544799902000022], [171.54984689900004, 21.747126155000046]]}}, {"type": "Feature", "properties": {"OBJECTID": 63, "FID_B_Leve": 21, "SHAPE_Leng": 1.57992430354}, "geometry": {"type": "LineString", "coordinates": [[156.3087818130001, 23.478652881000073], [156.30874056200003, 25.058577184000058]]}}, {"type": "Feature", "properties": {"OBJECTID": 64, "FID_B_Leve": 25, "SHAPE_Leng": 1.68071396033}, "geometry": {"type": "LineString", "coordinates": [[146.72105879600008, 23.422730546000025], [146.74789117300008, 25.103230305000068]]}}, {"type": "Feature", "properties": {"OBJECTID": 65, "FID_B_Leve": 96, "SHAPE_Leng": 1.98810749933}, "geometry": {"type": "LineString", "coordinates": [[111.86178599100003, 23.219406784000057], [111.85839064600009, 25.207511384000043]]}}, {"type": "Feature", "properties": {"OBJECTID": 66, "FID_B_Leve": 16, "SHAPE_Leng": 1.67803443949}, "geometry": {"type": "LineString", "coordinates": [[168.84042110300004, 23.55174620300005], [168.78808031100004, 25.22896414400003]]}}, {"type": "Feature", "properties": {"OBJECTID": 67, "FID_B_Leve": 15, "SHAPE_Leng": 1.74035310586}, "geometry": {"type": "LineString", "coordinates": [[166.62581885500003, 23.538829087000067], [166.6263558820001, 25.27918211000008]]}}, {"type": "Feature", "properties": {"OBJECTID": 68, "FID_B_Leve": 95, "SHAPE_Leng": 2.14392218915}, "geometry": {"type": "LineString", "coordinates": [[114.57804389900002, 23.235249907000025], [114.53155014700008, 25.37866789800006]]}}, {"type": "Feature", "properties": {"OBJECTID": 69, "FID_B_Leve": 34, "SHAPE_Leng": 2.16714227492}, "geometry": {"type": "LineString", "coordinates": [[118.54097161100003, 23.258364485000072], [118.51969526000005, 25.425402315000042]]}}, {"type": "Feature", "properties": {"OBJECTID": 70, "FID_B_Leve": 116, "SHAPE_Leng": 3.98004737517}, "geometry": {"type": "LineString", "coordinates": [[80.39330356200009, 22.976305570000022], [80.35590582200007, 26.956177241000034]]}}, {"type": "Feature", "properties": {"OBJECTID": 71, "FID_B_Leve": 120, "SHAPE_Leng": 2.45884045361}, "geometry": {"type": "LineString", "coordinates": [[98.65256271600003, 27.697480590000055], [98.64751333600003, 25.238645321000035]]}}, {"type": "Feature", "properties": {"OBJECTID": 72, "FID_B_Leve": 117, "SHAPE_Leng": 1.47744248707}, "geometry": {"type": "LineString", "coordinates": [[80.26650531300004, 27.71010687100005], [78.78966727600005, 27.667849149000062]]}}, {"type": "Feature", "properties": {"OBJECTID": 73, "FID_B_Leve": 117, "SHAPE_Leng": 0.759211655602}, "geometry": {"type": "LineString", "coordinates": [[80.35590582200007, 26.956177241000034], [80.26650531300004, 27.71010687100005]]}}, {"type": "Feature", "properties": {"OBJECTID": 74, "FID_B_Leve": 121, "SHAPE_Leng": 15.469386393}, "geometry": {"type": "LineString", "coordinates": [[95.73589170600007, 27.71010687100005], [80.26650531300004, 27.71010687100005]]}}, {"type": "Feature", "properties": {"OBJECTID": 75, "FID_B_Leve": 119, "SHAPE_Leng": 2.42679452274}, "geometry": {"type": "LineString", "coordinates": [[95.73589170600007, 27.71010687100005], [95.86610464800003, 25.286808242000063]]}}, {"type": "Feature", "properties": {"OBJECTID": 76, "FID_B_Leve": 119, "SHAPE_Leng": 2.91669833948}, "geometry": {"type": "LineString", "coordinates": [[98.65256271600003, 27.697480590000055], [95.73589170600007, 27.71010687100005]]}}, {"type": "Feature", "properties": {"OBJECTID": 77, "FID_B_Leve": 2, "SHAPE_Leng": 4.22264322199}, "geometry": {"type": "LineString", "coordinates": [[162.86080003600011, 23.516868853000062], [162.83994001000008, 27.739460550000047]]}}, {"type": "Feature", "properties": {"OBJECTID": 78, "FID_B_Leve": 14, "SHAPE_Leng": 1.34028973566}, "geometry": {"type": "LineString", "coordinates": [[162.83994001000008, 27.739460550000047], [164.18022974500002, 27.739418605000026]]}}, {"type": "Feature", "properties": {"OBJECTID": 79, "FID_B_Leve": 2, "SHAPE_Leng": 1.56317548698}, "geometry": {"type": "LineString", "coordinates": [[162.83994001000008, 27.739460550000047], [162.83221786100012, 29.302616963000048]]}}, {"type": "Feature", "properties": {"OBJECTID": 80, "FID_B_Leve": 13, "SHAPE_Leng": 1.35725547248}, "geometry": {"type": "LineString", "coordinates": [[162.83221786100012, 29.302616963000048], [164.18848373800006, 29.25079719400003]]}}, {"type": "Feature", "properties": {"OBJECTID": 81, "FID_B_Leve": 118, "SHAPE_Leng": 5.80275223745}, "geometry": {"type": "LineString", "coordinates": [[80.26650531300004, 27.71010687100005], [80.30877139600005, 31.978981258000033], [78.77510277900006, 31.97894041400008]]}}, {"type": "Feature", "properties": {"OBJECTID": 82, "FID_B_Leve": 27, "SHAPE_Leng": 6.31632952214}, "geometry": {"type": "LineString", "coordinates": [[148.34452957300005, 33.00206484800003], [154.660646336, 32.950222120000035]]}}, {"type": "Feature", "properties": {"OBJECTID": 83, "FID_B_Leve": 26, "SHAPE_Leng": 9.44476262052}, "geometry": {"type": "LineString", "coordinates": [[146.74789117300008, 25.103230305000068], [146.82531957600008, 33.028180245000044], [148.34452957300005, 33.00206484800003]]}}, {"type": "Feature", "properties": {"OBJECTID": 84, "FID_B_Leve": 119, "SHAPE_Leng": 12.4629069635}, "geometry": {"type": "LineString", "coordinates": [[105.41367201100007, 33.283235733000026], [105.49935688800008, 27.667840788000035], [98.65256271600003, 27.697480590000055]]}}, {"type": "Feature", "properties": {"OBJECTID": 85, "FID_B_Leve": 101, "SHAPE_Leng": 6.32068925165}, "geometry": {"type": "LineString", "coordinates": [[111.73421891600009, 33.325655511000036], [105.41367201100007, 33.283235733000026]]}}, {"type": "Feature", "properties": {"OBJECTID": 86, "FID_B_Leve": 101, "SHAPE_Leng": 8.11909371083}, "geometry": {"type": "LineString", "coordinates": [[111.85839064600009, 25.207511384000043], [111.73421891600009, 33.325655511000036]]}}, {"type": "Feature", "properties": {"OBJECTID": 87, "FID_B_Leve": 102, "SHAPE_Leng": 1.69234421003}, "geometry": {"type": "LineString", "coordinates": [[111.73421891600009, 33.325655511000036], [113.42656282700011, 33.32464946300007]]}}, {"type": "Feature", "properties": {"OBJECTID": 88, "FID_B_Leve": 36, "SHAPE_Leng": 1.20200632003}, "geometry": {"type": "LineString", "coordinates": [[120.96717574000002, 33.37432979300007], [119.76516942, 33.37432142400007]]}}, {"type": "Feature", "properties": {"OBJECTID": 89, "FID_B_Leve": 4, "SHAPE_Leng": 10.1020726244}, "geometry": {"type": "LineString", "coordinates": [[120.93283773600001, 23.272315528000036], [120.96717574000002, 33.37432979300007]]}}, {"type": "Feature", "properties": {"OBJECTID": 90, "FID_B_Leve": 37, "SHAPE_Leng": 13.5483981096}, "geometry": {"type": "LineString", "coordinates": [[122.32574088600006, 33.49596007800005], [128.610105244, 33.483818566000025], [128.683103339, 28.629445260000068], [126.27403417200003, 28.617278558000066]]}}, {"type": "Feature", "properties": {"OBJECTID": 91, "FID_B_Leve": 4, "SHAPE_Leng": 0.158120270459}, "geometry": {"type": "LineString", "coordinates": [[120.96717574000002, 33.37432979300007], [120.96771320800008, 33.53244915000005]]}}, {"type": "Feature", "properties": {"OBJECTID": 92, "FID_B_Leve": 35, "SHAPE_Leng": 1.35851780503}, "geometry": {"type": "LineString", "coordinates": [[120.96771320800008, 33.53244915000005], [122.32574088600006, 33.49596007800005]]}}, {"type": "Feature", "properties": {"OBJECTID": 93, "FID_B_Leve": 101, "SHAPE_Leng": 1.73664523431}, "geometry": {"type": "LineString", "coordinates": [[105.41367201100007, 33.283235733000026], [105.49950295800005, 35.01775864100006]]}}, {"type": "Feature", "properties": {"OBJECTID": 94, "FID_B_Leve": 29, "SHAPE_Leng": 12.3778945516}, "geometry": {"type": "LineString", "coordinates": [[168.78808031100004, 25.22896414400003], [168.77064945000006, 34.19354459200002], [171.22281427000007, 34.19354459200002], [171.24885740800005, 35.154324028000076]]}}, {"type": "Feature", "properties": {"OBJECTID": 95, "FID_B_Leve": 30, "SHAPE_Leng": 1.57127247977}, "geometry": {"type": "LineString", "coordinates": [[171.24885740800005, 35.154324028000076], [171.2749879900001, 35.96745105800005], [172.0327136830001, 35.96745611000006]]}}, {"type": "Feature", "properties": {"OBJECTID": 96, "FID_B_Leve": 4, "SHAPE_Leng": 3.67898365239}, "geometry": {"type": "LineString", "coordinates": [[120.96771320800008, 33.53244915000005], [120.98021845900007, 37.21141154900005]]}}, {"type": "Feature", "properties": {"OBJECTID": 97, "FID_B_Leve": 38, "SHAPE_Leng": 1.06244720182}, "geometry": {"type": "LineString", "coordinates": [[120.98021845900007, 37.21141154900005], [119.91785332400002, 37.224616722000064]]}}, {"type": "Feature", "properties": {"OBJECTID": 98, "FID_B_Leve": 39, "SHAPE_Leng": 4.15369301601}, "geometry": {"type": "LineString", "coordinates": [[119.91785332400002, 37.224616722000064], [115.7641603080001, 37.224625063000076]]}}, {"type": "Feature", "properties": {"OBJECTID": 99, "FID_B_Leve": 12, "SHAPE_Leng": 0.977421240628}, "geometry": {"type": "LineString", "coordinates": [[162.7898734700001, 37.87418203800007], [161.81281433200002, 37.84757898400005]]}}, {"type": "Feature", "properties": {"OBJECTID": 100, "FID_B_Leve": 2, "SHAPE_Leng": 8.57166966713}, "geometry": {"type": "LineString", "coordinates": [[162.83221786100012, 29.302616963000048], [162.7898734700001, 37.87418203800007]]}}, {"type": "Feature", "properties": {"OBJECTID": 101, "FID_B_Leve": 11, "SHAPE_Leng": 1.0288912374}, "geometry": {"type": "LineString", "coordinates": [[162.7748159140001, 40.92220834200003], [161.7462299780001, 40.89714540800003]]}}, {"type": "Feature", "properties": {"OBJECTID": 102, "FID_B_Leve": 2, "SHAPE_Leng": 3.04806349669}, "geometry": {"type": "LineString", "coordinates": [[162.7898734700001, 37.87418203800007], [162.7748159140001, 40.92220834200003]]}}, {"type": "Feature", "properties": {"OBJECTID": 103, "FID_B_Leve": 48, "SHAPE_Leng": 1.56314797572}, "geometry": {"type": "LineString", "coordinates": [[114.60032043000001, 41.273523460000035], [114.61457163700004, 40.78740169200006], [113.53775582200001, 40.78922431800004]]}}, {"type": "Feature", "properties": {"OBJECTID": 104, "FID_B_Leve": 4, "SHAPE_Leng": 10.4558410308}, "geometry": {"type": "LineString", "coordinates": [[120.98021845900007, 37.21141154900005], [120.99402608300011, 41.273523460000035], [114.60032043000001, 41.273523460000035]]}}, {"type": "Feature", "properties": {"OBJECTID": 105, "FID_B_Leve": 49, "SHAPE_Leng": 0.966613716256}, "geometry": {"type": "LineString", "coordinates": [[114.60214223900005, 42.46134275700007], [113.6355285300001, 42.46122431800006]]}}, {"type": "Feature", "properties": {"OBJECTID": 106, "FID_B_Leve": 4, "SHAPE_Leng": 1.18782069409}, "geometry": {"type": "LineString", "coordinates": [[114.60032043000001, 41.273523460000035], [114.60214223900005, 42.46134275700007]]}}, {"type": "Feature", "properties": {"OBJECTID": 107, "FID_B_Leve": 10, "SHAPE_Leng": 1.0202244297}, "geometry": {"type": "LineString", "coordinates": [[162.7574398060001, 44.43956767800006], [161.73721540100007, 44.439343198000074]]}}, {"type": "Feature", "properties": {"OBJECTID": 108, "FID_B_Leve": 2, "SHAPE_Leng": 3.5174022556}, "geometry": {"type": "LineString", "coordinates": [[162.7748159140001, 40.92220834200003], [162.7574398060001, 44.43956767800006]]}}, {"type": "Feature", "properties": {"OBJECTID": 109, "FID_B_Leve": 4, "SHAPE_Leng": 3.72484222709}, "geometry": {"type": "LineString", "coordinates": [[114.60214223900005, 42.46134275700007], [114.60785518000012, 46.186180603000025]]}}, {"type": "Feature", "properties": {"OBJECTID": 110, "FID_B_Leve": 50, "SHAPE_Leng": 1.01896360274}, "geometry": {"type": "LineString", "coordinates": [[114.60785518000012, 46.186180603000025], [113.58901480500003, 46.20202717900003]]}}, {"type": "Feature", "properties": {"OBJECTID": 111, "FID_B_Leve": 51, "SHAPE_Leng": 5.36590304792}, "geometry": {"type": "LineString", "coordinates": [[113.58901480500003, 46.20202717900003], [109.79455078100005, 46.21378002500006], [109.79455078100005, 45.590330522000045], [108.84690753600006, 45.56539254200004]]}}, {"type": "Feature", "properties": {"OBJECTID": 112, "FID_B_Leve": 2, "SHAPE_Leng": 3.02891564204}, "geometry": {"type": "LineString", "coordinates": [[162.7574398060001, 44.43956767800006], [162.7424768420001, 47.468446361000076]]}}, {"type": "Feature", "properties": {"OBJECTID": 113, "FID_B_Leve": 28, "SHAPE_Leng": 1.49364290556}, "geometry": {"type": "LineString", "coordinates": [[162.7424768420001, 47.468446361000076], [164.23508885600006, 47.52393063800008]]}}, {"type": "Feature", "properties": {"OBJECTID": 114, "FID_B_Leve": 2, "SHAPE_Leng": 0.20164703351}, "geometry": {"type": "LineString", "coordinates": [[162.7424768420001, 47.468446361000076], [162.74148069800003, 47.67009093400003]]}}, {"type": "Feature", "properties": {"OBJECTID": 115, "FID_B_Leve": 9, "SHAPE_Leng": 0.991716373384}, "geometry": {"type": "LineString", "coordinates": [[162.74148069800003, 47.67009093400003], [161.7501069120001, 47.69615588500005]]}}, {"type": "Feature", "properties": {"OBJECTID": 116, "FID_B_Leve": 2, "SHAPE_Leng": 0.796361103257}, "geometry": {"type": "LineString", "coordinates": [[162.74148069800003, 47.67009093400003], [162.7375466420001, 48.466442320000056]]}}, {"type": "Feature", "properties": {"OBJECTID": 117, "FID_B_Leve": 7, "SHAPE_Leng": 0.947472081922}, "geometry": {"type": "LineString", "coordinates": [[69.34154192600005, 51.12666170000006], [69.33980454400006, 52.07413218900007]]}}, {"type": "Feature", "properties": {"OBJECTID": 118, "FID_B_Leve": 93, "SHAPE_Leng": 1.51498088509}, "geometry": {"type": "LineString", "coordinates": [[69.33980454400006, 52.07413218900007], [67.82489751200006, 52.08909101900008]]}}, {"type": "Feature", "properties": {"OBJECTID": 119, "FID_B_Leve": 52, "SHAPE_Leng": 1.05085769575}, "geometry": {"type": "LineString", "coordinates": [[114.61830106000002, 52.99689417800005], [113.56744336500003, 52.99685449000003]]}}, {"type": "Feature", "properties": {"OBJECTID": 120, "FID_B_Leve": 4, "SHAPE_Leng": 6.81072158564}, "geometry": {"type": "LineString", "coordinates": [[114.60785518000012, 46.186180603000025], [114.61830106000002, 52.99689417800005]]}}, {"type": "Feature", "properties": {"OBJECTID": 121, "FID_B_Leve": 7, "SHAPE_Leng": 1.49415197702}, "geometry": {"type": "LineString", "coordinates": [[69.33980454400006, 52.07413218900007], [69.33706471300007, 53.56828165400003]]}}, {"type": "Feature", "properties": {"OBJECTID": 122, "FID_B_Leve": 92, "SHAPE_Leng": 1.28425265245}, "geometry": {"type": "LineString", "coordinates": [[69.33706471300007, 53.56828165400003], [70.62123135200005, 53.55341832300007]]}}, {"type": "Feature", "properties": {"OBJECTID": 123, "FID_B_Leve": 7, "SHAPE_Leng": 1.61362714688}, "geometry": {"type": "LineString", "coordinates": [[69.33706471300007, 53.56828165400003], [69.33410580100008, 55.18190608800006]]}}, {"type": "Feature", "properties": {"OBJECTID": 124, "FID_B_Leve": 91, "SHAPE_Leng": 1.32922071526}, "geometry": {"type": "LineString", "coordinates": [[69.33410580100008, 55.18190608800006], [70.66332651600004, 55.181932446000076]]}}, {"type": "Feature", "properties": {"OBJECTID": 125, "FID_B_Leve": 53, "SHAPE_Leng": 1.0653719162}, "geometry": {"type": "LineString", "coordinates": [[114.62308210300012, 56.114134361000026], [113.55887608100011, 56.06430603000007]]}}, {"type": "Feature", "properties": {"OBJECTID": 126, "FID_B_Leve": 4, "SHAPE_Leng": 3.11724384944}, "geometry": {"type": "LineString", "coordinates": [[114.61830106000002, 52.99689417800005], [114.62308210300012, 56.114134361000026]]}}, {"type": "Feature", "properties": {"OBJECTID": 127, "FID_B_Leve": 4, "SHAPE_Leng": 0.4738210653}, "geometry": {"type": "LineString", "coordinates": [[114.62308210300012, 56.114134361000026], [114.62380882200011, 56.58795486900004]]}}, {"type": "Feature", "properties": {"OBJECTID": 128, "FID_B_Leve": 54, "SHAPE_Leng": 1.32326886972}, "geometry": {"type": "LineString", "coordinates": [[114.62380882200011, 56.58795486900004], [115.94707769000001, 56.58802232700003]]}}, {"type": "Feature", "properties": {"OBJECTID": 129, "FID_B_Leve": 122, "SHAPE_Leng": 7.33985467138}, "geometry": {"type": "LineString", "coordinates": [[115.94707769000001, 56.58802232700003], [123.28689413000006, 56.61171249600005]]}}, {"type": "Feature", "properties": {"OBJECTID": 130, "FID_B_Leve": 7, "SHAPE_Leng": 1.86771051906}, "geometry": {"type": "LineString", "coordinates": [[69.33410580100008, 55.18190608800006], [69.33068097500006, 57.04961346700003]]}}, {"type": "Feature", "properties": {"OBJECTID": 131, "FID_B_Leve": 90, "SHAPE_Leng": 1.43694133478}, "geometry": {"type": "LineString", "coordinates": [[69.33068097500006, 57.04961346700003], [67.89381742600006, 57.06456476000005]]}}, {"type": "Feature", "properties": {"OBJECTID": 132, "FID_B_Leve": 7, "SHAPE_Leng": 6.00892615341}, "geometry": {"type": "LineString", "coordinates": [[69.33068097500006, 57.04961346700003], [69.31966239000008, 63.05852951800006]]}}, {"type": "Feature", "properties": {"OBJECTID": 133, "FID_B_Leve": 87, "SHAPE_Leng": 1.29814951399}, "geometry": {"type": "LineString", "coordinates": [[69.31966239000008, 63.05852951800006], [70.61781189500005, 63.05837670400007]]}}, {"type": "Feature", "properties": {"OBJECTID": 134, "FID_B_Leve": 7, "SHAPE_Leng": 2.76428265941}, "geometry": {"type": "LineString", "coordinates": [[69.31966239000008, 63.05852951800006], [69.31459351700005, 65.82280753000003]]}}, {"type": "Feature", "properties": {"OBJECTID": 135, "FID_B_Leve": 86, "SHAPE_Leng": 1.35009295458}, "geometry": {"type": "LineString", "coordinates": [[69.31459351700005, 65.82280753000003], [70.66420896000005, 65.78690290600008]]}}, {"type": "Feature", "properties": {"OBJECTID": 136, "FID_B_Leve": 4, "SHAPE_Leng": 10.6619650614}, "geometry": {"type": "LineString", "coordinates": [[114.62380882200011, 56.58795486900004], [114.6401615100001, 67.24990739000003]]}}, {"type": "Feature", "properties": {"OBJECTID": 137, "FID_B_Leve": 69, "SHAPE_Leng": 1.28139458815}, "geometry": {"type": "LineString", "coordinates": [[114.6401615100001, 67.24990739000003], [115.92155609500003, 67.24999729800004]]}}, {"type": "Feature", "properties": {"OBJECTID": 138, "FID_B_Leve": 66, "SHAPE_Leng": 1.09398650724}, "geometry": {"type": "LineString", "coordinates": [[114.64101076100008, 67.80361931800007], [113.54702425400001, 67.80359655300003]]}}, {"type": "Feature", "properties": {"OBJECTID": 139, "FID_B_Leve": 4, "SHAPE_Leng": 0.553712579265}, "geometry": {"type": "LineString", "coordinates": [[114.6401615100001, 67.24990739000003], [114.64101076100008, 67.80361931800007]]}}, {"type": "Feature", "properties": {"OBJECTID": 140, "FID_B_Leve": 89, "SHAPE_Leng": 4.98840887172}, "geometry": {"type": "LineString", "coordinates": [[67.32504462300005, 67.85071288400007], [67.30157965400008, 62.86235920100006]]}}, {"type": "Feature", "properties": {"OBJECTID": 141, "FID_B_Leve": 88, "SHAPE_Leng": 0.762417782328}, "geometry": {"type": "LineString", "coordinates": [[68.08744180900004, 67.84510881500006], [67.32504462300005, 67.85071288400007]]}}, {"type": "Feature", "properties": {"OBJECTID": 142, "FID_B_Leve": 85, "SHAPE_Leng": 1.22348055037}, "geometry": {"type": "LineString", "coordinates": [[69.31086313800006, 67.85714662500004], [68.08744180900004, 67.84510881500006]]}}, {"type": "Feature", "properties": {"OBJECTID": 143, "FID_B_Leve": 7, "SHAPE_Leng": 2.03434251521}, "geometry": {"type": "LineString", "coordinates": [[69.31459351700005, 65.82280753000003], [69.31086313800006, 67.85714662500004]]}}, {"type": "Feature", "properties": {"OBJECTID": 144, "FID_B_Leve": 88, "SHAPE_Leng": 7.50130213077}, "geometry": {"type": "LineString", "coordinates": [[67.32504462300005, 67.85071288400007], [64.82450244000006, 67.86909334500007], [64.81253915100007, 62.86841526000006]]}}, {"type": "Feature", "properties": {"OBJECTID": 145, "FID_B_Leve": 65, "SHAPE_Leng": 1.15092215474}, "geometry": {"type": "LineString", "coordinates": [[114.64648104900004, 71.37024681300005], [113.49564961400006, 71.35579639800005]]}}, {"type": "Feature", "properties": {"OBJECTID": 146, "FID_B_Leve": 4, "SHAPE_Leng": 3.56663169}, "geometry": {"type": "LineString", "coordinates": [[114.64101076100008, 67.80361931800007], [114.64648104900004, 71.37024681300005]]}}, {"type": "Feature", "properties": {"OBJECTID": 147, "FID_B_Leve": 7, "SHAPE_Leng": 4.11650751181}, "geometry": {"type": "LineString", "coordinates": [[69.31086313800006, 67.85714662500004], [69.30331468700007, 71.97364721600007]]}}, {"type": "Feature", "properties": {"OBJECTID": 148, "FID_B_Leve": 84, "SHAPE_Leng": 1.31158157626}, "geometry": {"type": "LineString", "coordinates": [[69.30331468700007, 71.97364721600007], [70.61489626300005, 71.97362098500008]]}}, {"type": "Feature", "properties": {"OBJECTID": 149, "FID_B_Leve": 83, "SHAPE_Leng": 1.21835985849}, "geometry": {"type": "LineString", "coordinates": [[69.29839937600008, 74.65418117100006], [68.08009846200008, 74.64219669200008]]}}, {"type": "Feature", "properties": {"OBJECTID": 150, "FID_B_Leve": 7, "SHAPE_Leng": 2.68053846161}, "geometry": {"type": "LineString", "coordinates": [[69.30331468700007, 71.97364721600007], [69.29839937600008, 74.65418117100006]]}}, {"type": "Feature", "properties": {"OBJECTID": 151, "FID_B_Leve": 4, "SHAPE_Leng": 3.33375200109}, "geometry": {"type": "LineString", "coordinates": [[114.64648104900004, 71.37024681300005], [114.65159415900007, 74.70399489300007]]}}, {"type": "Feature", "properties": {"OBJECTID": 152, "FID_B_Leve": 64, "SHAPE_Leng": 1.29468656454}, "geometry": {"type": "LineString", "coordinates": [[114.65159415900007, 74.70399489300007], [115.9459611630001, 74.67523103800005]]}}, {"type": "Feature", "properties": {"OBJECTID": 153, "FID_B_Leve": 4, "SHAPE_Leng": 1.65956362295}, "geometry": {"type": "LineString", "coordinates": [[114.65159415900007, 74.70399489300007], [114.65413949900005, 76.36355656400008]]}}, {"type": "Feature", "properties": {"OBJECTID": 154, "FID_B_Leve": 63, "SHAPE_Leng": 1.24112560555}, "geometry": {"type": "LineString", "coordinates": [[114.65413949900005, 76.36355656400008], [115.89491663600006, 76.33414797600005]]}}, {"type": "Feature", "properties": {"OBJECTID": 155, "FID_B_Leve": 68, "SHAPE_Leng": 3.12561452936}, "geometry": {"type": "LineString", "coordinates": [[109.28306217500005, 77.03323602300003], [109.28301451100003, 73.90762149400007]]}}, {"type": "Feature", "properties": {"OBJECTID": 156, "FID_B_Leve": 68, "SHAPE_Leng": 2.081763773}, "geometry": {"type": "LineString", "coordinates": [[111.36482594800009, 77.03323602300003], [109.28306217500005, 77.03323602300003]]}}, {"type": "Feature", "properties": {"OBJECTID": 157, "FID_B_Leve": 67, "SHAPE_Leng": 3.1378587444}, "geometry": {"type": "LineString", "coordinates": [[111.36482594800009, 77.03323602300003], [111.33577017700009, 73.89551180600006]]}}, {"type": "Feature", "properties": {"OBJECTID": 158, "FID_B_Leve": 123, "SHAPE_Leng": 9.27506349094}, "geometry": {"type": "LineString", "coordinates": [[109.28306217500005, 77.03323602300003], [100.00800110400007, 77.03993603500004]]}}, {"type": "Feature", "properties": {"OBJECTID": 159, "FID_B_Leve": 4, "SHAPE_Leng": 0.684237588787}, "geometry": {"type": "LineString", "coordinates": [[114.65413949900005, 76.36355656400008], [114.65518894200011, 77.04779334800008]]}}, {"type": "Feature", "properties": {"OBJECTID": 160, "FID_B_Leve": 67, "SHAPE_Leng": 2.14004444272}, "geometry": {"type": "LineString", "coordinates": [[113.50482087500006, 77.04779381200007], [111.36482594800009, 77.03323602300003]]}}, {"type": "Feature", "properties": {"OBJECTID": 161, "FID_B_Leve": 62, "SHAPE_Leng": 1.150368067}, "geometry": {"type": "LineString", "coordinates": [[114.65518894200011, 77.04779334800008], [113.50482087500006, 77.04779381200007]]}}, {"type": "Feature", "properties": {"OBJECTID": 162, "FID_B_Leve": 7, "SHAPE_Leng": 4.80026108636}, "geometry": {"type": "LineString", "coordinates": [[69.29839937600008, 74.65418117100006], [69.28959712400007, 79.45443418700006]]}}, {"type": "Feature", "properties": {"OBJECTID": 163, "FID_B_Leve": 8, "SHAPE_Leng": 2.95450266751}, "geometry": {"type": "LineString", "coordinates": [[69.28959712400007, 79.45443418700006], [72.24409979100005, 79.45448916800007]]}}, {"type": "Feature", "properties": {"OBJECTID": 164, "FID_B_Leve": 80, "SHAPE_Leng": 1.97406284933}, "geometry": {"type": "LineString", "coordinates": [[72.24409979100005, 79.45448916800007], [72.28326586600008, 77.48081489100008]]}}, {"type": "Feature", "properties": {"OBJECTID": 165, "FID_B_Leve": 8, "SHAPE_Leng": 1.54232130327}, "geometry": {"type": "LineString", "coordinates": [[72.24409979100005, 79.45448916800007], [73.78642109400005, 79.45451787000007]]}}, {"type": "Feature", "properties": {"OBJECTID": 166, "FID_B_Leve": 79, "SHAPE_Leng": 1.75540453658}, "geometry": {"type": "LineString", "coordinates": [[73.78642109400005, 79.45451787000007], [73.86451361200005, 77.70085124100007]]}}, {"type": "Feature", "properties": {"OBJECTID": 167, "FID_B_Leve": 8, "SHAPE_Leng": 1.1683262301}, "geometry": {"type": "LineString", "coordinates": [[73.78642109400005, 79.45451787000007], [74.40807633000003, 79.45452943900005], [74.88595275700004, 79.72001634300005]]}}, {"type": "Feature", "properties": {"OBJECTID": 168, "FID_B_Leve": 78, "SHAPE_Leng": 1.71347207741}, "geometry": {"type": "LineString", "coordinates": [[74.88595275700004, 79.72001634300005], [75.77300410500004, 78.25402641600004]]}}, {"type": "Feature", "properties": {"OBJECTID": 169, "FID_B_Leve": 76, "SHAPE_Leng": 1.18379340405}, "geometry": {"type": "LineString", "coordinates": [[68.04293381300005, 80.56589720400007], [67.24527408000006, 79.69119395500007]]}}, {"type": "Feature", "properties": {"OBJECTID": 170, "FID_B_Leve": 7, "SHAPE_Leng": 1.72677621951}, "geometry": {"type": "LineString", "coordinates": [[69.28959712400007, 79.45443418700006], [69.28930961300006, 79.61122637900007], [68.04293381300005, 80.56589720400007]]}}, {"type": "Feature", "properties": {"OBJECTID": 171, "FID_B_Leve": 8, "SHAPE_Leng": 2.11431504764}, "geometry": {"type": "LineString", "coordinates": [[74.88595275700004, 79.72001634300005], [76.73419664000005, 80.74681850000007]]}}, {"type": "Feature", "properties": {"OBJECTID": 172, "FID_B_Leve": 77, "SHAPE_Leng": 1.31063054488}, "geometry": {"type": "LineString", "coordinates": [[76.73419664000005, 80.74681850000007], [77.44444352200003, 79.64531870800005]]}}, {"type": "Feature", "properties": {"OBJECTID": 173, "FID_B_Leve": 7, "SHAPE_Leng": 1.03084348034}, "geometry": {"type": "LineString", "coordinates": [[68.04293381300005, 80.56589720400007], [67.22456970200005, 81.19272928900006]]}}, {"type": "Feature", "properties": {"OBJECTID": 174, "FID_B_Leve": 7, "SHAPE_Leng": 0.97953289823}, "geometry": {"type": "LineString", "coordinates": [[66.33125635100004, 81.28660892900007], [65.42411841800003, 80.91703421500006]]}}, {"type": "Feature", "properties": {"OBJECTID": 175, "FID_B_Leve": 6, "SHAPE_Leng": 3.00136302415}, "geometry": {"type": "LineString", "coordinates": [[109.82170090300008, 81.35695654300008], [106.82033788100006, 81.35684298700005]]}}, {"type": "Feature", "properties": {"OBJECTID": 176, "FID_B_Leve": 6, "SHAPE_Leng": 3.79958227672}, "geometry": {"type": "LineString", "coordinates": [[113.62128317700001, 81.35710029900008], [109.82170090300008, 81.35695654300008]]}}, {"type": "Feature", "properties": {"OBJECTID": 177, "FID_B_Leve": 6, "SHAPE_Leng": 1.04051519274}, "geometry": {"type": "LineString", "coordinates": [[114.66179836900005, 81.35713966700007], [113.62128317700001, 81.35710029900008]]}}, {"type": "Feature", "properties": {"OBJECTID": 178, "FID_B_Leve": 4, "SHAPE_Leng": 4.30935138758}, "geometry": {"type": "LineString", "coordinates": [[114.65518894200011, 77.04779334800008], [114.66179836900005, 81.35713966700007]]}}, {"type": "Feature", "properties": {"OBJECTID": 179, "FID_B_Leve": 5, "SHAPE_Leng": 0.503338016886}, "geometry": {"type": "LineString", "coordinates": [[114.66179836900005, 81.35713966700007], [115.16478551700004, 81.37593030800008]]}}, {"type": "Feature", "properties": {"OBJECTID": 180, "FID_B_Leve": 5, "SHAPE_Leng": 2.08248649701}, "geometry": {"type": "LineString", "coordinates": [[115.16478551700004, 81.37593030800008], [117.24582034600007, 81.45367380100004]]}}, {"type": "Feature", "properties": {"OBJECTID": 181, "FID_B_Leve": 57, "SHAPE_Leng": 1.86540673263}, "geometry": {"type": "LineString", "coordinates": [[117.24582034600007, 81.45367380100004], [117.27543197700004, 79.58850211200007]]}}, {"type": "Feature", "properties": {"OBJECTID": 182, "FID_B_Leve": 7, "SHAPE_Leng": 1.03477215921}, "geometry": {"type": "LineString", "coordinates": [[67.22456970200005, 81.19272928900006], [66.83439088100005, 81.49158966300007], [66.33125635100004, 81.28660892900007]]}}, {"type": "Feature", "properties": {"OBJECTID": 183, "FID_B_Leve": 5, "SHAPE_Leng": 1.25327098119}, "geometry": {"type": "LineString", "coordinates": [[117.24582034600007, 81.45367380100004], [118.49821769200003, 81.50046097900008]]}}, {"type": "Feature", "properties": {"OBJECTID": 184, "FID_B_Leve": 105, "SHAPE_Leng": 1.44119684761}, "geometry": {"type": "LineString", "coordinates": [[100.66202247300004, 81.52038372400006], [100.65958477700008, 80.07918893800007]]}}, {"type": "Feature", "properties": {"OBJECTID": 185, "FID_B_Leve": 104, "SHAPE_Leng": 6.160486526}, "geometry": {"type": "LineString", "coordinates": [[106.82033788100006, 81.35684298700005], [100.66202247300004, 81.52038372400006]]}}, {"type": "Feature", "properties": {"OBJECTID": 186, "FID_B_Leve": 5, "SHAPE_Leng": 1.12179874394}, "geometry": {"type": "LineString", "coordinates": [[118.49821769200003, 81.50046097900008], [119.61923444800004, 81.54234002700008]]}}, {"type": "Feature", "properties": {"OBJECTID": 187, "FID_B_Leve": 58, "SHAPE_Leng": 1.6190216232}, "geometry": {"type": "LineString", "coordinates": [[119.61923444800004, 81.54234002700008], [119.66286755100009, 79.92390647300005]]}}, {"type": "Feature", "properties": {"OBJECTID": 188, "FID_B_Leve": 8, "SHAPE_Leng": 2.08095403524}, "geometry": {"type": "LineString", "coordinates": [[76.73419664000005, 80.74681850000007], [78.16880289800008, 81.54382197700005], [78.60861857800006, 81.54643324300008]]}}, {"type": "Feature", "properties": {"OBJECTID": 189, "FID_B_Leve": 106, "SHAPE_Leng": 1.48207449675}, "geometry": {"type": "LineString", "coordinates": [[99.28694145200006, 81.55690049000003], [99.25885442400005, 80.07509215800007]]}}, {"type": "Feature", "properties": {"OBJECTID": 190, "FID_B_Leve": 104, "SHAPE_Leng": 1.37556580668}, "geometry": {"type": "LineString", "coordinates": [[100.66202247300004, 81.52038372400006], [99.28694145200006, 81.55690049000003]]}}, {"type": "Feature", "properties": {"OBJECTID": 191, "FID_B_Leve": 5, "SHAPE_Leng": 1.09270346314}, "geometry": {"type": "LineString", "coordinates": [[119.61923444800004, 81.54234002700008], [120.71117620500002, 81.58313289000006]]}}, {"type": "Feature", "properties": {"OBJECTID": 192, "FID_B_Leve": 8, "SHAPE_Leng": 8.26677163061}, "geometry": {"type": "LineString", "coordinates": [[78.60861857800006, 81.54643324300008], [86.87524451000007, 81.59551371900005]]}}, {"type": "Feature", "properties": {"OBJECTID": 193, "FID_B_Leve": 5, "SHAPE_Leng": 0.500324612274}, "geometry": {"type": "LineString", "coordinates": [[120.71117620500002, 81.58313289000006], [121.21115204900002, 81.60181103400004]]}}, {"type": "Feature", "properties": {"OBJECTID": 194, "FID_B_Leve": 70, "SHAPE_Leng": 0.804056676282}, "geometry": {"type": "LineString", "coordinates": [[121.21115204900002, 81.60181103400004], [122.01520732200004, 81.60331324400005]]}}, {"type": "Feature", "properties": {"OBJECTID": 195, "FID_B_Leve": 70, "SHAPE_Leng": 3.94580748443}, "geometry": {"type": "LineString", "coordinates": [[122.01520732200004, 81.60331324400005], [125.96100792000004, 81.61068515300008]]}}, {"type": "Feature", "properties": {"OBJECTID": 196, "FID_B_Leve": 70, "SHAPE_Leng": 3.24036727326}, "geometry": {"type": "LineString", "coordinates": [[125.96100792000004, 81.61068515300008], [129.2013695380001, 81.61673909600006]]}}, {"type": "Feature", "properties": {"OBJECTID": 197, "FID_B_Leve": 70, "SHAPE_Leng": 2.79205947385}, "geometry": {"type": "LineString", "coordinates": [[129.2013695380001, 81.61673909600006], [131.993424139, 81.62195547000005]]}}, {"type": "Feature", "properties": {"OBJECTID": 198, "FID_B_Leve": 74, "SHAPE_Leng": 1.5375475658}, "geometry": {"type": "LineString", "coordinates": [[131.993424139, 81.62195547000005], [131.99337462800008, 80.08440790500003]]}}, {"type": "Feature", "properties": {"OBJECTID": 199, "FID_B_Leve": 8, "SHAPE_Leng": 6.31172817974}, "geometry": {"type": "LineString", "coordinates": [[86.87524451000007, 81.59551371900005], [93.18686144800006, 81.63298694700006]]}}, {"type": "Feature", "properties": {"OBJECTID": 200, "FID_B_Leve": 94, "SHAPE_Leng": 1.04437520171}, "geometry": {"type": "LineString", "coordinates": [[93.18686144800006, 81.63298694700006], [93.18627669000006, 80.58861190900006]]}}, {"type": "Feature", "properties": {"OBJECTID": 201, "FID_B_Leve": 70, "SHAPE_Leng": 8.11410782918}, "geometry": {"type": "LineString", "coordinates": [[131.993424139, 81.62195547000005], [140.10751780700002, 81.63711496900004]]}}, {"type": "Feature", "properties": {"OBJECTID": 202, "FID_B_Leve": 8, "SHAPE_Leng": 2.64391051289}, "geometry": {"type": "LineString", "coordinates": [[93.18686144800006, 81.63298694700006], [95.83072536300006, 81.64868405200008]]}}, {"type": "Feature", "properties": {"OBJECTID": 203, "FID_B_Leve": 104, "SHAPE_Leng": 3.45743458016}, "geometry": {"type": "LineString", "coordinates": [[99.28694145200006, 81.55690049000003], [95.83072536300006, 81.64868405200008]]}}, {"type": "Feature", "properties": {"OBJECTID": 204, "FID_B_Leve": 82, "SHAPE_Leng": 2.45142716522}, "geometry": {"type": "LineString", "coordinates": [[67.22456970200005, 81.19272928900006], [69.29611886500004, 82.50352264100007]]}}, {"type": "Feature", "properties": {"OBJECTID": 205, "FID_B_Leve": 60, "SHAPE_Leng": 1.00932841298}, "geometry": {"type": "LineString", "coordinates": [[120.71117620500002, 81.58313289000006], [120.6673646160001, 82.59150999700006]]}}, {"type": "Feature", "properties": {"OBJECTID": 206, "FID_B_Leve": 59, "SHAPE_Leng": 1.11232970573}, "geometry": {"type": "LineString", "coordinates": [[118.49821769200003, 81.50046097900008], [118.46892203800007, 82.61240483500006]]}}, {"type": "Feature", "properties": {"OBJECTID": 207, "FID_B_Leve": 55, "SHAPE_Leng": 1.28423487493}, "geometry": {"type": "LineString", "coordinates": [[115.16478551700004, 81.37593030800008], [115.14974327300001, 82.66007708500007]]}}, {"type": "Feature", "properties": {"OBJECTID": 208, "FID_B_Leve": 56, "SHAPE_Leng": 1.324493165}, "geometry": {"type": "LineString", "coordinates": [[113.62128317700001, 81.35710029900008], [113.62128214800009, 82.68159346400006]]}}, {"type": "Feature", "properties": {"OBJECTID": 209, "FID_B_Leve": 61, "SHAPE_Leng": 1.35282731033}, "geometry": {"type": "LineString", "coordinates": [[109.82170090300008, 81.35695654300008], [109.83596267800004, 82.70970867600005]]}}, {"type": "Feature", "properties": {"OBJECTID": 210, "FID_B_Leve": 100, "SHAPE_Leng": 1.19669533016}, "geometry": {"type": "LineString", "coordinates": [[86.87524451000007, 81.59551371900005], [86.79308013500008, 82.78938503900008]]}}, {"type": "Feature", "properties": {"OBJECTID": 211, "FID_B_Leve": 75, "SHAPE_Leng": 1.26571885764}, "geometry": {"type": "LineString", "coordinates": [[78.60861857800006, 81.54643324300008], [78.58911743300007, 82.81200186300003]]}}, {"type": "Feature", "properties": {"OBJECTID": 212, "FID_B_Leve": 81, "SHAPE_Leng": 1.66946096853}, "geometry": {"type": "LineString", "coordinates": [[66.33125635100004, 81.28660892900007], [66.15276013100004, 82.94650019800008]]}}, {"type": "Feature", "properties": {"OBJECTID": 213, "FID_B_Leve": 71, "SHAPE_Leng": 2.66745619641}, "geometry": {"type": "LineString", "coordinates": [[122.01520732200004, 81.60331324400005], [122.02715502900003, 84.27074268300004]]}}, {"type": "Feature", "properties": {"OBJECTID": 214, "FID_B_Leve": 72, "SHAPE_Leng": 2.67664615741}, "geometry": {"type": "LineString", "coordinates": [[125.96100792000004, 81.61068515300008], [125.91322549600011, 84.28690478000004]]}}, {"type": "Feature", "properties": {"OBJECTID": 215, "FID_B_Leve": 73, "SHAPE_Leng": 2.67686324873}, "geometry": {"type": "LineString", "coordinates": [[129.2013695380001, 81.61673909600006], [129.17740168500006, 84.29349504200007]]}}]}