{"type": "FeatureCollection", "features": [{"type": "Feature", "properties": {"OBJECTID": 1, "PlaceNode": 1, "PlaceName": "C24", "PersonName": "Conference Room", "Contact": "", "Email": "", "Details": "", "PlaceType": ""}, "geometry": {"type": "Polygon", "coordinates": [[[84.10793775900004, 28.470063056000072], [92.37027566300009, 28.470063056000072], [92.37027566300009, 22.60581834900006], [84.10793775900004, 22.60581834900006], [84.10793775900004, 28.470063056000072]]]}}, {"type": "Feature", "properties": {"OBJECTID": 2, "PlaceNode": 2, "PlaceName": "C25", "PersonName": "Studio for Interacrive Technology", "Contact": "", "Email": "", "Details": "", "PlaceType": ""}, "geometry": {"type": "Polygon", "coordinates": [[[92.37027566300009, 28.470063056000072], [102.30523319100007, 28.40960692500005], [102.26942981300004, 22.525918561000026], [92.33447228600005, 22.58637469200005], [92.37027566300009, 28.470063056000072]]]}}, {"type": "Feature", "properties": {"OBJECTID": 3, "PlaceNode": 3, "PlaceName": "C28", "PersonName": "Dean of Engineering Office", "Contact": "", "Email": "", "Details": "Dean of Engineering Office", "PlaceType": "Office"}, "geometry": {"type": "Polygon", "coordinates": [[[102.30523319100007, 28.40960692500005], [114.31585121700004, 28.44991101200003], [114.33546204600009, 22.605884157000048], [102.32484401900007, 22.565580069000077], [102.30523319100007, 28.40960692500005]]]}}, {"type": "Feature", "properties": {"OBJECTID": 4, "PlaceNode": 4, "PlaceName": "C11", "PersonName": "", "Contact": "", "Email": "", "Details": "", "PlaceType": "Classroom"}, "geometry": {"type": "Polygon", "coordinates": [[[123.01162357900012, 40.44010783200008], [135.82311897800002, 40.40603470600007], [135.79992258700008, 31.684191707000025], [122.98842718900005, 31.718264833000035], [123.01162357900012, 40.44010783200008]]]}}, {"type": "Feature", "properties": {"OBJECTID": 5, "PlaceNode": 5, "PlaceName": "C10", "PersonName": "", "Contact": "", "Email": "", "Details": "", "PlaceType": "Classroom"}, "geometry": {"type": "Polygon", "coordinates": [[[135.79992258700008, 31.684191707000025], [135.9706762500001, 40.40156505300007], [147.92127699600007, 40.39394424200003], [148.0212981080001, 31.444802552000056], [135.79992258700008, 31.684191707000025]]]}}, {"type": "Feature", "properties": {"OBJECTID": 6, "PlaceNode": 6, "PlaceName": "C9", "PersonName": "", "Contact": "", "Email": "", "Details": "", "PlaceType": "Classroom"}, "geometry": {"type": "Polygon", "coordinates": [[[147.92127699600007, 40.39394424200003], [161.00566691400002, 40.408859826000025], [161.0157075730001, 31.600897771000064], [147.93131765500004, 31.58598218800006], [147.92127699600007, 40.39394424200003]]]}}, {"type": "Feature", "properties": {"OBJECTID": 7, "PlaceNode": 7, "PlaceName": "C112", "PersonName": "", "Contact": "", "Email": "", "Details": "", "PlaceType": "Lab"}, "geometry": {"type": "Polygon", "coordinates": [[[123.1516362960001, 80.57979691800006], [134.770914306, 80.56169835400004], [134.75507144900007, 70.39058385000004], [123.13579343900005, 70.40868241400005], [123.1516362960001, 80.57979691800006]]]}}, {"type": "Feature", "properties": {"OBJECTID": 8, "PlaceNode": 8, "PlaceName": "C127", "PersonName": "Lecture Room", "Contact": "", "Email": "", "Details": "", "PlaceType": "Classroom"}, "geometry": {"type": "Polygon", "coordinates": [[[99.52937663100005, 80.57569202700006], [111.43527630200003, 80.55691300500007], [111.41931149100009, 70.43522328300008], [99.51341182000004, 70.45400230500007], [99.52937663100005, 80.57569202700006]]]}}, {"type": "Feature", "properties": {"OBJECTID": 9, "PlaceNode": 9, "PlaceName": "C123", "PersonName": "Engineering UG Office", "Contact": "", "Email": "", "Details": "", "PlaceType": "Office"}, "geometry": {"type": "Polygon", "coordinates": [[[110.11812770500006, 66.91336421900007], [120.57825968100008, 66.92843645500005], [120.59013954600005, 58.683810022000046], [110.13000757100008, 58.668737786000065], [110.11812770500006, 66.91336421900007]]]}}, {"type": "Feature", "properties": {"OBJECTID": 10, "PlaceNode": 10, "PlaceName": "C122", "PersonName": "", "Contact": "", "Email": "", "Details": "", "PlaceType": "Classroom"}, "geometry": {"type": "Polygon", "coordinates": [[[110.13000757100008, 58.668737786000065], [120.59013954600005, 58.683810022000046], [120.61146123800006, 43.88655576000008], [110.15132926300004, 43.87148352400004], [110.13000757100008, 58.668737786000065]]]}}, {"type": "Feature", "properties": {"OBJECTID": 11, "PlaceNode": 11, "PlaceName": "C13", "PersonName": "Dineen Auditorium", "Contact": "", "Email": "", "Details": "", "PlaceType": "Classroom"}, "geometry": {"type": "Polygon", "coordinates": [[[145.056087552, 28.47177896000005], [144.93584620600006, 10.736180341000022], [128.58302307200006, 10.676059667000061], [128.04193701300005, 12.660041886000045], [127.0800062400001, 16.98873036200007], [127.0800062400001, 22.279349611000043], [127.80145432000006, 26.848520781000047], [128.46278172600012, 28.47177896000005], [131.82953943000007, 28.47177896000005], [145.056087552, 28.47177896000005]]]}}, {"type": "Feature", "properties": {"OBJECTID": 12, "PlaceNode": 12, "PlaceName": "CS and Engineering Library", "PersonName": "", "Contact": "", "Email": "", "Details": "", "PlaceType": "Facility,book"}, "geometry": {"type": "Polygon", "coordinates": [[[144.93584620600006, 10.736180341000022], [145.056087552, 28.47177896000005], [160.2666178930001, 28.65214098000007], [160.30886066300002, 25.225262602000043], [163.15241021100007, 25.225262602000043], [163.27265155800012, 22.76031499800007], [166.57928858800005, 22.82043567100004], [166.81977128200003, 40.61615496300004], [163.27265155800012, 40.73639631000003], [163.2125308840001, 52.70041029400005], [174.1544934220001, 52.70041029400005], [174.09437274900006, 40.49591361700004], [175.71763092800006, 40.49591361700004], [175.89799294800002, 10.615938994000032], [144.93584620600006, 10.736180341000022]]]}}, {"type": "Feature", "properties": {"OBJECTID": 13, "PlaceNode": 13, "PlaceName": "C317", "PersonName": "Multi Purpose Room", "Contact": "", "Email": "", "Details": "", "PlaceType": ""}, "geometry": {"type": "Polygon", "coordinates": [[[72.87286098300007, 61.931955292000055], [83.20653404900008, 61.91458777400004], [83.19147246400007, 52.952944735000074], [72.85779939800005, 52.97031225300003], [72.87286098300007, 61.931955292000055]]]}}, {"type": "Feature", "properties": {"OBJECTID": 14, "PlaceNode": 14, "PlaceName": "C314", "PersonName": "", "Contact": "", "Email": "", "Details": "Comp Sci Office", "PlaceType": "Office"}, "geometry": {"type": "Polygon", "coordinates": [[[72.88576507600004, 76.23838887200003], [83.14092269000008, 76.23838887200003], [83.14092269000008, 70.58936137200004], [72.88576507600004, 70.58936137200004], [72.88576507600004, 76.23838887200003]]]}}, {"type": "Feature", "properties": {"OBJECTID": 15, "PlaceNode": 15, "PlaceName": "C315", "PersonName": "", "Contact": "", "Email": "", "Details": "", "PlaceType": "Lab"}, "geometry": {"type": "Polygon", "coordinates": [[[72.88576507600004, 70.58936137200004], [83.14092269000008, 70.58936137200004], [83.14092269000008, 64.36094643700005], [72.88576507600004, 64.36094643700005], [72.88576507600004, 70.58936137200004]]]}}, {"type": "Feature", "properties": {"OBJECTID": 16, "PlaceNode": 16, "PlaceName": "CS Library - Reading Room", "PersonName": "", "Contact": "", "Email": "", "Details": "", "PlaceType": "Facility,book"}, "geometry": {"type": "Polygon", "coordinates": [[[163.5173826250001, 40.72810034200006], [163.58658610100008, 52.48764982100005], [173.85306043900005, 52.42723290600003], [173.78385696400005, 40.66768342600005], [163.5173826250001, 40.72810034200006]]]}}, {"type": "Feature", "properties": {"OBJECTID": 17, "PlaceNode": 17, "PlaceName": "C21", "PersonName": "", "Contact": "", "Email": "", "Details": "", "PlaceType": ""}, "geometry": {"type": "Polygon", "coordinates": [[[108.40887719700004, 31.489155779000043], [108.40887719700004, 33.50255828000007], [117.5295905270001, 33.62336243000004], [117.38865235200001, 31.56969187900006], [108.40887719700004, 31.489155779000043]]]}}, {"type": "Feature", "properties": {"OBJECTID": 18, "PlaceNode": 18, "PlaceName": "", "PersonName": "", "Contact": "", "Email": "", "Details": "", "PlaceType": ""}, "geometry": {"type": "Polygon", "coordinates": [[[108.87195977200008, 40.20718860900007], [116.01953865200005, 40.28772470900003], [115.97927060200004, 36.18038360700007], [114.73096105100001, 36.220651657000076], [114.75184905300011, 33.58657115200003], [108.85281457000008, 33.508438245000036], [108.87195977200008, 40.20718860900007]]]}}, {"type": "Feature", "properties": {"OBJECTID": 19, "PlaceNode": 19, "PlaceName": "C20", "PersonName": "", "Contact": "", "Email": "", "Details": "", "PlaceType": ""}, "geometry": {"type": "Polygon", "coordinates": [[[116.14034280200008, 40.28772470900003], [120.46915817900003, 40.26759068400003], [120.50942622900004, 36.14011555700006], [115.97927060200004, 36.18038360700007], [116.14034280200008, 40.28772470900003]]]}}, {"type": "Feature", "properties": {"OBJECTID": 20, "PlaceNode": 20, "PlaceName": "", "PersonName": "", "Contact": "", "Email": "", "Details": "", "PlaceType": ""}, "geometry": {"type": "Polygon", "coordinates": [[[114.73096105100001, 36.220651657000076], [118.45663375000004, 36.15836260100008], [118.45575567800006, 33.56296035500003], [114.75184905300011, 33.58657115200003], [114.73096105100001, 36.220651657000076]]]}}, {"type": "Feature", "properties": {"OBJECTID": 21, "PlaceNode": 21, "PlaceName": "", "PersonName": "", "Contact": "", "Email": "", "Details": "", "PlaceType": ""}, "geometry": {"type": "Polygon", "coordinates": [[[118.45663375000004, 36.15836260100008], [120.50942622900004, 36.14011555700006], [120.44902415400009, 33.52269230500008], [118.45575567800006, 33.56296035500003], [118.45663375000004, 36.15836260100008]]]}}, {"type": "Feature", "properties": {"OBJECTID": 22, "PlaceNode": 22, "PlaceName": "C7", "PersonName": "Dr. Othman Nasir", "Contact": "", "Email": "", "Details": "", "PlaceType": "Faculty"}, "geometry": {"type": "Polygon", "coordinates": [[[157.05865882600006, 40.59894851000007], [157.10314867600005, 43.69099306600003], [160.88478590300008, 43.66874814100004], [160.90703082800007, 40.53221373500003], [157.05865882600006, 40.59894851000007]]]}}, {"type": "Feature", "properties": {"OBJECTID": 23, "PlaceNode": 23, "PlaceName": "C6", "PersonName": "Kaveh Arjomandi", "Contact": "", "Email": "", "Details": "", "PlaceType": "Faculty"}, "geometry": {"type": "Polygon", "coordinates": [[[160.88478590300008, 43.66874814100004], [157.10314867600005, 43.69099306600003], [156.96967912600007, 46.716302848000055], [160.88478590300008, 46.73854777300005], [160.88478590300008, 43.66874814100004]]]}}, {"type": "Feature", "properties": {"OBJECTID": 24, "PlaceNode": 24, "PlaceName": "C5", "PersonName": "Dr. A. J. Valsangkar", "Contact": "", "Email": "", "Details": "", "PlaceType": "Faculty"}, "geometry": {"type": "Polygon", "coordinates": [[[157.01416897600006, 49.65263293100003], [160.92927575300007, 49.563653232000036], [160.88478590300008, 46.73854777300005], [156.96967912600007, 46.716302848000055], [157.01416897600006, 49.65263293100003]]]}}, {"type": "Feature", "properties": {"OBJECTID": 25, "PlaceNode": 25, "PlaceName": "C4", "PersonName": "Alan Floyd", "Contact": "", "Email": "", "Details": "", "PlaceType": "Faculty"}, "geometry": {"type": "Polygon", "coordinates": [[[157.01416897600006, 49.65263293100003], [157.03641390100006, 52.56671808900006], [160.99601052700007, 52.56671808900006], [160.92927575300007, 49.563653232000036], [157.01416897600006, 49.65263293100003]]]}}, {"type": "Feature", "properties": {"OBJECTID": 26, "PlaceNode": 26, "PlaceName": "C121", "PersonName": "D. Foord", "Contact": "", "Email": "", "Details": "", "PlaceType": "Faculty"}, "geometry": {"type": "Polygon", "coordinates": [[[123.13294564300008, 44.40271725300005], [123.1210594800001, 46.934469817000036], [126.67502199900002, 46.88692516800006], [126.60370502600006, 44.271969468000066], [123.13294564300008, 44.40271725300005]]]}}, {"type": "Feature", "properties": {"OBJECTID": 27, "PlaceNode": 27, "PlaceName": "C120", "PersonName": "H.L", "Contact": "", "Email": "", "Details": "", "PlaceType": "Faculty"}, "geometry": {"type": "Polygon", "coordinates": [[[123.1210594800001, 46.934469817000036], [123.0972871560001, 49.84657957400003], [126.66313583700003, 49.84657957400003], [126.67502199900002, 46.88692516800006], [123.1210594800001, 46.934469817000036]]]}}, {"type": "Feature", "properties": {"OBJECTID": 28, "PlaceNode": 28, "PlaceName": "C119", "PersonName": "Brian Lowry", "Contact": "", "Email": "", "Details": "", "PlaceType": "Faculty"}, "geometry": {"type": "Polygon", "coordinates": [[[123.0972871560001, 49.84657957400003], [123.08540099400011, 52.83000630400005], [126.60370502600006, 52.818120141000065], [126.60370502600006, 49.84657957400003], [123.0972871560001, 49.84657957400003]]]}}, {"type": "Feature", "properties": {"OBJECTID": 29, "PlaceNode": 29, "PlaceName": "C118", "PersonName": "R. Tervo", "Contact": "", "Email": "", "Details": "", "PlaceType": "Faculty"}, "geometry": {"type": "Polygon", "coordinates": [[[123.08540099400011, 52.83000630400005], [123.06162866900002, 55.825319196000066], [126.56804653900008, 55.81343303400007], [126.53242902200009, 52.81836093800007], [123.08540099400011, 52.83000630400005]]]}}, {"type": "Feature", "properties": {"OBJECTID": 30, "PlaceNode": 30, "PlaceName": "C117", "PersonName": "A. WIlson", "Contact": "", "Email": "", "Details": "", "PlaceType": "Faculty"}, "geometry": {"type": "Polygon", "coordinates": [[[123.06162866900002, 55.825319196000066], [123.1091733180001, 58.73742895200007], [126.5442742140001, 58.677998141000046], [126.56804653900008, 55.81343303400007], [123.06162866900002, 55.825319196000066]]]}}, {"type": "Feature", "properties": {"OBJECTID": 31, "PlaceNode": 31, "PlaceName": "C116", "PersonName": "Eric Aubanel", "Contact": "", "Email": "", "Details": "", "PlaceType": "Faculty"}, "geometry": {"type": "Polygon", "coordinates": [[[123.1091733180001, 58.73742895200007], [123.0972871560001, 61.64953870900007], [126.55616037700008, 61.60199406000004], [126.5442742140001, 58.677998141000046], [123.1091733180001, 58.73742895200007]]]}}, {"type": "Feature", "properties": {"OBJECTID": 32, "PlaceNode": 32, "PlaceName": "C115", "PersonName": "David Bremner", "Contact": "", "Email": "", "Details": "", "PlaceType": "Faculty"}, "geometry": {"type": "Polygon", "coordinates": [[[123.0972871560001, 61.64953870900007], [123.1091733180001, 64.59730695200005], [126.5442742140001, 64.53787614100008], [126.55616037700008, 61.60199406000004], [123.0972871560001, 61.64953870900007]]]}}, {"type": "Feature", "properties": {"OBJECTID": 33, "PlaceNode": 33, "PlaceName": "C114", "PersonName": "Huajie Zhang", "Contact": "", "Email": "", "Details": "", "PlaceType": "Faculty"}, "geometry": {"type": "Polygon", "coordinates": [[[123.1091733180001, 64.59730695200005], [123.08540099400011, 67.55696135800008], [126.60370502600006, 67.56884752000008], [126.5442742140001, 64.53787614100008], [123.1091733180001, 64.59730695200005]]]}}, {"type": "Feature", "properties": {"OBJECTID": 34, "PlaceNode": 34, "PlaceName": "C113", "PersonName": "", "Contact": "", "Email": "", "Details": "", "PlaceType": ""}, "geometry": {"type": "Polygon", "coordinates": [[[123.08540099400011, 67.55696135800008], [123.13579343900005, 70.40868241400005], [126.5918460150001, 70.40329915400008], [126.60370502600006, 67.56884752000008], [123.08540099400011, 67.55696135800008]]]}}, {"type": "Feature", "properties": {"OBJECTID": 35, "PlaceNode": 35, "PlaceName": "C124", "PersonName": "Engineering Student Lounge", "Contact": "", "Email": "", "Details": "", "PlaceType": "Facility,utensils"}, "geometry": {"type": "Polygon", "coordinates": [[[111.43512333700005, 80.45993291300005], [116.7890887530001, 80.52165447700008], [116.85087408100003, 70.26528991900005], [120.59918402000005, 70.36826546700007], [120.57825968100008, 66.92843645500005], [110.13686836700003, 67.07304793800006], [110.05459693500006, 70.43737583000006], [111.41931149100009, 70.43522328300008], [111.43512333700005, 80.45993291300005]]]}}, {"type": "Feature", "properties": {"OBJECTID": 36, "PlaceNode": 36, "PlaceName": "C126", "PersonName": "", "Contact": "", "Email": "", "Details": "", "PlaceType": ""}, "geometry": {"type": "Polygon", "coordinates": [[[116.95384962900005, 78.02964622100006], [120.70215956800007, 78.05024133000006], [120.74334978700006, 76.48501300400005], [116.95384962900005, 76.48501300400005], [116.95384962900005, 78.02964622100006]]]}}, {"type": "Feature", "properties": {"OBJECTID": 37, "PlaceNode": 37, "PlaceName": "C125", "PersonName": "", "Contact": "", "Email": "", "Details": "", "PlaceType": ""}, "geometry": {"type": "Polygon", "coordinates": [[[116.95384962900005, 76.48501300400005], [120.74334978700006, 76.48501300400005], [120.57858891100011, 75.14633088300008], [116.99503984800003, 75.20811621200005], [116.95384962900005, 76.48501300400005]]]}}, {"type": "Feature", "properties": {"OBJECTID": 38, "PlaceNode": 38, "PlaceName": "Lift1", "PersonName": "B,D,E", "Contact": "", "Email": "", "Details": "", "PlaceType": ""}, "geometry": {"type": "Polygon", "coordinates": [[[116.79095267900004, 80.21224279400008], [119.8165698570001, 80.10975228600006], [119.7958889470001, 78.04526182100005], [116.80298748100006, 78.21446559900005], [116.79095267900004, 80.21224279400008]]]}}, {"type": "Feature", "properties": {"OBJECTID": 39, "PlaceNode": 39, "PlaceName": "C111", "PersonName": "Seminar Room", "Contact": "", "Email": "", "Details": "", "PlaceType": "Classroom"}, "geometry": {"type": "Polygon", "coordinates": [[[134.75507144900007, 70.39058385000004], [134.770914306, 80.56169835400004], [140.24419069500004, 80.55305129000004], [140.12146003100008, 76.67476230800008], [141.4714973340001, 76.60112391000007], [141.4714973340001, 71.79008188200004], [140.6860210850001, 70.39095231200008], [134.75507144900007, 70.39058385000004]]]}}, {"type": "Feature", "properties": {"OBJECTID": 40, "PlaceNode": 40, "PlaceName": "Steps3", "PersonName": "B,D,E", "Contact": "", "Email": "", "Details": "", "PlaceType": ""}, "geometry": {"type": "Polygon", "coordinates": [[[140.12146003100008, 76.67476230800008], [140.24419069500004, 80.72487421900007], [139.04143018800005, 80.72487421900007], [138.99233792200005, 83.00766456900004], [142.4042503810001, 83.00766456900004], [143.31245729400007, 81.53489660200006], [143.26336502800007, 78.02479961200004], [142.55152717700003, 76.62567004200008], [140.12146003100008, 76.67476230800008]]]}}, {"type": "Feature", "properties": {"OBJECTID": 41, "PlaceNode": 41, "PlaceName": "C110", "PersonName": "", "Contact": "", "Email": "", "Details": "", "PlaceType": ""}, "geometry": {"type": "Polygon", "coordinates": [[[140.46510589000002, 83.00766456900004], [137.20047022800009, 82.95857230400009], [137.10228569700007, 86.81231515300004], [139.40962217900005, 86.81231515300004], [140.36692135900012, 85.53591624700005], [140.46510589000002, 83.00766456900004]]]}}, {"type": "Feature", "properties": {"OBJECTID": 42, "PlaceNode": 42, "PlaceName": "C109", "PersonName": "Gerhard Dueck", "Contact": "", "Email": "", "Details": "", "PlaceType": "Faculty"}, "geometry": {"type": "Polygon", "coordinates": [[[137.20039061400007, 82.96169717100008], [134.10765749600012, 82.90948003800008], [134.0585652300001, 86.81231515300004], [137.10228569700007, 86.81231515300004], [137.20039061400007, 82.96169717100008]]]}}, {"type": "Feature", "properties": {"OBJECTID": 43, "PlaceNode": 43, "PlaceName": "C108", "PersonName": "P. Pochec", "Contact": "", "Email": "", "Details": "", "PlaceType": "Faculty"}, "geometry": {"type": "Polygon", "coordinates": [[[134.10765749600012, 82.90948003800008], [131.11302929400006, 82.98311843700003], [131.06393702900004, 86.78776902000004], [134.0585652300001, 86.81231515300004], [134.10765749600012, 82.90948003800008]]]}}, {"type": "Feature", "properties": {"OBJECTID": 44, "PlaceNode": 44, "PlaceName": "C107", "PersonName": "Leah Bidlake", "Contact": "", "Email": "", "Details": "", "PlaceType": "Faculty"}, "geometry": {"type": "Polygon", "coordinates": [[[131.11302929400006, 82.98311843700003], [127.94657816400002, 82.83584164000007], [128.04476269500003, 86.78776902000004], [131.06393702900004, 86.78776902000004], [131.11302929400006, 82.98311843700003]]]}}, {"type": "Feature", "properties": {"OBJECTID": 45, "PlaceNode": 45, "PlaceName": "C106", "PersonName": "Suprio Ray", "Contact": "", "Email": "", "Details": "", "PlaceType": "Faculty"}, "geometry": {"type": "Polygon", "coordinates": [[[127.94657816400002, 82.83584164000007], [124.92740383000012, 82.93402617100008], [125.05013449400008, 86.81231515300004], [128.04476269500003, 86.78776902000004], [127.94657816400002, 82.83584164000007]]]}}, {"type": "Feature", "properties": {"OBJECTID": 46, "PlaceNode": 46, "PlaceName": "Steps1", "PersonName": "B,D,E", "Contact": "", "Email": "", "Details": "", "PlaceType": ""}, "geometry": {"type": "Polygon", "coordinates": [[[124.92740383000012, 82.93402617100008], [118.70648978400004, 82.87320473300008], [118.65268672000002, 88.02036451900005], [119.29832348700006, 89.38337547200007], [121.37870862700004, 89.36544111700005], [122.43683555200005, 87.85895532700005], [122.7417195810001, 88.12797064600005], [123.36942199300006, 88.34318290200008], [124.31994279000003, 88.05623322800005], [125.05013449400008, 86.81231515300004], [124.92740383000012, 82.93402617100008]]]}}, {"type": "Feature", "properties": {"OBJECTID": 47, "PlaceNode": 47, "PlaceName": "C-Restroom (Male) - 1", "PersonName": "", "Contact": "", "Email": "", "Details": "", "PlaceType": "Facility,male"}, "geometry": {"type": "Polygon", "coordinates": [[[118.70647998700008, 82.87414196700007], [115.24515933600003, 82.99874521600003], [115.3348311090001, 87.82308661700006], [118.65381140000011, 87.91277014700006], [118.70647998700008, 82.87414196700007]]]}}, {"type": "Feature", "properties": {"OBJECTID": 48, "PlaceNode": 48, "PlaceName": "C-Restroom (Female) - 1", "PersonName": "", "Contact": "", "Email": "", "Details": "", "PlaceType": "Facility,female"}, "geometry": {"type": "Polygon", "coordinates": [[[115.24515933600003, 82.99874521600003], [111.65828840600005, 82.99874521600003], [111.55068227800007, 86.72909098400004], [112.2680564640001, 87.80515226300008], [115.3348311090001, 87.82308661700006], [115.24515933600003, 82.99874521600003]]]}}, {"type": "Feature", "properties": {"OBJECTID": 49, "PlaceNode": 49, "PlaceName": "C129", "PersonName": "Ivan Sears", "Contact": "", "Email": "", "Details": "", "PlaceType": "Faculty"}, "geometry": {"type": "Polygon", "coordinates": [[[111.65828840600005, 82.99874521600003], [108.71705424300006, 82.90907344300007], [108.69911988800004, 86.80082840200004], [111.55068227800007, 86.72909098400004], [111.65828840600005, 82.99874521600003]]]}}, {"type": "Feature", "properties": {"OBJECTID": 50, "PlaceNode": 50, "PlaceName": "C128-B", "PersonName": "John Peterson", "Contact": "", "Email": "", "Details": "", "PlaceType": "Faculty"}, "geometry": {"type": "Polygon", "coordinates": [[[108.71705424300006, 82.90907344300007], [104.77149621900008, 82.92700779700004], [104.75356186500005, 86.78289404800006], [108.69911988800004, 86.80082840200004], [108.71705424300006, 82.90907344300007]]]}}, {"type": "Feature", "properties": {"OBJECTID": 51, "PlaceNode": 51, "PlaceName": "C128-A", "PersonName": "Sean Seeley", "Contact": "", "Email": "", "Details": "", "PlaceType": "Faculty"}, "geometry": {"type": "Polygon", "coordinates": [[[104.77149621900008, 82.92700779700004], [100.39551368400004, 82.94494215200007], [100.43138239400008, 86.83669711200008], [104.75356186500005, 86.78289404800006], [104.77149621900008, 82.92700779700004]]]}}, {"type": "Feature", "properties": {"OBJECTID": 52, "PlaceNode": 52, "PlaceName": "C128", "PersonName": "Scott Bateman", "Contact": "", "Email": "", "Details": "", "PlaceType": "Faculty"}, "geometry": {"type": "Polygon", "coordinates": [[[100.39551368400004, 82.94494215200007], [96.12713727700003, 82.98081086100007], [96.14507163200005, 85.27640825700007], [97.11352678300005, 86.80082840200004], [100.43138239400008, 86.83669711200008], [100.39551368400004, 82.94494215200007]]]}}, {"type": "Feature", "properties": {"OBJECTID": 53, "PlaceNode": 53, "PlaceName": "C127A", "PersonName": "FCS Instructional Lab", "Contact": "", "Email": "", "Details": "", "PlaceType": "Lab"}, "geometry": {"type": "Polygon", "coordinates": [[[99.51341182000004, 70.45400230500007], [99.07220900600004, 70.32226290400007], [96.08844109700004, 70.27993995500003], [95.24198211600003, 71.82472759600006], [95.13617474400007, 76.62838231400008], [96.40586321500007, 76.62838231400008], [96.44818616400005, 80.58557805100008], [99.52937663100005, 80.57569202700006], [99.51341182000004, 70.45400230500007]]]}}, {"type": "Feature", "properties": {"OBJECTID": 54, "PlaceNode": 54, "PlaceName": "Steps4", "PersonName": "B,D,E", "Contact": "", "Email": "", "Details": "", "PlaceType": ""}, "geometry": {"type": "Polygon", "coordinates": [[[93.37977235700004, 81.17809933800004], [96.36354026600009, 81.17809933800004], [96.40586321500007, 76.62838231400008], [94.50133050800008, 76.48025199300008], [93.40093383200008, 77.94039373500004], [93.37977235700004, 81.17809933800004]]]}}, {"type": "Feature", "properties": {"OBJECTID": 55, "PlaceNode": 55, "PlaceName": "ITC316", "PersonName": "", "Contact": "", "Email": "", "Details": "", "PlaceType": ""}, "geometry": {"type": "Polygon", "coordinates": [[[72.87286098300007, 61.931955292000055], [72.88576507600004, 64.36094643700005], [83.14092269000008, 64.36094643700005], [83.20653404900008, 61.91458777400004], [72.87286098300007, 61.931955292000055]]]}}, {"type": "Feature", "properties": {"OBJECTID": 56, "PlaceNode": 56, "PlaceName": "C307", "PersonName": "Conference Room", "Contact": "", "Email": "", "Details": "", "PlaceType": ""}, "geometry": {"type": "Polygon", "coordinates": [[[59.45609817300004, 84.70121590100007], [65.74936776600003, 84.86682825900004], [65.73880591000005, 83.31220903000008], [66.79824603200007, 83.32111292000008], [66.77064397200007, 80.80932549500005], [59.373291994000056, 81.00253991200003], [59.45609817300004, 84.70121590100007]]]}}, {"type": "Feature", "properties": {"OBJECTID": 57, "PlaceNode": 57, "PlaceName": "Windsor St (CS)", "PersonName": "", "Contact": "", "Email": "", "Details": "", "PlaceType": ""}, "geometry": {"type": "Polygon", "coordinates": [[[65.92928172400008, 85.09139011100007], [69.14442109900006, 85.17045091400007], [69.08921698000006, 83.26590880100008], [65.90334624100007, 83.31359188200008], [65.92928172400008, 85.09139011100007]]]}}, {"type": "Feature", "properties": {"OBJECTID": 58, "PlaceNode": 58, "PlaceName": "C305", "PersonName": "CS Dean Office", "Contact": "", "Email": "", "Details": "", "PlaceType": "Office"}, "geometry": {"type": "Polygon", "coordinates": [[[69.24497672300004, 88.91873016900007], [73.13778453700007, 88.91873016900007], [73.10957578500006, 85.22338362100004], [69.14442109900006, 85.17045091400007], [69.24497672300004, 88.91873016900007]]]}}, {"type": "Feature", "properties": {"OBJECTID": 59, "PlaceNode": 59, "PlaceName": "", "PersonName": "", "Contact": "", "Email": "", "Details": "", "PlaceType": ""}, "geometry": {"type": "Polygon", "coordinates": [[[73.13778453700007, 88.91873016900007], [75.22523220500005, 88.94693892100008], [75.19702345300004, 85.19517486800004], [73.10957578500006, 85.22338362100004], [73.13778453700007, 88.91873016900007]]]}}, {"type": "Feature", "properties": {"OBJECTID": 60, "PlaceNode": 60, "PlaceName": "", "PersonName": "", "Contact": "", "Email": "", "Details": "", "PlaceType": ""}, "geometry": {"type": "Polygon", "coordinates": [[[75.19724351000008, 85.22444244500008], [75.22523220500005, 88.94693892100008], [80.24639011000005, 88.94693892100008], [80.18997260600008, 85.22338362100004], [75.19724351000008, 85.22444244500008]]]}}, {"type": "Feature", "properties": {"OBJECTID": 61, "PlaceNode": 61, "PlaceName": "", "PersonName": "", "Contact": "", "Email": "", "Details": "", "PlaceType": ""}, "geometry": {"type": "Polygon", "coordinates": [[[80.35922512000008, 85.13875736400007], [83.60323163100009, 85.19517486800004], [83.60323163100009, 83.19235345700008], [80.33101636700007, 83.22056220900004], [80.35922512000008, 85.13875736400007]]]}}, {"type": "Feature", "properties": {"OBJECTID": 62, "PlaceNode": 62, "PlaceName": "", "PersonName": "CS Trophy", "Contact": "", "Email": "", "Details": "", "PlaceType": ""}, "geometry": {"type": "Polygon", "coordinates": [[[80.35922512000008, 85.13875736400007], [80.33101636700007, 83.22056220900004], [77.73581115800005, 83.24877096100005], [77.79222866200007, 81.95116835700009], [77.00238359900004, 81.44341081600004], [73.10957578500006, 81.30236705400006], [71.64272066600006, 81.97937710900004], [71.58630316200004, 83.19235345700008], [69.08921698000006, 83.26590880100008], [69.14442109900006, 85.17045091400007], [80.35922512000008, 85.13875736400007]]]}}, {"type": "Feature", "properties": {"OBJECTID": 63, "PlaceNode": 63, "PlaceName": "C-Restroom (Female) - 2", "PersonName": "", "Contact": "", "Email": "", "Details": "", "PlaceType": "Facility,female"}, "geometry": {"type": "Polygon", "coordinates": [[[67.88629124400006, 76.75111223700003], [67.92733468300008, 81.03331106900004], [69.36385505800007, 81.06067336200005], [70.58147709000008, 80.03458738000006], [70.54043365100006, 76.73743109100008], [67.88629124400006, 76.75111223700003]]]}}, {"type": "Feature", "properties": {"OBJECTID": 64, "PlaceNode": 64, "PlaceName": "C-Restroom (Male) - 2", "PersonName": "", "Contact": "", "Email": "", "Details": "", "PlaceType": "Facility,male"}, "geometry": {"type": "Polygon", "coordinates": [[[81.48535079400006, 76.64166306600004], [80.00778698000005, 76.72374994400008], [79.98042468700004, 77.64038675500007], [79.10483131500007, 77.65406790200007], [78.98170099800006, 79.87041362300005], [80.08987385800003, 81.00594877700007], [81.47166964800005, 81.04699221600004], [81.48535079400006, 76.64166306600004]]]}}, {"type": "Feature", "properties": {"OBJECTID": 65, "PlaceNode": 65, "PlaceName": "", "PersonName": "", "Contact": "", "Email": "", "Details": "", "PlaceType": ""}, "geometry": {"type": "Polygon", "coordinates": [[[73.20336973300005, 78.57773556400008], [75.32341276400007, 78.63073663900008], [75.37159556000006, 76.91542909600008], [73.18891489400005, 76.92024737600008], [73.20336973300005, 78.57773556400008]]]}}, {"type": "Feature", "properties": {"OBJECTID": 66, "PlaceNode": 66, "PlaceName": "C311", "PersonName": "", "Contact": "", "Email": "", "Details": "", "PlaceType": ""}, "geometry": {"type": "Polygon", "coordinates": [[[75.71537981100005, 78.82097838000004], [76.71597587800005, 78.79238992000006], [76.80174125500008, 78.02050152600003], [78.86011030700007, 78.03479575600005], [78.90299299500003, 76.64825549100004], [75.72967404000008, 76.67684395000003], [75.71537981100005, 78.82097838000004]]]}}, {"type": "Feature", "properties": {"OBJECTID": 67, "PlaceNode": 67, "PlaceName": "C310", "PersonName": "", "Contact": "", "Email": "", "Details": "", "PlaceType": ""}, "geometry": {"type": "Polygon", "coordinates": [[[76.85931245800003, 78.02090132600006], [76.71597587800005, 78.79238992000006], [77.90239692800003, 79.30698218300006], [78.37410650300006, 79.79298598700007], [78.90299299500003, 79.76439752800007], [78.86011030700007, 78.03479575600005], [76.85931245800003, 78.02090132600006]]]}}, {"type": "Feature", "properties": {"OBJECTID": 68, "PlaceNode": 68, "PlaceName": "C323", "PersonName": "Paul Cook", "Contact": "", "Email": "", "Details": "", "PlaceType": "Faculty"}, "geometry": {"type": "Polygon", "coordinates": [[[65.94194051700003, 76.57828855000008], [70.03416059900007, 76.54863478200008], [70.10829502000007, 73.27189334000008], [65.97159428600008, 73.31637399300007], [65.94194051700003, 76.57828855000008]]]}}, {"type": "Feature", "properties": {"OBJECTID": 69, "PlaceNode": 69, "PlaceName": "C322", "PersonName": "Patricia Evans", "Contact": "", "Email": "", "Details": "", "PlaceType": "Faculty"}, "geometry": {"type": "Polygon", "coordinates": [[[65.97159428600008, 73.31637399300007], [69.99033130000004, 73.27316176700003], [70.03416059900007, 69.75792174800006], [65.94194051700003, 69.72826797900007], [65.97159428600008, 73.31637399300007]]]}}, {"type": "Feature", "properties": {"OBJECTID": 70, "PlaceNode": 70, "PlaceName": "C321", "PersonName": "Dr. David Bremner", "Contact": "", "Email": "", "Details": "", "PlaceType": "Faculty"}, "geometry": {"type": "Polygon", "coordinates": [[[66.01596361100007, 69.72880437800006], [70.03416059900007, 69.75792174800006], [70.12312190500006, 66.39221900000007], [66.07538247600007, 66.40704588400007], [66.01596361100007, 69.72880437800006]]]}}, {"type": "Feature", "properties": {"OBJECTID": 71, "PlaceNode": 71, "PlaceName": "C320", "PersonName": "Andrew McAllister", "Contact": "", "Email": "", "Details": "", "PlaceType": "Faculty"}, "geometry": {"type": "Polygon", "coordinates": [[[66.07538247600007, 66.40704588400007], [70.12312190500006, 66.39221900000007], [70.09346813600007, 62.952381830000036], [66.04572870800007, 63.085823789000074], [66.07538247600007, 66.40704588400007]]]}}, {"type": "Feature", "properties": {"OBJECTID": 72, "PlaceNode": 72, "PlaceName": "C319", "PersonName": "Patricia MEng", "Contact": "", "Email": "", "Details": "", "PlaceType": "Faculty"}, "geometry": {"type": "Polygon", "coordinates": [[[66.04572870800007, 63.085823789000074], [70.09346813600007, 62.952381830000036], [70.21208321100005, 59.54219842800006], [66.07538247600007, 59.66081350300004], [66.04572870800007, 63.085823789000074]]]}}, {"type": "Feature", "properties": {"OBJECTID": 73, "PlaceNode": 73, "PlaceName": "C318", "PersonName": "Kenneth Kent", "Contact": "", "Email": "", "Details": "", "PlaceType": "Faculty"}, "geometry": {"type": "Polygon", "coordinates": [[[66.07538247600007, 59.66081350300004], [70.21208321100005, 59.54219842800006], [70.10829502000007, 56.10236125800003], [66.13469001400006, 56.13201502700008], [66.07538247600007, 59.66081350300004]]]}}, {"type": "Feature", "properties": {"OBJECTID": 74, "PlaceNode": 74, "PlaceName": "Steps5", "PersonName": "B,D,E", "Contact": "", "Email": "", "Details": "", "PlaceType": ""}, "geometry": {"type": "Polygon", "coordinates": [[[114.31585121700004, 28.44991101200003], [117.46921215600003, 28.479608761000065], [117.49804211300011, 22.54063757600005], [114.33546204600009, 22.605884157000048], [114.31585121700004, 28.44991101200003]]]}}, {"type": "Feature", "properties": {"OBJECTID": 75, "PlaceNode": 75, "PlaceName": "Dineen Dr (CS)", "PersonName": "", "Contact": "", "Email": "", "Details": "", "PlaceType": ""}, "geometry": {"type": "Polygon", "coordinates": [[[114.21142699100005, 22.454147704000036], [117.49804211300011, 22.54063757600005], [117.38272228400001, 13.862820456000065], [120.35220787600008, 13.805160541000078], [120.40986779100001, 10.633865248000063], [114.24025694800002, 10.633865248000063], [114.21142699100005, 22.454147704000036]]]}}, {"type": "Feature", "properties": {"OBJECTID": 76, "PlaceNode": 76, "PlaceName": "C12B", "PersonName": "", "Contact": "", "Email": "", "Details": "", "PlaceType": ""}, "geometry": {"type": "Polygon", "coordinates": [[[120.6405074490001, 13.77633058400005], [122.65860445300007, 13.862820456000065], [122.65860445300007, 10.893334863000064], [120.66933740600007, 10.893334863000064], [120.6405074490001, 13.77633058400005]]]}}, {"type": "Feature", "properties": {"OBJECTID": 77, "PlaceNode": 77, "PlaceName": "", "PersonName": "", "Contact": "", "Email": "", "Details": "", "PlaceType": ""}, "geometry": {"type": "Polygon", "coordinates": [[[122.80275423900002, 13.833990499000038], [127.50203726400002, 13.833990499000038], [127.6461870500001, 10.835674949000065], [122.65860445300007, 10.979824735000022], [122.80275423900002, 13.833990499000038]]]}}, {"type": "Feature", "properties": {"OBJECTID": 78, "PlaceNode": 78, "PlaceName": "", "PersonName": "", "Contact": "", "Email": "", "Details": "", "PlaceType": ""}, "geometry": {"type": "Polygon", "coordinates": [[[124.56138162900004, 13.833990499000038], [124.6190415430001, 16.54400647600005], [127.1852247710001, 16.515246972000057], [127.59834110000008, 14.656223496000052], [127.50203726400002, 13.833990499000038], [124.56138162900004, 13.833990499000038]]]}}, {"type": "Feature", "properties": {"OBJECTID": 79, "PlaceNode": 79, "PlaceName": "", "PersonName": "", "Contact": "", "Email": "", "Details": "", "PlaceType": ""}, "geometry": {"type": "Polygon", "coordinates": [[[124.6190415430001, 28.508438718000036], [128.46278172600012, 28.47177896000005], [127.58354425200002, 25.46842368700004], [124.59021158600001, 25.394803340000067], [124.6190415430001, 28.508438718000036]]]}}, {"type": "Feature", "properties": {"OBJECTID": 80, "PlaceNode": 80, "PlaceName": "", "PersonName": "", "Contact": "", "Email": "", "Details": "", "PlaceType": ""}, "geometry": {"type": "Polygon", "coordinates": [[[124.59021158600001, 25.394803340000067], [127.58354425200002, 25.46842368700004], [127.15997763700011, 22.78583512800003], [124.59021158600001, 22.742447276000064], [124.59021158600001, 25.394803340000067]]]}}, {"type": "Feature", "properties": {"OBJECTID": 81, "PlaceNode": 81, "PlaceName": "Steps6", "PersonName": "B,D,E", "Contact": "", "Email": "", "Details": "", "PlaceType": ""}, "geometry": {"type": "Polygon", "coordinates": [[[163.32600312700004, 28.341386166000063], [166.36120306400005, 28.375489536000032], [166.57928858800005, 22.82043567100004], [163.27265155800012, 22.76031499800007], [163.32600312700004, 28.341386166000063]]]}}, {"type": "Feature", "properties": {"OBJECTID": 82, "PlaceNode": 82, "PlaceName": "", "PersonName": "", "Contact": "", "Email": "", "Details": "", "PlaceType": ""}, "geometry": {"type": "Polygon", "coordinates": [[[163.18958964700005, 38.947534259000065], [166.49761654400004, 38.879327518000025], [166.36120306400005, 34.82102648000006], [163.29189975700012, 34.82102648000006], [163.18958964700005, 38.947534259000065]]]}}, {"type": "Feature", "properties": {"OBJECTID": 83, "PlaceNode": 83, "PlaceName": "", "PersonName": "", "Contact": "", "Email": "", "Details": "", "PlaceType": ""}, "geometry": {"type": "Polygon", "coordinates": [[[163.32600312700004, 33.52103939500006], [164.8606547810001, 33.46550287300005], [164.8606547810001, 31.47889621300004], [163.32600312700004, 31.52866664800007], [163.32600312700004, 33.52103939500006]]]}}, {"type": "Feature", "properties": {"OBJECTID": 84, "PlaceNode": 84, "PlaceName": "", "PersonName": "", "Contact": "", "Email": "", "Details": "", "PlaceType": ""}, "geometry": {"type": "Polygon", "coordinates": [[[164.8606547810001, 31.47889621300004], [164.8606547810001, 33.52103939500006], [166.23654936600008, 33.51409733000003], [166.26431869100008, 31.473401855000077], [164.8606547810001, 31.47889621300004]]]}}, {"type": "Feature", "properties": {"OBJECTID": 85, "PlaceNode": 85, "PlaceName": "C31", "PersonName": "", "Contact": "", "Email": "", "Details": "", "PlaceType": ""}, "geometry": {"type": "Polygon", "coordinates": [[[163.3237744590001, 33.67897138100005], [163.29189975700012, 34.82102648000006], [166.27762325300012, 34.82102648000006], [166.33084575400005, 33.65236013100008], [163.3237744590001, 33.67897138100005]]]}}, {"type": "Feature", "properties": {"OBJECTID": 86, "PlaceNode": 86, "PlaceName": "C8", "PersonName": "", "Contact": "", "Email": "", "Details": "", "PlaceType": ""}, "geometry": {"type": "Polygon", "coordinates": [[[163.18958964700005, 38.947534259000065], [163.27055195800006, 40.49145148300005], [166.463902006, 40.49145148300005], [166.49761654400004, 38.879327518000025], [163.18958964700005, 38.947534259000065]]]}}, {"type": "Feature", "properties": {"OBJECTID": 87, "PlaceNode": 87, "PlaceName": "<steps>", "PersonName": "B,D", "Contact": "", "Email": "", "Details": "", "PlaceType": ""}, "geometry": {"type": "Polygon", "coordinates": [[[66.13469001400006, 56.13201502700008], [72.86296285000003, 56.04256632100004], [72.85779939800005, 52.97031225300003], [66.15201584800008, 53.034099490000074], [66.13469001400006, 56.13201502700008]]]}}, {"type": "Feature", "properties": {"OBJECTID": 88, "PlaceNode": 88, "PlaceName": "C19", "PersonName": "", "Contact": "", "Email": "", "Details": "", "PlaceType": ""}, "geometry": {"type": "Polygon", "coordinates": [[[108.40887719700004, 31.489155779000043], [96.37218147300007, 31.601169103000075], [96.39278941700007, 40.153466096000045], [108.61330054200005, 40.153466096000045], [108.67512437600004, 33.70317944900006], [108.36600520700006, 33.70317944900006], [108.40887719700004, 31.489155779000043]]]}}, {"type": "Feature", "properties": {"OBJECTID": 89, "PlaceNode": 89, "PlaceName": "C22", "PersonName": "", "Contact": "", "Email": "", "Details": "", "PlaceType": ""}, "geometry": {"type": "Polygon", "coordinates": [[[90.21040604900008, 35.88762157200006], [96.22792586100007, 35.94944540600005], [96.37218147300007, 31.601169103000075], [90.14858221500003, 31.642384992000075], [90.21040604900008, 35.88762157200006]]]}}, {"type": "Feature", "properties": {"OBJECTID": 90, "PlaceNode": 90, "PlaceName": "", "PersonName": "", "Contact": "", "Email": "", "Details": "", "PlaceType": ""}, "geometry": {"type": "Polygon", "coordinates": [[[90.21040604900008, 40.29772170800004], [96.20731791600008, 40.33893759700004], [96.20731791600008, 36.05248512900005], [90.18979810400003, 36.01126923900006], [90.21040604900008, 40.29772170800004]]]}}, {"type": "Feature", "properties": {"OBJECTID": 91, "PlaceNode": 91, "PlaceName": "C23", "PersonName": "", "Contact": "", "Email": "", "Details": "", "PlaceType": ""}, "geometry": {"type": "Polygon", "coordinates": [[[70.13409022800005, 40.46766630500008], [90.05334144200003, 40.40527240900008], [90.14858221500003, 31.642384992000075], [70.07169633200004, 31.545339214000023], [70.13409022800005, 40.46766630500008]]]}}, {"type": "Feature", "properties": {"OBJECTID": 92, "PlaceNode": 92, "PlaceName": "I9", "PersonName": "", "Contact": "", "Email": "", "Details": "", "PlaceType": ""}, "geometry": {"type": "Polygon", "coordinates": [[[56.862678310000035, 40.17130400800005], [69.86251441000007, 40.13023027600008], [69.88305127600006, 31.31991481500006], [56.94482577300005, 31.114546156000074], [56.862678310000035, 40.17130400800005]]]}}, {"type": "Feature", "properties": {"OBJECTID": 93, "PlaceNode": 93, "PlaceName": "", "PersonName": "", "Contact": "", "Email": "", "Details": "", "PlaceType": ""}, "geometry": {"type": "Polygon", "coordinates": [[[44.64324311300004, 40.08915654400005], [56.86341659300007, 40.08990834300005], [56.94482577300005, 31.114546156000074], [44.68431684500007, 31.196693620000076], [44.64324311300004, 40.08915654400005]]]}}, {"type": "Feature", "properties": {"OBJECTID": 94, "PlaceNode": 94, "PlaceName": "", "PersonName": "", "Contact": "", "Email": "", "Details": "", "PlaceType": ""}, "geometry": {"type": "Polygon", "coordinates": [[[124.59021158600001, 22.742447276000064], [126.92093291300012, 22.781799104000072], [127.00709757000004, 16.628954084000043], [124.53774664500008, 16.639643915000022], [124.59021158600001, 22.742447276000064]]]}}, {"type": "Feature", "properties": {"OBJECTID": 95, "PlaceNode": 95, "PlaceName": "<steps>", "PersonName": "", "Contact": "", "Email": "", "Details": "", "PlaceType": ""}, "geometry": {"type": "Polygon", "coordinates": [[[70.12479025000005, 28.453641095000023], [77.85821772600008, 28.469586307000043], [77.90605336000004, 25.519722218000027], [70.06100940500005, 25.535667429000057], [70.12479025000005, 28.453641095000023]]]}}, {"type": "Feature", "properties": {"OBJECTID": 96, "PlaceNode": 96, "PlaceName": "C-Restroom (Female) - 3", "PersonName": "", "Contact": "", "Email": "", "Details": "", "PlaceType": "Facility,female"}, "geometry": {"type": "Polygon", "coordinates": [[[78.00172462800003, 28.453641095000023], [80.21453636000007, 28.444929238000043], [80.24383213100003, 27.22458473900008], [82.06443144400004, 27.276366135000046], [82.08369871800005, 25.503777007000053], [77.90605336000004, 25.519722218000027], [78.00172462800003, 28.453641095000023]]]}}, {"type": "Feature", "properties": {"OBJECTID": 97, "PlaceNode": 97, "PlaceName": "", "PersonName": "", "Contact": "", "Email": "", "Details": "", "PlaceType": ""}, "geometry": {"type": "Polygon", "coordinates": [[[82.05199101000005, 28.42088607100004], [84.01306928400004, 28.373915039000053], [84.10793775900004, 25.503777007000053], [82.08369871800005, 25.503777007000053], [82.05199101000005, 28.42088607100004]]]}}, {"type": "Feature", "properties": {"OBJECTID": 98, "PlaceNode": 98, "PlaceName": "", "PersonName": "", "Contact": "", "Email": "", "Details": "", "PlaceType": ""}, "geometry": {"type": "Polygon", "coordinates": [[[79.75685098600007, 12.108399277000046], [79.70318994000007, 15.936220534000029], [83.04806178600006, 15.882559488000027], [83.08383581700008, 12.018964201000074], [79.75685098600007, 12.108399277000046]]]}}, {"type": "Feature", "properties": {"OBJECTID": 99, "PlaceNode": 99, "PlaceName": "", "PersonName": "", "Contact": "", "Email": "", "Details": "", "PlaceType": ""}, "geometry": {"type": "Polygon", "coordinates": [[[72.99555923300005, 24.843954113000052], [75.30298419600007, 24.772406052000065], [75.28509718100008, 21.57063032800005], [72.99555923300005, 21.552743312000075], [72.99555923300005, 24.843954113000052]]]}}, {"type": "Feature", "properties": {"OBJECTID": 100, "PlaceNode": 100, "PlaceName": "", "PersonName": "", "Contact": "", "Email": "", "Details": "", "PlaceType": ""}, "geometry": {"type": "Polygon", "coordinates": [[[70.01231886400006, 18.696622581000042], [72.31585265500007, 18.708707893000053], [72.39288222000005, 13.623622462000071], [72.67939280900003, 13.61168452100003], [72.66745486700006, 17.27663246700007], [79.54967796500006, 17.264694526000028], [79.61091960300007, 12.284543599000074], [70.15431928100003, 12.380842991000065], [70.01231886400006, 18.696622581000042]]]}}, {"type": "Feature", "properties": {"OBJECTID": 101, "PlaceNode": 101, "PlaceName": "", "PersonName": "", "Contact": "", "Email": "", "Details": "", "PlaceType": ""}, "geometry": {"type": "Polygon", "coordinates": [[[70.03497223400007, 21.467717846000028], [72.47866561300003, 21.48774812000005], [72.43860506500005, 18.80369145800006], [70.01494196000004, 18.843752006000045], [70.03497223400007, 21.467717846000028]]]}}, {"type": "Feature", "properties": {"OBJECTID": 102, "PlaceNode": 102, "PlaceName": "", "PersonName": "", "Contact": "", "Email": "", "Details": "", "PlaceType": ""}, "geometry": {"type": "Polygon", "coordinates": [[[69.95485114000007, 24.812773537000055], [72.99555923300005, 24.843954113000052], [72.99555923300005, 21.552743312000075], [70.03579309200006, 21.467724574000044], [69.95485114000007, 24.812773537000055]]]}}, {"type": "Feature", "properties": {"OBJECTID": 103, "PlaceNode": 103, "PlaceName": "", "PersonName": "", "Contact": "", "Email": "", "Details": "", "PlaceType": ""}, "geometry": {"type": "Polygon", "coordinates": [[[83.04806178600006, 15.882559488000027], [79.88986684300005, 16.059543976000043], [79.76968520100007, 17.561814496000068], [72.65273397800007, 17.56153943700002], [72.47866561300003, 21.48774812000005], [75.38305528400008, 21.48774812000005], [75.34299473700008, 24.872864358000072], [83.07468034400006, 24.872864358000072], [83.04806178600006, 15.882559488000027]]]}}, {"type": "Feature", "properties": {"OBJECTID": 104, "PlaceNode": 104, "PlaceName": "", "PersonName": "", "Contact": "", "Email": "", "Details": "", "PlaceType": ""}, "geometry": {"type": "Polygon", "coordinates": [[[61.16175487300006, 11.23240957400003], [61.078532317000054, 17.03421062800004], [69.37701005300005, 17.08176637400004], [69.44834367300007, 11.220520638000039], [61.16175487300006, 11.23240957400003]]]}}, {"type": "Feature", "properties": {"OBJECTID": 105, "PlaceNode": 105, "PlaceName": "", "PersonName": "", "Contact": "", "Email": "", "Details": "", "PlaceType": ""}, "geometry": {"type": "Polygon", "coordinates": [[[54.33554897800008, 29.563963245000025], [60.60842039600004, 29.538148960000058], [60.67295611000003, 26.272641822000026], [54.34845612000004, 26.311363251000046], [54.33554897800008, 29.563963245000025]]]}}, {"type": "Feature", "properties": {"OBJECTID": 106, "PlaceNode": 106, "PlaceName": "", "PersonName": "", "Contact": "", "Email": "", "Details": "", "PlaceType": ""}, "geometry": {"type": "Polygon", "coordinates": [[[60.737491824000074, 29.125120389000074], [64.51928467500005, 29.09930610300006], [64.58382038900004, 26.33717753600007], [60.76330611000003, 26.29845610800004], [60.737491824000074, 29.125120389000074]]]}}, {"type": "Feature", "properties": {"OBJECTID": 107, "PlaceNode": 107, "PlaceName": "", "PersonName": "", "Contact": "", "Email": "", "Details": "", "PlaceType": ""}, "geometry": {"type": "Polygon", "coordinates": [[[64.51962129000003, 29.084898982000027], [69.43690609600003, 29.086398961000043], [69.44981323800005, 26.29845610800004], [64.64835610300008, 26.259734679000076], [64.51962129000003, 29.084898982000027]]]}}, {"type": "Feature", "properties": {"OBJECTID": 108, "PlaceNode": 108, "PlaceName": "", "PersonName": "", "Contact": "", "Email": "", "Details": "", "PlaceType": ""}, "geometry": {"type": "Polygon", "coordinates": [[[61.19302035700008, 25.556046345000027], [69.33700653300008, 25.494813366000074], [69.39823951200003, 17.304902456000036], [61.14709562300004, 17.366135435000047], [61.19302035700008, 25.556046345000027]]]}}, {"type": "Feature", "properties": {"OBJECTID": 109, "PlaceNode": 109, "PlaceName": "", "PersonName": "", "Contact": "", "Email": "", "Details": "", "PlaceType": ""}, "geometry": {"type": "Polygon", "coordinates": [[[56.36495463300008, 14.605907523000042], [60.80305401000004, 14.605907523000042], [60.83028161400006, 12.128195601000073], [56.355878766000046, 12.082816261000062], [56.36495463300008, 14.605907523000042]]]}}, {"type": "Feature", "properties": {"OBJECTID": 110, "PlaceNode": 110, "PlaceName": "", "PersonName": "", "Contact": "", "Email": "", "Details": "", "PlaceType": ""}, "geometry": {"type": "Polygon", "coordinates": [[[51.10095128300003, 14.63313512600007], [56.36495463300008, 14.605907523000042], [56.31957529400006, 10.421932446000028], [53.86001510800003, 10.385628974000042], [53.841863372000034, 11.293215759000077], [51.309696243000076, 11.26598815500006], [51.34599971500006, 13.24452734600004], [51.06464781200003, 13.280830817000037], [51.10095128300003, 14.63313512600007]]]}}, {"type": "Feature", "properties": {"OBJECTID": 111, "PlaceNode": 111, "PlaceName": "C-Restroom (Male) - 3", "PersonName": "", "Contact": "", "Email": "", "Details": "", "PlaceType": "Facility,male"}, "geometry": {"type": "Polygon", "coordinates": [[[44.988434649000055, 17.089189544000078], [48.52731803800003, 16.992498741000077], [48.55632527900008, 14.84596291500003], [50.867235470000026, 14.903977396000073], [50.847897310000064, 13.105528461000063], [51.186315120000074, 13.095859381000025], [51.21532236100006, 11.220057803000032], [44.988434649000055, 11.297410445000025], [44.988434649000055, 17.089189544000078]]]}}, {"type": "Feature", "properties": {"OBJECTID": 112, "PlaceNode": 112, "PlaceName": "", "PersonName": "", "Contact": "", "Email": "", "Details": "", "PlaceType": ""}, "geometry": {"type": "Polygon", "coordinates": [[[48.61433976100005, 16.992498741000077], [50.79955190800007, 17.050513223000053], [50.857566390000045, 15.909561747000055], [48.69169240300005, 15.938568988000043], [48.61433976100005, 16.992498741000077]]]}}, {"type": "Feature", "properties": {"OBJECTID": 113, "PlaceNode": 113, "PlaceName": "C7", "PersonName": "Surface Analysis Lab", "Contact": "", "Email": "", "Details": "", "PlaceType": "Lab"}, "geometry": {"type": "Polygon", "coordinates": [[[44.987989664000054, 25.520784556000024], [50.74266444600005, 25.55007043300003], [50.80123620000006, 17.350024941000072], [45.03191847900007, 17.36466788000007], [44.987989664000054, 25.520784556000024]]]}}, {"type": "Feature", "properties": {"OBJECTID": 114, "PlaceNode": 114, "PlaceName": "", "PersonName": "", "Contact": "", "Email": "", "Details": "", "PlaceType": ""}, "geometry": {"type": "Polygon", "coordinates": [[[60.78888216200005, 18.905744248000076], [52.821864076000054, 18.947311299000035], [52.87728681100003, 23.450408477000053], [53.50079257400006, 25.570328072000052], [60.80273784500008, 25.528761021000037], [60.78888216200005, 18.905744248000076]]]}}, {"type": "Feature", "properties": {"OBJECTID": 115, "PlaceNode": 115, "PlaceName": "<steps>", "PersonName": "", "Contact": "", "Email": "", "Details": "", "PlaceType": ""}, "geometry": {"type": "Polygon", "coordinates": [[[52.34864629500004, 18.89318720700004], [55.40251047900006, 18.87312898600004], [56.08449000200005, 17.228354844000023], [53.94327488400006, 17.263456731000076], [53.93826032800007, 16.034890680000046], [52.35867540500004, 16.049934346000043], [52.34864629500004, 18.89318720700004]]]}}, {"type": "Feature", "properties": {"OBJECTID": 116, "PlaceNode": 116, "PlaceName": "<steps>", "PersonName": "", "Contact": "", "Email": "", "Details": "", "PlaceType": ""}, "geometry": {"type": "Polygon", "coordinates": [[[46.23770197500005, 31.120210858000064], [50.290529691000074, 31.10881049900007], [50.336131128000034, 28.63493254000008], [46.28900359200003, 28.62923236000006], [46.23770197500005, 31.120210858000064]]]}}, {"type": "Feature", "properties": {"OBJECTID": 117, "PlaceNode": 117, "PlaceName": "", "PersonName": "", "Contact": "", "Email": "", "Details": "", "PlaceType": ""}, "geometry": {"type": "Polygon", "coordinates": [[[44.40220849800005, 28.112389406000034], [40.18241733900004, 28.197637712000073], [40.03323280300003, 32.26824433500008], [44.40220849800005, 32.20430810500005], [44.40220849800005, 28.112389406000034]]]}}, {"type": "Feature", "properties": {"OBJECTID": 118, "PlaceNode": 118, "PlaceName": "", "PersonName": "", "Contact": "", "Email": "", "Details": "", "PlaceType": ""}, "geometry": {"type": "Polygon", "coordinates": [[[44.44483265100007, 39.19466921600008], [44.44483265100007, 34.996190134000074], [43.61366166500005, 35.01750221100008], [43.57103751200003, 39.21598129300003], [44.44483265100007, 39.19466921600008]]]}}, {"type": "Feature", "properties": {"OBJECTID": 119, "PlaceNode": 119, "PlaceName": "<steps>", "PersonName": "", "Contact": "", "Email": "", "Details": "", "PlaceType": ""}, "geometry": {"type": "Polygon", "coordinates": [[[39.62830334800003, 39.96190397200007], [42.56936991400005, 39.91927981900005], [42.548057837000044, 35.038814288000026], [39.649615425000036, 35.10275051700006], [39.62830334800003, 39.96190397200007]]]}}, {"type": "Feature", "properties": {"OBJECTID": 120, "PlaceNode": 120, "PlaceName": "", "PersonName": "", "Contact": "", "Email": "", "Details": "", "PlaceType": ""}, "geometry": {"type": "Polygon", "coordinates": [[[33.085495845000025, 40.004528126000025], [37.26266285100007, 39.91927981900005], [37.24135077400007, 32.35349264100006], [33.170744151000065, 32.24693225800007], [33.085495845000025, 40.004528126000025]]]}}, {"type": "Feature", "properties": {"OBJECTID": 121, "PlaceNode": 121, "PlaceName": "", "PersonName": "", "Contact": "", "Email": "", "Details": "", "PlaceType": ""}, "geometry": {"type": "Polygon", "coordinates": [[[37.24135077400007, 32.35349264100006], [37.411847386000034, 39.855343590000075], [39.62830334800003, 39.96190397200007], [39.649615425000036, 35.10275051700006], [42.63330614300003, 34.953565981000054], [42.56936991400005, 39.91927981900005], [44.44483265100007, 39.855343590000075], [44.44483265100007, 39.19466921600008], [43.57103751200003, 39.21598129300003], [43.464477129000045, 34.953565981000054], [44.36182477300008, 34.99831854100006], [44.380896421000045, 32.39611679400008], [37.24135077400007, 32.35349264100006]]]}}, {"type": "Feature", "properties": {"OBJECTID": 122, "PlaceNode": 122, "PlaceName": "", "PersonName": "", "Contact": "", "Email": "", "Details": "", "PlaceType": ""}, "geometry": {"type": "Polygon", "coordinates": [[[40.12693215400003, 28.12611635500008], [26.180075228000078, 28.160133079000047], [26.157397411000034, 31.266993890000037], [28.379823393000038, 31.187621534000073], [28.470534658000076, 33.738875850000056], [33.040114610000046, 33.78423148200005], [33.028775702000075, 32.24213998400006], [40.03494619300005, 32.221493262000024], [40.12693215400003, 28.12611635500008]]]}}, {"type": "Feature", "properties": {"OBJECTID": 123, "PlaceNode": 123, "PlaceName": "", "PersonName": "", "Contact": "", "Email": "", "Details": "", "PlaceType": ""}, "geometry": {"type": "Polygon", "coordinates": [[[29.269349001000023, 39.926972843000044], [32.993192384000054, 39.91572256100005], [33.083194641000034, 33.863070780000044], [29.25809871900003, 33.863070780000044], [29.269349001000023, 39.926972843000044]]]}}, {"type": "Feature", "properties": {"OBJECTID": 124, "PlaceNode": 124, "PlaceName": "", "PersonName": "", "Contact": "", "Email": "", "Details": "", "PlaceType": ""}, "geometry": {"type": "Polygon", "coordinates": [[[25.129245180000055, 39.848220869000045], [29.190597027000024, 39.85947115100004], [29.25809871900003, 33.863070780000044], [25.129245180000055, 33.84057021500007], [25.129245180000055, 39.848220869000045]]]}}, {"type": "Feature", "properties": {"OBJECTID": 125, "PlaceNode": 125, "PlaceName": "", "PersonName": "", "Contact": "", "Email": "", "Details": "", "PlaceType": ""}, "geometry": {"type": "Polygon", "coordinates": [[[5.539347003000046, 27.670807283000045], [12.710569999000029, 27.601853216000052], [12.848478134000061, 14.868335461000072], [5.631285760000026, 15.052212973000053], [5.539347003000046, 27.670807283000045]]]}}, {"type": "Feature", "properties": {"OBJECTID": 126, "PlaceNode": 126, "PlaceName": "", "PersonName": "", "Contact": "", "Email": "", "Details": "", "PlaceType": ""}, "geometry": {"type": "Polygon", "coordinates": [[[13.561003495000023, 22.499252238000054], [17.882125044000077, 22.45328286000006], [17.905109733000074, 22.95894602000004], [25.559011199000054, 22.98193070900004], [25.650949956000034, 17.90231442000004], [21.168935584000053, 17.948283798000034], [21.19192027300005, 11.052877072000058], [13.515034117000027, 11.098846450000053], [13.561003495000023, 22.499252238000054]]]}}, {"type": "Feature", "properties": {"OBJECTID": 127, "PlaceNode": 127, "PlaceName": "", "PersonName": "", "Contact": "", "Email": "", "Details": "", "PlaceType": ""}, "geometry": {"type": "Polygon", "coordinates": [[[13.52706084600004, 30.85404466500006], [25.64448628100007, 30.867830131000062], [25.559011199000054, 22.98193070900004], [17.905109733000074, 22.95894602000004], [17.882125044000077, 22.45328286000006], [13.623103620000052, 22.498591598000075], [13.52706084600004, 30.85404466500006]]]}}, {"type": "Feature", "properties": {"OBJECTID": 128, "PlaceNode": 128, "PlaceName": "", "PersonName": "", "Contact": "", "Email": "", "Details": "", "PlaceType": ""}, "geometry": {"type": "Polygon", "coordinates": [[[5.544296368000062, 30.359733478000066], [7.9854380120000314, 30.32274648400005], [8.041060905000052, 27.64675234200007], [5.539347003000046, 27.670807283000045], [5.544296368000062, 30.359733478000066]]]}}, {"type": "Feature", "properties": {"OBJECTID": 129, "PlaceNode": 129, "PlaceName": "", "PersonName": "", "Contact": "", "Email": "", "Details": "", "PlaceType": ""}, "geometry": {"type": "Polygon", "coordinates": [[[5.775465084000075, 30.822070911000026], [13.478006710000045, 30.794330665000075], [13.478006710000045, 28.140513802000044], [12.70127982300005, 28.131267054000034], [12.673539577000042, 27.678176370000074], [8.124096143000031, 27.64595392600006], [8.105645744000071, 30.378226976000064], [5.775465084000075, 30.415213970000025], [5.775465084000075, 30.822070911000026]]]}}, {"type": "Feature", "properties": {"OBJECTID": 130, "PlaceNode": 130, "PlaceName": "", "PersonName": "", "Contact": "", "Email": "", "Details": "", "PlaceType": ""}, "geometry": {"type": "Polygon", "coordinates": [[[21.330120032000025, 17.73067657000007], [23.352534063000064, 17.799001368000063], [23.325204144000054, 14.31443665300003], [21.357449952000024, 14.382761451000022], [21.330120032000025, 17.73067657000007]]]}}, {"type": "Feature", "properties": {"OBJECTID": 131, "PlaceNode": 131, "PlaceName": "", "PersonName": "", "Contact": "", "Email": "", "Details": "", "PlaceType": ""}, "geometry": {"type": "Polygon", "coordinates": [[[6.347547321000036, 37.35835525700003], [8.58395921400006, 37.34115208800006], [8.669975056000055, 34.33059761700002], [6.347547321000036, 34.33059761700002], [6.347547321000036, 37.35835525700003]]]}}, {"type": "Feature", "properties": {"OBJECTID": 132, "PlaceNode": 132, "PlaceName": "", "PersonName": "", "Contact": "", "Email": "", "Details": "", "PlaceType": ""}, "geometry": {"type": "Polygon", "coordinates": [[[6.364750489000073, 31.38885582000006], [6.364750489000073, 34.19297227000004], [8.75599089800005, 34.24458177500003], [8.669975056000055, 37.46157426700006], [21.641164033000052, 37.61640278300007], [21.67557037000006, 31.354449483000053], [6.364750489000073, 31.38885582000006]]]}}, {"type": "Feature", "properties": {"OBJECTID": 133, "PlaceNode": 133, "PlaceName": "<steps>", "PersonName": "", "Contact": "", "Email": "", "Details": "", "PlaceType": ""}, "geometry": {"type": "Polygon", "coordinates": [[[21.19192027300005, 11.052877072000058], [21.285339142000055, 14.289319099000068], [23.513914429000067, 14.227841160000025], [23.513914429000067, 17.74745316600007], [25.681011778000027, 17.808931105000056], [25.850076110000032, 11.077096788000063], [21.19192027300005, 11.052877072000058]]]}}, {"type": "Feature", "properties": {"OBJECTID": 134, "PlaceNode": 134, "PlaceName": "<steps>", "PersonName": "", "Contact": "", "Email": "", "Details": "", "PlaceType": ""}, "geometry": {"type": "Polygon", "coordinates": [[[21.80119348100004, 31.46403964900003], [21.64250828300004, 37.37174928700006], [24.901522725000063, 37.30543251700004], [24.848298189000047, 33.63293950700006], [28.321199188000037, 33.77930698200004], [28.228056250000066, 31.31767217400005], [25.72650303900008, 31.424121247000073], [25.63336010100005, 32.195877024000026], [24.316052825000043, 32.222489293000024], [24.34266509300005, 31.46403964900003], [21.80119348100004, 31.46403964900003]]]}}, {"type": "Feature", "properties": {"OBJECTID": 136, "PlaceNode": 136, "PlaceName": "Lift2", "PersonName": "B,D,E", "Contact": "", "Email": "", "Details": "", "PlaceType": ""}, "geometry": {"type": "Polygon", "coordinates": [[[118.02817661200004, 31.752435053000056], [117.97899426100003, 33.345943231000035], [120.26105535600004, 33.336106760000064], [120.31023770700006, 31.69341623100007], [118.02817661200004, 31.752435053000056]]]}}, {"type": "Feature", "properties": {"OBJECTID": 137, "PlaceNode": 137, "PlaceName": "", "PersonName": "", "Contact": "", "Email": "", "Details": "", "PlaceType": ""}, "geometry": {"type": "Polygon", "coordinates": [[[117.0578241930001, 75.05780265100003], [120.48829318800006, 75.04350903000005], [120.55976129200008, 70.55531209600008], [117.01494333100004, 70.49813761300004], [117.0578241930001, 75.05780265100003]]]}}, {"type": "Feature", "properties": {"OBJECTID": 138, "PlaceNode": 138, "PlaceName": "", "PersonName": "", "Contact": "", "Email": "", "Details": "", "PlaceType": ""}, "geometry": {"type": "Polygon", "coordinates": [[[44.77736602700003, 28.56111524100004], [46.97518384000006, 28.63019881100007], [46.93524168500005, 26.29134973400005], [44.81732668800004, 26.259381206000057], [44.77736602700003, 28.56111524100004]]]}}, {"type": "Feature", "properties": {"OBJECTID": 139, "PlaceNode": 139, "PlaceName": "", "PersonName": "", "Contact": "", "Email": "", "Details": "", "PlaceType": ""}, "geometry": {"type": "Polygon", "coordinates": [[[47.127052855000045, 26.315326130000074], [47.11904193200007, 28.630401428000027], [49.23694147200007, 28.633384385000056], [49.25295998400003, 26.299341866000077], [47.127052855000045, 26.315326130000074]]]}}, {"type": "Feature", "properties": {"OBJECTID": 140, "PlaceNode": 140, "PlaceName": "Lift3", "PersonName": "B,E", "Contact": "", "Email": "", "Details": "", "PlaceType": ""}, "geometry": {"type": "Polygon", "coordinates": [[[160.91211293900005, 28.202084077000052], [162.9544100720001, 28.120933198000046], [162.9544100720001, 25.551155349000055], [160.81743691300005, 25.53763020200006], [160.91211293900005, 28.202084077000052]]]}}, {"type": "Feature", "properties": {"OBJECTID": 141, "PlaceNode": 141, "PlaceName": "", "PersonName": "", "Contact": "", "Email": "", "Details": "", "PlaceType": ""}, "geometry": {"type": "Polygon", "coordinates": [[[80.26574626700005, 28.431136369000058], [82.04462281000008, 28.42092835300008], [82.03805047800006, 27.275615809000044], [80.28082675900004, 27.225636938000036], [80.26574626700005, 28.431136369000058]]]}}, {"type": "Feature", "properties": {"OBJECTID": 0, "PlaceNode": 142, "PlaceName": "Windsor St (Other)", "PersonName": "", "Contact": "", "Email": "", "Details": "", "PlaceType": ""}, "geometry": {"type": "Polygon", "coordinates": [[[122.53239254814275, 88.18297946759071], [122.43867939253175, 88.41726235661866], [122.96972060766188, 88.63592638637829], [123.4070486671809, 88.63592638637829], [124.25046706768194, 88.41726235661866], [124.65655740866384, 88.15174174905349], [124.31994279000003, 88.056233228], [123.26768982171131, 88.30830330034127], [122.53239254814275, 88.18297946759071]]]}}]}