{"type": "FeatureCollection", "features": [{"type": "Feature", "properties": {"OBJECTID": 1, "FID_C_Leve": 11, "SHAPE_Leng": 1.29923072258}, "geometry": {"type": "LineString", "coordinates": [[121.14509325000006, 15.097627704000047], [121.15657358500005, 13.798447704000068]]}}, {"type": "Feature", "properties": {"OBJECTID": 2, "FID_C_Leve": 12, "SHAPE_Leng": 3.74568977163}, "geometry": {"type": "LineString", "coordinates": [[121.14509325000006, 15.097627704000047], [117.39951391400007, 15.126390580000077]]}}, {"type": "Feature", "properties": {"OBJECTID": 3, "FID_C_Leve": 144, "SHAPE_Leng": 1.49884551184}, "geometry": {"type": "LineString", "coordinates": [[123.26154004000011, 15.331969017000063], [123.31251285600001, 13.833990499000038]]}}, {"type": "Feature", "properties": {"OBJECTID": 4, "FID_C_Leve": 13, "SHAPE_Leng": 1.33142195775}, "geometry": {"type": "LineString", "coordinates": [[123.26154004000011, 15.331969017000063], [124.59254219400009, 15.298537062000037]]}}, {"type": "Feature", "properties": {"OBJECTID": 5, "FID_C_Leve": 9, "SHAPE_Leng": 2.00649692729}, "geometry": {"type": "LineString", "coordinates": [[59.09647205200008, 15.356329361000064], [61.10287654700005, 15.337070034000021]]}}, {"type": "Feature", "properties": {"OBJECTID": 6, "FID_C_Leve": 111, "SHAPE_Leng": 0.770739800482}, "geometry": {"type": "LineString", "coordinates": [[57.03624965100005, 15.376105282000026], [57.00734892300005, 14.605907523000042]]}}, {"type": "Feature", "properties": {"OBJECTID": 7, "FID_C_Leve": 9, "SHAPE_Leng": 2.06031731261}, "geometry": {"type": "LineString", "coordinates": [[57.03624965100005, 15.376105282000026], [59.09647205200008, 15.356329361000064]]}}, {"type": "Feature", "properties": {"OBJECTID": 8, "FID_C_Leve": 11, "SHAPE_Leng": 0.287577027141}, "geometry": {"type": "LineString", "coordinates": [[121.14255214600007, 15.385193504000028], [121.14509325000006, 15.097627704000047]]}}, {"type": "Feature", "properties": {"OBJECTID": 9, "FID_C_Leve": 13, "SHAPE_Leng": 2.11965623178}, "geometry": {"type": "LineString", "coordinates": [[121.14255214600007, 15.385193504000028], [123.26154004000011, 15.331969017000063]]}}, {"type": "Feature", "properties": {"OBJECTID": 10, "FID_C_Leve": 110, "SHAPE_Leng": 0.782915842395}, "geometry": {"type": "LineString", "coordinates": [[54.947292452000056, 15.396157026000026], [54.94710941800008, 14.613241205000065]]}}, {"type": "Feature", "properties": {"OBJECTID": 11, "FID_C_Leve": 9, "SHAPE_Leng": 2.08905343438}, "geometry": {"type": "LineString", "coordinates": [[54.947292452000056, 15.396157026000026], [57.03624965100005, 15.376105282000026]]}}, {"type": "Feature", "properties": {"OBJECTID": 12, "FID_C_Leve": 114, "SHAPE_Leng": 1.24843589367}, "geometry": {"type": "LineString", "coordinates": [[50.014490961000035, 15.419732040000042], [49.31811748400003, 15.417126680000024], [49.31740797100008, 14.865069593000044]]}}, {"type": "Feature", "properties": {"OBJECTID": 13, "FID_C_Leve": 114, "SHAPE_Leng": 1.78218108793}, "geometry": {"type": "LineString", "coordinates": [[51.79665957600008, 15.42639971500006], [50.014490961000035, 15.419732040000042]]}}, {"type": "Feature", "properties": {"OBJECTID": 14, "FID_C_Leve": 9, "SHAPE_Leng": 3.15077802131}, "geometry": {"type": "LineString", "coordinates": [[51.79665957600008, 15.42639971500006], [54.947292452000056, 15.396157026000026]]}}, {"type": "Feature", "properties": {"OBJECTID": 15, "FID_C_Leve": 115, "SHAPE_Leng": 0.501578729024}, "geometry": {"type": "LineString", "coordinates": [[50.014490961000035, 15.419732040000042], [50.04365146500004, 15.920462393000037]]}}, {"type": "Feature", "properties": {"OBJECTID": 16, "FID_C_Leve": 9, "SHAPE_Leng": 1.59260276494}, "geometry": {"type": "LineString", "coordinates": [[51.79986011200003, 17.01899926400006], [51.79665957600008, 15.42639971500006]]}}, {"type": "Feature", "properties": {"OBJECTID": 17, "FID_C_Leve": 160, "SHAPE_Leng": 0.555397081003}, "geometry": {"type": "LineString", "coordinates": [[51.79986011200003, 17.01899926400006], [52.35525719300006, 17.018997527000067]]}}, {"type": "Feature", "properties": {"OBJECTID": 18, "FID_C_Leve": 141, "SHAPE_Leng": 4.05084223859}, "geometry": {"type": "LineString", "coordinates": [[16.78256956200005, 17.055927089000022], [12.733591189000038, 16.933057333000022]]}}, {"type": "Feature", "properties": {"OBJECTID": 19, "FID_C_Leve": 139, "SHAPE_Leng": 7.93015008808}, "geometry": {"type": "LineString", "coordinates": [[16.78256956200005, 17.055927089000022], [16.810389153000074, 13.57847822900004], [21.260806526000067, 13.439400976000059]]}}, {"type": "Feature", "properties": {"OBJECTID": 20, "FID_C_Leve": 138, "SHAPE_Leng": 4.50814732062}, "geometry": {"type": "LineString", "coordinates": [[16.78256956200005, 17.055927089000022], [21.28934328500003, 16.944648726000025]]}}, {"type": "Feature", "properties": {"OBJECTID": 21, "FID_C_Leve": 11, "SHAPE_Leng": 2.52869744253}, "geometry": {"type": "LineString", "coordinates": [[121.12020792900012, 17.913792225000066], [121.14255214600007, 15.385193504000028]]}}, {"type": "Feature", "properties": {"OBJECTID": 22, "FID_C_Leve": 9, "SHAPE_Leng": 0.980573953074}, "geometry": {"type": "LineString", "coordinates": [[51.80183069900005, 17.999571237000055], [51.79986011200003, 17.01899926400006]]}}, {"type": "Feature", "properties": {"OBJECTID": 23, "FID_C_Leve": 112, "SHAPE_Leng": 2.67214602172}, "geometry": {"type": "LineString", "coordinates": [[59.09647205200008, 15.356329361000064], [59.07476485700005, 18.02838721200004]]}}, {"type": "Feature", "properties": {"OBJECTID": 24, "FID_C_Leve": 109, "SHAPE_Leng": 1.00585873078}, "geometry": {"type": "LineString", "coordinates": [[51.80183069900005, 17.999571237000055], [50.796389573000056, 18.028552756000067]]}}, {"type": "Feature", "properties": {"OBJECTID": 25, "FID_C_Leve": 113, "SHAPE_Leng": 2.11088342138}, "geometry": {"type": "LineString", "coordinates": [[59.07476485700005, 18.02838721200004], [61.18564827100005, 18.02856377200004]]}}, {"type": "Feature", "properties": {"OBJECTID": 26, "FID_C_Leve": 14, "SHAPE_Leng": 3.68391797559}, "geometry": {"type": "LineString", "coordinates": [[121.12020792900012, 17.913792225000066], [117.43808305700009, 18.028718627000046]]}}, {"type": "Feature", "properties": {"OBJECTID": 27, "FID_C_Leve": 120, "SHAPE_Leng": 4.15119094993}, "geometry": {"type": "LineString", "coordinates": [[70.92199488200004, 18.701395126000023], [70.92196204000004, 16.08359806800007], [69.38881995500003, 16.111386094000068]]}}, {"type": "Feature", "properties": {"OBJECTID": 28, "FID_C_Leve": 112, "SHAPE_Leng": 0.88636707076}, "geometry": {"type": "LineString", "coordinates": [[59.07476485700005, 18.02838721200004], [59.06756444900003, 18.91472503600005]]}}, {"type": "Feature", "properties": {"OBJECTID": 29, "FID_C_Leve": 11, "SHAPE_Leng": 2.06985280303}, "geometry": {"type": "LineString", "coordinates": [[121.1019181800001, 19.983564220000062], [121.12020792900012, 17.913792225000066]]}}, {"type": "Feature", "properties": {"OBJECTID": 30, "FID_C_Leve": 145, "SHAPE_Leng": 3.46477707532}, "geometry": {"type": "LineString", "coordinates": [[121.1019181800001, 19.983564220000062], [124.56582710900011, 19.906007059000046]]}}, {"type": "Feature", "properties": {"OBJECTID": 31, "FID_C_Leve": 156, "SHAPE_Leng": 1.33189986864}, "geometry": {"type": "LineString", "coordinates": [[70.89892289000005, 20.03309514600005], [70.92199488200004, 18.701395126000023]]}}, {"type": "Feature", "properties": {"OBJECTID": 32, "FID_C_Leve": 117, "SHAPE_Leng": 1.64568643298}, "geometry": {"type": "LineString", "coordinates": [[70.89892289000005, 20.03309514600005], [72.54437879700004, 20.005550749000065]]}}, {"type": "Feature", "properties": {"OBJECTID": 33, "FID_C_Leve": 118, "SHAPE_Leng": 1.6095591103}, "geometry": {"type": "LineString", "coordinates": [[72.54437879700004, 20.005550749000065], [74.15369532500006, 20.033494304000044]]}}, {"type": "Feature", "properties": {"OBJECTID": 34, "FID_C_Leve": 119, "SHAPE_Leng": 11.3921446068}, "geometry": {"type": "LineString", "coordinates": [[74.15369532500006, 20.033494304000044], [81.39056815000004, 20.061115956000037], [81.50132952100006, 15.907373375000077]]}}, {"type": "Feature", "properties": {"OBJECTID": 35, "FID_C_Leve": 15, "SHAPE_Leng": 3.61175632313}, "geometry": {"type": "LineString", "coordinates": [[121.09100878700008, 21.218133112000032], [117.47970637900005, 21.160873566000078]]}}, {"type": "Feature", "properties": {"OBJECTID": 36, "FID_C_Leve": 11, "SHAPE_Leng": 1.23461709204}, "geometry": {"type": "LineString", "coordinates": [[121.09100878700008, 21.218133112000032], [121.1019181800001, 19.983564220000062]]}}, {"type": "Feature", "properties": {"OBJECTID": 37, "FID_C_Leve": 156, "SHAPE_Leng": 1.45142903173}, "geometry": {"type": "LineString", "coordinates": [[70.87378034000005, 21.484306394000043], [70.89892289000005, 20.03309514600005]]}}, {"type": "Feature", "properties": {"OBJECTID": 38, "FID_C_Leve": 118, "SHAPE_Leng": 1.5283292828}, "geometry": {"type": "LineString", "coordinates": [[74.15369532500006, 20.033494304000044], [74.12622000300007, 21.561576600000024]]}}, {"type": "Feature", "properties": {"OBJECTID": 39, "FID_C_Leve": 138, "SHAPE_Leng": 5.40882807432}, "geometry": {"type": "LineString", "coordinates": [[16.81051420800003, 22.464682975000073], [16.78256956200005, 17.055927089000022]]}}, {"type": "Feature", "properties": {"OBJECTID": 40, "FID_C_Leve": 9, "SHAPE_Leng": 4.6135295471}, "geometry": {"type": "LineString", "coordinates": [[51.81110216900004, 22.61309146800005], [51.80183069900005, 17.999571237000055]]}}, {"type": "Feature", "properties": {"OBJECTID": 41, "FID_C_Leve": 108, "SHAPE_Leng": 1.05592250387}, "geometry": {"type": "LineString", "coordinates": [[51.81110216900004, 22.61309146800005], [52.86662289600008, 22.583965379000063]]}}, {"type": "Feature", "properties": {"OBJECTID": 42, "FID_C_Leve": 11, "SHAPE_Leng": 2.70109132088}, "geometry": {"type": "LineString", "coordinates": [[121.06714125300005, 23.919118981000054], [121.09100878700008, 21.218133112000032]]}}, {"type": "Feature", "properties": {"OBJECTID": 43, "FID_C_Leve": 16, "SHAPE_Leng": 3.52307033967}, "geometry": {"type": "LineString", "coordinates": [[121.06714125300005, 23.919118981000054], [124.59021158600001, 23.918902137000032]]}}, {"type": "Feature", "properties": {"OBJECTID": 44, "FID_C_Leve": 146, "SHAPE_Leng": 0.514746488669}, "geometry": {"type": "LineString", "coordinates": [[124.59021158600001, 23.918902137000032], [125.104545658, 23.939503350000052]]}}, {"type": "Feature", "properties": {"OBJECTID": 45, "FID_C_Leve": 146, "SHAPE_Leng": 2.25363708781}, "geometry": {"type": "LineString", "coordinates": [[125.104545658, 23.939503350000052], [127.35637712400012, 24.029698540000027]]}}, {"type": "Feature", "properties": {"OBJECTID": 46, "FID_C_Leve": 116, "SHAPE_Leng": 3.85704160475}, "geometry": {"type": "LineString", "coordinates": [[71.37413362300003, 24.843092128000023], [71.36390847200005, 23.51382245700006], [70.83909708400006, 23.486200805000067], [70.87378034000005, 21.484306394000043]]}}, {"type": "Feature", "properties": {"OBJECTID": 47, "FID_C_Leve": 157, "SHAPE_Leng": 1.46754812393}, "geometry": {"type": "LineString", "coordinates": [[125.104545658, 23.939503350000052], [125.07956108300004, 25.406838781000033]]}}, {"type": "Feature", "properties": {"OBJECTID": 48, "FID_C_Leve": 9, "SHAPE_Leng": 5.14696478827}, "geometry": {"type": "LineString", "coordinates": [[51.82144564500004, 27.760045863000073], [51.81110216900004, 22.61309146800005]]}}, {"type": "Feature", "properties": {"OBJECTID": 49, "FID_C_Leve": 124, "SHAPE_Leng": 2.57892018363}, "geometry": {"type": "LineString", "coordinates": [[51.82144564500004, 27.760045863000073], [49.24271858600008, 27.79160641900006]]}}, {"type": "Feature", "properties": {"OBJECTID": 50, "FID_C_Leve": 155, "SHAPE_Leng": 4.35782504537}, "geometry": {"type": "LineString", "coordinates": [[70.67385016700007, 28.45477317700005], [70.64574552000005, 27.10463721800005], [71.39153012400004, 27.10463721800005], [71.37413362300003, 24.843092128000023]]}}, {"type": "Feature", "properties": {"OBJECTID": 51, "FID_C_Leve": 123, "SHAPE_Leng": 3.97431097566}, "geometry": {"type": "LineString", "coordinates": [[61.41777601200005, 29.083647464000023], [61.37367620800006, 27.793552989000034], [61.81501805700003, 27.793552989000034], [61.795852195000066, 25.551513775000046]]}}, {"type": "Feature", "properties": {"OBJECTID": 52, "FID_C_Leve": 140, "SHAPE_Leng": 1.56599797833}, "geometry": {"type": "LineString", "coordinates": [[9.517846519000045, 29.22088728800003], [9.473668777000057, 27.655512574000056]]}}, {"type": "Feature", "properties": {"OBJECTID": 53, "FID_C_Leve": 142, "SHAPE_Leng": 4.02854733483}, "geometry": {"type": "LineString", "coordinates": [[9.517846519000045, 29.22088728800003], [13.546239167000067, 29.18558427800008]]}}, {"type": "Feature", "properties": {"OBJECTID": 54, "FID_C_Leve": 143, "SHAPE_Leng": 1.41460016626}, "geometry": {"type": "LineString", "coordinates": [[9.525928522000072, 29.507261431000074], [8.111764307000044, 29.472144435000075]]}}, {"type": "Feature", "properties": {"OBJECTID": 55, "FID_C_Leve": 140, "SHAPE_Leng": 0.286488164767}, "geometry": {"type": "LineString", "coordinates": [[9.525928522000072, 29.507261431000074], [9.517846519000045, 29.22088728800003]]}}, {"type": "Feature", "properties": {"OBJECTID": 56, "FID_C_Leve": 1, "SHAPE_Leng": 0.102592713005}, "geometry": {"type": "LineString", "coordinates": [[121.66961157300011, 29.95698150800007], [121.77220428600003, 29.95698249000003]]}}, {"type": "Feature", "properties": {"OBJECTID": 57, "FID_C_Leve": 1, "SHAPE_Leng": 13.2042108976}, "geometry": {"type": "LineString", "coordinates": [[121.77220428600003, 29.95698249000003], [134.97641518300009, 29.957108817000062]]}}, {"type": "Feature", "properties": {"OBJECTID": 58, "FID_C_Leve": 1, "SHAPE_Leng": 2.05397756309}, "geometry": {"type": "LineString", "coordinates": [[134.97641518300009, 29.957108817000062], [137.03039274600008, 29.957128468000064]]}}, {"type": "Feature", "properties": {"OBJECTID": 59, "FID_C_Leve": 1, "SHAPE_Leng": 8.8084057774}, "geometry": {"type": "LineString", "coordinates": [[137.03039274600008, 29.957128468000064], [145.83879852300004, 29.957212739000056]]}}, {"type": "Feature", "properties": {"OBJECTID": 60, "FID_C_Leve": 1, "SHAPE_Leng": 3.23896483715}, "geometry": {"type": "LineString", "coordinates": [[145.83879852300004, 29.957212739000056], [149.07776336000006, 29.957243727000048]]}}, {"type": "Feature", "properties": {"OBJECTID": 61, "FID_C_Leve": 1, "SHAPE_Leng": 8.88740492941}, "geometry": {"type": "LineString", "coordinates": [[149.07776336000006, 29.957243727000048], [157.96516828900008, 29.95732875300007]]}}, {"type": "Feature", "properties": {"OBJECTID": 62, "FID_C_Leve": 1, "SHAPE_Leng": 3.92059442618}, "geometry": {"type": "LineString", "coordinates": [[157.96516828900008, 29.95732875300007], [161.88576271500006, 29.95736626200005]]}}, {"type": "Feature", "properties": {"OBJECTID": 63, "FID_C_Leve": 3, "SHAPE_Leng": 1.79688026399}, "geometry": {"type": "LineString", "coordinates": [[161.88576271500006, 29.95736626200005], [161.93908356400004, 28.161277297000026]]}}, {"type": "Feature", "properties": {"OBJECTID": 64, "FID_C_Leve": 1, "SHAPE_Leng": 0.397781276018}, "geometry": {"type": "LineString", "coordinates": [[161.88576271500006, 29.95736626200005], [162.2835439910001, 29.957370068000046]]}}, {"type": "Feature", "properties": {"OBJECTID": 65, "FID_C_Leve": 1, "SHAPE_Leng": 1.72505939308}, "geometry": {"type": "LineString", "coordinates": [[162.2835439910001, 29.957370068000046], [164.00860338400003, 29.957386572000075]]}}, {"type": "Feature", "properties": {"OBJECTID": 66, "FID_C_Leve": 1, "SHAPE_Leng": 0.44196488902}, "geometry": {"type": "LineString", "coordinates": [[164.00860338400003, 29.957386572000075], [164.45056827300004, 29.95739080000004]]}}, {"type": "Feature", "properties": {"OBJECTID": 67, "FID_C_Leve": 2, "SHAPE_Leng": 1.60360428886}, "geometry": {"type": "LineString", "coordinates": [[164.45056827300004, 29.95739080000004], [164.50142520600002, 28.354593156000078]]}}, {"type": "Feature", "properties": {"OBJECTID": 68, "FID_C_Leve": 1, "SHAPE_Leng": 1.01951903705}, "geometry": {"type": "LineString", "coordinates": [[164.45056827300004, 29.95739080000004], [165.47008731000005, 29.95740055400006]]}}, {"type": "Feature", "properties": {"OBJECTID": 69, "FID_C_Leve": 1, "SHAPE_Leng": 1.20564690606}, "geometry": {"type": "LineString", "coordinates": [[165.47008731000005, 29.95740055400006], [166.67573421600002, 29.95741208800007]]}}, {"type": "Feature", "properties": {"OBJECTID": 70, "FID_C_Leve": 11, "SHAPE_Leng": 6.04156108938}, "geometry": {"type": "LineString", "coordinates": [[121.01375647400005, 29.960444205000044], [121.06714125300005, 23.919118981000054]]}}, {"type": "Feature", "properties": {"OBJECTID": 71, "FID_C_Leve": 6, "SHAPE_Leng": 0.655864239881}, "geometry": {"type": "LineString", "coordinates": [[121.66961157300011, 29.95698150800007], [121.01375647400005, 29.960444205000044]]}}, {"type": "Feature", "properties": {"OBJECTID": 72, "FID_C_Leve": 6, "SHAPE_Leng": 1.9824276684}, "geometry": {"type": "LineString", "coordinates": [[121.01375647400005, 29.960444205000044], [119.03135643500002, 29.97091061900005]]}}, {"type": "Feature", "properties": {"OBJECTID": 73, "FID_C_Leve": 17, "SHAPE_Leng": 1.55800198037}, "geometry": {"type": "LineString", "coordinates": [[115.78441710800007, 29.988053381000043], [115.78438333600002, 28.43005140100007]]}}, {"type": "Feature", "properties": {"OBJECTID": 74, "FID_C_Leve": 6, "SHAPE_Leng": 3.24698458073}, "geometry": {"type": "LineString", "coordinates": [[119.03135643500002, 29.97091061900005], [115.78441710800007, 29.988053381000043]]}}, {"type": "Feature", "properties": {"OBJECTID": 75, "FID_C_Leve": 6, "SHAPE_Leng": 5.80422463738}, "geometry": {"type": "LineString", "coordinates": [[115.78441710800007, 29.988053381000043], [109.98027336500007, 30.018697332000045]]}}, {"type": "Feature", "properties": {"OBJECTID": 76, "FID_C_Leve": 20, "SHAPE_Leng": 1.65045994366}, "geometry": {"type": "LineString", "coordinates": [[109.20449225000004, 30.022793199000034], [109.17569333200004, 28.37258453100003]]}}, {"type": "Feature", "properties": {"OBJECTID": 77, "FID_C_Leve": 6, "SHAPE_Leng": 0.775791927334}, "geometry": {"type": "LineString", "coordinates": [[109.98027336500007, 30.018697332000045], [109.20449225000004, 30.022793199000034]]}}, {"type": "Feature", "properties": {"OBJECTID": 78, "FID_C_Leve": 6, "SHAPE_Leng": 2.29879444865}, "geometry": {"type": "LineString", "coordinates": [[109.20449225000004, 30.022793199000034], [106.90572984000005, 30.034929901000055]]}}, {"type": "Feature", "properties": {"OBJECTID": 79, "FID_C_Leve": 93, "SHAPE_Leng": 1.64858231932}, "geometry": {"type": "LineString", "coordinates": [[100.79606348500005, 30.06718691100008], [100.75932038700006, 28.419014102000062]]}}, {"type": "Feature", "properties": {"OBJECTID": 80, "FID_C_Leve": 6, "SHAPE_Leng": 6.10975150756}, "geometry": {"type": "LineString", "coordinates": [[106.90572984000005, 30.034929901000055], [100.79606348500005, 30.06718691100008]]}}, {"type": "Feature", "properties": {"OBJECTID": 81, "FID_C_Leve": 127, "SHAPE_Leng": 4.31966764596}, "geometry": {"type": "LineString", "coordinates": [[44.40220849800005, 30.067753570000036], [40.08264557800004, 30.09783266100004]]}}, {"type": "Feature", "properties": {"OBJECTID": 82, "FID_C_Leve": 125, "SHAPE_Leng": 1.04596938283}, "geometry": {"type": "LineString", "coordinates": [[45.447076184000025, 30.115748034000035], [44.40220849800005, 30.067753570000036]]}}, {"type": "Feature", "properties": {"OBJECTID": 83, "FID_C_Leve": 126, "SHAPE_Leng": 1.53305761795}, "geometry": {"type": "LineString", "coordinates": [[45.447076184000025, 30.115748034000035], [45.46853441500008, 28.582840599000065]]}}, {"type": "Feature", "properties": {"OBJECTID": 84, "FID_C_Leve": 95, "SHAPE_Leng": 1.67626916081}, "geometry": {"type": "LineString", "coordinates": [[88.95170113600005, 30.12972121100006], [88.96542624700004, 28.453508241000065]]}}, {"type": "Feature", "properties": {"OBJECTID": 85, "FID_C_Leve": 6, "SHAPE_Leng": 11.844527428}, "geometry": {"type": "LineString", "coordinates": [[100.79606348500005, 30.06718691100008], [88.95170113600005, 30.12972121100006]]}}, {"type": "Feature", "properties": {"OBJECTID": 86, "FID_C_Leve": 6, "SHAPE_Leng": 0.131692184413}, "geometry": {"type": "LineString", "coordinates": [[88.95170113600005, 30.12972121100006], [88.82001078700006, 30.13041649200005]]}}, {"type": "Feature", "properties": {"OBJECTID": 87, "FID_C_Leve": 6, "SHAPE_Leng": 2.94172142423}, "geometry": {"type": "LineString", "coordinates": [[88.82001078700006, 30.13041649200005], [85.87833036200004, 30.14594758800007]]}}, {"type": "Feature", "properties": {"OBJECTID": 88, "FID_C_Leve": 100, "SHAPE_Leng": 1.76834152393}, "geometry": {"type": "LineString", "coordinates": [[83.23779771200003, 30.15988872400004], [83.26690800900008, 28.39178682200003]]}}, {"type": "Feature", "properties": {"OBJECTID": 89, "FID_C_Leve": 6, "SHAPE_Leng": 2.64056945203}, "geometry": {"type": "LineString", "coordinates": [[85.87833036200004, 30.14594758800007], [83.23779771200003, 30.15988872400004]]}}, {"type": "Feature", "properties": {"OBJECTID": 90, "FID_C_Leve": 97, "SHAPE_Leng": 1.73080058802}, "geometry": {"type": "LineString", "coordinates": [[80.85855468200003, 30.172450337000043], [80.80054614000005, 28.442622113000027]]}}, {"type": "Feature", "properties": {"OBJECTID": 91, "FID_C_Leve": 6, "SHAPE_Leng": 2.37927619034}, "geometry": {"type": "LineString", "coordinates": [[83.23779771200003, 30.15988872400004], [80.85855468200003, 30.172450337000043]]}}, {"type": "Feature", "properties": {"OBJECTID": 92, "FID_C_Leve": 6, "SHAPE_Leng": 1.65388710748}, "geometry": {"type": "LineString", "coordinates": [[80.85855468200003, 30.172450337000043], [79.20469062500007, 30.181182190000072]]}}, {"type": "Feature", "properties": {"OBJECTID": 93, "FID_C_Leve": 99, "SHAPE_Leng": 1.73490425937}, "geometry": {"type": "LineString", "coordinates": [[78.62438744700006, 30.18424599800005], [78.53722150600004, 28.451532840000027]]}}, {"type": "Feature", "properties": {"OBJECTID": 94, "FID_C_Leve": 6, "SHAPE_Leng": 0.580311265888}, "geometry": {"type": "LineString", "coordinates": [[79.20469062500007, 30.181182190000072], [78.62438744700006, 30.18424599800005]]}}, {"type": "Feature", "properties": {"OBJECTID": 95, "FID_C_Leve": 101, "SHAPE_Leng": 1.77184143938}, "geometry": {"type": "LineString", "coordinates": [[70.64475917800007, 30.226375785000073], [70.67385016700007, 28.45477317700005]]}}, {"type": "Feature", "properties": {"OBJECTID": 96, "FID_C_Leve": 6, "SHAPE_Leng": 7.97973948387}, "geometry": {"type": "LineString", "coordinates": [[78.62438744700006, 30.18424599800005], [70.64475917800007, 30.226375785000073]]}}, {"type": "Feature", "properties": {"OBJECTID": 97, "FID_C_Leve": 103, "SHAPE_Leng": 1.19870580095}, "geometry": {"type": "LineString", "coordinates": [[65.53809121200004, 30.25333729600004], [65.53804342500007, 29.05463149600007]]}}, {"type": "Feature", "properties": {"OBJECTID": 98, "FID_C_Leve": 6, "SHAPE_Leng": 5.10673913942}, "geometry": {"type": "LineString", "coordinates": [[70.64475917800007, 30.226375785000073], [65.53809121200004, 30.25333729600004]]}}, {"type": "Feature", "properties": {"OBJECTID": 99, "FID_C_Leve": 6, "SHAPE_Leng": 2.72761614221}, "geometry": {"type": "LineString", "coordinates": [[65.53809121200004, 30.25333729600004], [62.81051308500008, 30.267738003000034]]}}, {"type": "Feature", "properties": {"OBJECTID": 100, "FID_C_Leve": 104, "SHAPE_Leng": 1.19255049134}, "geometry": {"type": "LineString", "coordinates": [[61.47581577500006, 30.274784761000035], [61.41777601200005, 29.083647464000023]]}}, {"type": "Feature", "properties": {"OBJECTID": 101, "FID_C_Leve": 6, "SHAPE_Leng": 1.33471591214}, "geometry": {"type": "LineString", "coordinates": [[62.81051308500008, 30.267738003000034], [61.47581577500006, 30.274784761000035]]}}, {"type": "Feature", "properties": {"OBJECTID": 102, "FID_C_Leve": 105, "SHAPE_Leng": 0.742672199055}, "geometry": {"type": "LineString", "coordinates": [[59.35755598500003, 30.285968469000068], [59.35762334900005, 29.543296273000067]]}}, {"type": "Feature", "properties": {"OBJECTID": 103, "FID_C_Leve": 6, "SHAPE_Leng": 2.11828931293}, "geometry": {"type": "LineString", "coordinates": [[61.47581577500006, 30.274784761000035], [59.35755598500003, 30.285968469000068]]}}, {"type": "Feature", "properties": {"OBJECTID": 104, "FID_C_Leve": 106, "SHAPE_Leng": 0.747031311591}, "geometry": {"type": "LineString", "coordinates": [[55.61444729700003, 30.305730840000024], [55.61462690400003, 29.55869955000003]]}}, {"type": "Feature", "properties": {"OBJECTID": 105, "FID_C_Leve": 6, "SHAPE_Leng": 3.74316085701}, "geometry": {"type": "LineString", "coordinates": [[59.35755598500003, 30.285968469000068], [55.61444729700003, 30.305730840000024]]}}, {"type": "Feature", "properties": {"OBJECTID": 106, "FID_C_Leve": 6, "SHAPE_Leng": 3.56876109238}, "geometry": {"type": "LineString", "coordinates": [[55.61444729700003, 30.305730840000024], [52.04573594300007, 30.32457245100005]]}}, {"type": "Feature", "properties": {"OBJECTID": 107, "FID_C_Leve": 9, "SHAPE_Leng": 2.5656887249}, "geometry": {"type": "LineString", "coordinates": [[51.82660172000004, 30.32572940700004], [51.82144564500004, 27.760045863000073]]}}, {"type": "Feature", "properties": {"OBJECTID": 108, "FID_C_Leve": 6, "SHAPE_Leng": 0.219137277151}, "geometry": {"type": "LineString", "coordinates": [[52.04573594300007, 30.32457245100005], [51.82660172000004, 30.32572940700004]]}}, {"type": "Feature", "properties": {"OBJECTID": 109, "FID_C_Leve": 125, "SHAPE_Leng": 4.76283577352}, "geometry": {"type": "LineString", "coordinates": [[50.20489536600007, 30.33429147800007], [45.447076184000025, 30.115748034000035]]}}, {"type": "Feature", "properties": {"OBJECTID": 110, "FID_C_Leve": 6, "SHAPE_Leng": 1.62172895629}, "geometry": {"type": "LineString", "coordinates": [[51.82660172000004, 30.32572940700004], [50.20489536600007, 30.33429147800007]]}}, {"type": "Feature", "properties": {"OBJECTID": 111, "FID_C_Leve": 137, "SHAPE_Leng": 14.327561837}, "geometry": {"type": "LineString", "coordinates": [[22.65249188200005, 30.864426270000024], [22.735962011000026, 26.29203126300007], [16.893847925000046, 26.37549003500004], [16.81051420800003, 22.464682975000073]]}}, {"type": "Feature", "properties": {"OBJECTID": 112, "FID_C_Leve": 107, "SHAPE_Leng": 0.826800636877}, "geometry": {"type": "LineString", "coordinates": [[52.04573594300007, 30.32457245100005], [52.132686498000055, 31.14678829500008]]}}, {"type": "Feature", "properties": {"OBJECTID": 113, "FID_C_Leve": 102, "SHAPE_Leng": 0.93992068891}, "geometry": {"type": "LineString", "coordinates": [[62.81051308500008, 30.267738003000034], [62.81091024700004, 31.20765860800003]]}}, {"type": "Feature", "properties": {"OBJECTID": 114, "FID_C_Leve": 128, "SHAPE_Leng": 13.8303963537}, "geometry": {"type": "LineString", "coordinates": [[40.08264557800004, 30.09783266100004], [28.17243445300005, 29.987513716000024], [28.14497952200003, 30.72879683000008], [27.45860626900003, 30.72879683000008], [27.485938357000066, 31.219545999000047]]}}, {"type": "Feature", "properties": {"OBJECTID": 115, "FID_C_Leve": 140, "SHAPE_Leng": 1.82084047215}, "geometry": {"type": "LineString", "coordinates": [[9.577295523000032, 31.327377212000044], [9.525928522000072, 29.507261431000074]]}}, {"type": "Feature", "properties": {"OBJECTID": 116, "FID_C_Leve": 34, "SHAPE_Leng": 1.51910984316}, "geometry": {"type": "LineString", "coordinates": [[165.47008731000005, 29.95740055400006], [165.47016838500008, 31.476510395000048]]}}, {"type": "Feature", "properties": {"OBJECTID": 117, "FID_C_Leve": 30, "SHAPE_Leng": 1.53007524524}, "geometry": {"type": "LineString", "coordinates": [[145.83879852300004, 29.957212739000056], [145.8781308330001, 31.486782360000063]]}}, {"type": "Feature", "properties": {"OBJECTID": 118, "FID_C_Leve": 19, "SHAPE_Leng": 1.46821406003}, "geometry": {"type": "LineString", "coordinates": [[106.90572984000005, 30.034929901000055], [106.90573909400007, 31.503143961000035]]}}, {"type": "Feature", "properties": {"OBJECTID": 119, "FID_C_Leve": 18, "SHAPE_Leng": 1.48507912846}, "geometry": {"type": "LineString", "coordinates": [[109.98027336500007, 30.018697332000045], [110.00871443300008, 31.50350409500004]]}}, {"type": "Feature", "properties": {"OBJECTID": 120, "FID_C_Leve": 33, "SHAPE_Leng": 1.54913086161}, "geometry": {"type": "LineString", "coordinates": [[164.00860338400003, 29.957386572000075], [164.008966707, 31.506517391000045]]}}, {"type": "Feature", "properties": {"OBJECTID": 121, "FID_C_Leve": 21, "SHAPE_Leng": 1.59108517783}, "geometry": {"type": "LineString", "coordinates": [[119.03135643500002, 29.97091061900005], [119.03126146900001, 31.56199579400004]]}}, {"type": "Feature", "properties": {"OBJECTID": 122, "FID_C_Leve": 31, "SHAPE_Leng": 1.63047919058}, "geometry": {"type": "LineString", "coordinates": [[149.07776336000006, 29.957243727000048], [149.03824905500005, 31.587244037000062]]}}, {"type": "Feature", "properties": {"OBJECTID": 123, "FID_C_Leve": 98, "SHAPE_Leng": 1.40977047307}, "geometry": {"type": "LineString", "coordinates": [[79.20469062500007, 30.181182190000072], [79.26254420900005, 31.589765077000038]]}}, {"type": "Feature", "properties": {"OBJECTID": 124, "FID_C_Leve": 32, "SHAPE_Leng": 1.64052272532}, "geometry": {"type": "LineString", "coordinates": [[157.96516828900008, 29.95732875300007], [157.9256420580001, 31.597375243000045]]}}, {"type": "Feature", "properties": {"OBJECTID": 125, "FID_C_Leve": 96, "SHAPE_Leng": 1.47621778201}, "geometry": {"type": "LineString", "coordinates": [[85.87833036200004, 30.14594758800007], [85.90718581600004, 31.621883326000045]]}}, {"type": "Feature", "properties": {"OBJECTID": 126, "FID_C_Leve": 94, "SHAPE_Leng": 1.50766752046}, "geometry": {"type": "LineString", "coordinates": [[88.82001078700006, 30.13041649200005], [88.89300606200004, 31.63631590500006]]}}, {"type": "Feature", "properties": {"OBJECTID": 127, "FID_C_Leve": 29, "SHAPE_Leng": 1.70418630887}, "geometry": {"type": "LineString", "coordinates": [[137.03039274600008, 29.957128468000064], [136.991041246, 31.660860382000067]]}}, {"type": "Feature", "properties": {"OBJECTID": 128, "FID_C_Leve": 28, "SHAPE_Leng": 1.72962086968}, "geometry": {"type": "LineString", "coordinates": [[134.97641518300009, 29.957108817000062], [135.01600210200002, 31.686276602000078]]}}, {"type": "Feature", "properties": {"OBJECTID": 129, "FID_C_Leve": 133, "SHAPE_Leng": 0.983714570728}, "geometry": {"type": "LineString", "coordinates": [[22.652301313000066, 32.62114371100006], [21.668688099000065, 32.60702273700008]]}}, {"type": "Feature", "properties": {"OBJECTID": 130, "FID_C_Leve": 134, "SHAPE_Leng": 1.75671745134}, "geometry": {"type": "LineString", "coordinates": [[22.652301313000066, 32.62114371100006], [22.65249188200005, 30.864426270000024]]}}, {"type": "Feature", "properties": {"OBJECTID": 131, "FID_C_Leve": 133, "SHAPE_Leng": 4.83420505983}, "geometry": {"type": "LineString", "coordinates": [[27.486008282000057, 32.69053750300003], [22.652301313000066, 32.62114371100006]]}}, {"type": "Feature", "properties": {"OBJECTID": 132, "FID_C_Leve": 129, "SHAPE_Leng": 1.47099150566}, "geometry": {"type": "LineString", "coordinates": [[27.485938357000066, 31.219545999000047], [27.486008282000057, 32.69053750300003]]}}, {"type": "Feature", "properties": {"OBJECTID": 133, "FID_C_Leve": 147, "SHAPE_Leng": 3.80606093851}, "geometry": {"type": "LineString", "coordinates": [[100.18123669800008, 32.872490568000046], [96.37520746400008, 32.85695552400006]]}}, {"type": "Feature", "properties": {"OBJECTID": 134, "FID_C_Leve": 147, "SHAPE_Leng": 6.72456079363}, "geometry": {"type": "LineString", "coordinates": [[106.90574147600006, 32.89993793300005], [100.18123669800008, 32.872490568000046]]}}, {"type": "Feature", "properties": {"OBJECTID": 135, "FID_C_Leve": 24, "SHAPE_Leng": 1.396793972}, "geometry": {"type": "LineString", "coordinates": [[106.90573909400007, 31.503143961000035], [106.90574147600006, 32.89993793300005]]}}, {"type": "Feature", "properties": {"OBJECTID": 136, "FID_C_Leve": 4, "SHAPE_Leng": 3.41523827179}, "geometry": {"type": "LineString", "coordinates": [[121.77220428600003, 29.95698249000003], [121.76117482400002, 33.372202952000066]]}}, {"type": "Feature", "properties": {"OBJECTID": 137, "FID_C_Leve": 22, "SHAPE_Leng": 1.26533968308}, "geometry": {"type": "LineString", "coordinates": [[121.76117482400002, 33.372202952000066], [123.0252089060001, 33.42966905600008]]}}, {"type": "Feature", "properties": {"OBJECTID": 138, "FID_C_Leve": 121, "SHAPE_Leng": 2.02001214391}, "geometry": {"type": "LineString", "coordinates": [[88.89300606200004, 31.63631590500006], [88.88787612000004, 33.656321535000075]]}}, {"type": "Feature", "properties": {"OBJECTID": 139, "FID_C_Leve": 122, "SHAPE_Leng": 1.2900343954}, "geometry": {"type": "LineString", "coordinates": [[88.88787612000004, 33.656321535000075], [90.17791051400008, 33.65626151200007]]}}, {"type": "Feature", "properties": {"OBJECTID": 140, "FID_C_Leve": 129, "SHAPE_Leng": 1.11321150426}, "geometry": {"type": "LineString", "coordinates": [[27.486008282000057, 32.69053750300003], [27.486061199000062, 33.80374900600003]]}}, {"type": "Feature", "properties": {"OBJECTID": 141, "FID_C_Leve": 5, "SHAPE_Leng": 4.14521103706}, "geometry": {"type": "LineString", "coordinates": [[162.2835439910001, 29.957370068000046], [162.21645525000008, 34.10203816600006]]}}, {"type": "Feature", "properties": {"OBJECTID": 142, "FID_C_Leve": 35, "SHAPE_Leng": 1.09865742266}, "geometry": {"type": "LineString", "coordinates": [[162.21645525000008, 34.10203816600006], [163.30864417100008, 34.22108224700003]]}}, {"type": "Feature", "properties": {"OBJECTID": 143, "FID_C_Leve": 136, "SHAPE_Leng": 3.72853095151}, "geometry": {"type": "LineString", "coordinates": [[10.272785295000062, 34.35971261900005], [9.605115114000057, 34.38753220900003], [9.577295523000032, 31.327377212000044]]}}, {"type": "Feature", "properties": {"OBJECTID": 144, "FID_C_Leve": 161, "SHAPE_Leng": 3.55620753762}, "geometry": {"type": "LineString", "coordinates": [[37.247214875000054, 34.435248460000025], [40.80339179400005, 34.420491380000044]]}}, {"type": "Feature", "properties": {"OBJECTID": 145, "FID_C_Leve": 135, "SHAPE_Leng": 13.149632566}, "geometry": {"type": "LineString", "coordinates": [[21.668688099000065, 32.60702273700008], [16.114899381000043, 32.662717575000045], [16.087079790000075, 34.44317139100008], [10.272785295000062, 34.35971261900005]]}}, {"type": "Feature", "properties": {"OBJECTID": 146, "FID_C_Leve": 130, "SHAPE_Leng": 2.62501589225}, "geometry": {"type": "LineString", "coordinates": [[27.486061199000062, 33.80374900600003], [27.45860626900003, 34.62739691000007], [29.259516802000064, 34.62741753100005]]}}, {"type": "Feature", "properties": {"OBJECTID": 147, "FID_C_Leve": 161, "SHAPE_Leng": 0.625378727733}, "geometry": {"type": "LineString", "coordinates": [[40.80339179400005, 34.420491380000044], [40.79006420700006, 35.045728078000025]]}}, {"type": "Feature", "properties": {"OBJECTID": 148, "FID_C_Leve": 135, "SHAPE_Leng": 2.75542316208}, "geometry": {"type": "LineString", "coordinates": [[10.272785295000062, 34.35971261900005], [10.244965704000037, 35.44467666300005], [8.575790251000058, 35.38903748100006]]}}, {"type": "Feature", "properties": {"OBJECTID": 149, "FID_C_Leve": 131, "SHAPE_Leng": 4.78217610522}, "geometry": {"type": "LineString", "coordinates": [[29.259516802000064, 34.62741753100005], [31.52193593000004, 34.62739691000007], [31.494481000000064, 35.505954675000055], [33.134324897000056, 35.561084348000065]]}}, {"type": "Feature", "properties": {"OBJECTID": 150, "FID_C_Leve": 132, "SHAPE_Leng": 5.21135810284}, "geometry": {"type": "LineString", "coordinates": [[33.134324897000056, 35.561084348000065], [35.85981489300008, 35.560864535000064], [35.85981489300008, 34.462667329000055], [37.247214875000054, 34.435248460000025]]}}, {"type": "Feature", "properties": {"OBJECTID": 151, "FID_C_Leve": 27, "SHAPE_Leng": 3.87421526989}, "geometry": {"type": "LineString", "coordinates": [[115.26709584000002, 36.21168808700003], [115.26718151000011, 35.52720979700007], [118.45640077700011, 35.46974299200008]]}}, {"type": "Feature", "properties": {"OBJECTID": 152, "FID_C_Leve": 25, "SHAPE_Leng": 1.0395278005}, "geometry": {"type": "LineString", "coordinates": [[115.26712806600005, 37.25121588700006], [115.26709584000002, 36.21168808700003]]}}, {"type": "Feature", "properties": {"OBJECTID": 153, "FID_C_Leve": 26, "SHAPE_Leng": 0.754169789527}, "geometry": {"type": "LineString", "coordinates": [[115.26712806600005, 37.25121588700006], [116.021297376, 37.25206635100005]]}}, {"type": "Feature", "properties": {"OBJECTID": 154, "FID_C_Leve": 162, "SHAPE_Leng": 5.91704890361}, "geometry": {"type": "LineString", "coordinates": [[40.80339179400005, 34.420491380000044], [43.10253387200004, 34.39262299100005], [43.046797094000055, 37.527816733000066], [43.528845637000074, 37.52830629500005]]}}, {"type": "Feature", "properties": {"OBJECTID": 155, "FID_C_Leve": 23, "SHAPE_Leng": 1.25216915946}, "geometry": {"type": "LineString", "coordinates": [[121.74762694000003, 37.567240680000054], [120.49578031300007, 37.53882191200006]]}}, {"type": "Feature", "properties": {"OBJECTID": 156, "FID_C_Leve": 4, "SHAPE_Leng": 4.1950596044}, "geometry": {"type": "LineString", "coordinates": [[121.76117482400002, 33.372202952000066], [121.74762694000003, 37.567240680000054]]}}, {"type": "Feature", "properties": {"OBJECTID": 157, "FID_C_Leve": 148, "SHAPE_Leng": 9.18359439813}, "geometry": {"type": "LineString", "coordinates": [[100.18123669800008, 32.872490568000046], [100.09331994100006, 38.16910935400006], [96.20731791600008, 38.212656227000025]]}}, {"type": "Feature", "properties": {"OBJECTID": 158, "FID_C_Leve": 121, "SHAPE_Leng": 6.10151738399}, "geometry": {"type": "LineString", "coordinates": [[88.88787612000004, 33.656321535000075], [88.87589532900006, 38.373970952000036], [90.25974808300003, 38.373970952000036]]}}, {"type": "Feature", "properties": {"OBJECTID": 159, "FID_C_Leve": 154, "SHAPE_Leng": 13.6965386527}, "geometry": {"type": "LineString", "coordinates": [[62.81091024700004, 31.20765860800003], [62.78805286900007, 38.98974414200006], [56.873809659000074, 38.94407276800007]]}}, {"type": "Feature", "properties": {"OBJECTID": 160, "FID_C_Leve": 25, "SHAPE_Leng": 8.12273130366}, "geometry": {"type": "LineString", "coordinates": [[108.86852106200007, 39.00401210500007], [115.26718151000011, 38.97522197300003], [115.26712806600005, 37.25121588700006]]}}, {"type": "Feature", "properties": {"OBJECTID": 161, "FID_C_Leve": 24, "SHAPE_Leng": 8.12509285726}, "geometry": {"type": "LineString", "coordinates": [[106.90574147600006, 32.89993793300005], [106.90575198200008, 39.061422278000066], [108.86852106200007, 39.00401210500007]]}}, {"type": "Feature", "properties": {"OBJECTID": 162, "FID_C_Leve": 5, "SHAPE_Leng": 5.59234986807}, "geometry": {"type": "LineString", "coordinates": [[162.21645525000008, 34.10203816600006], [162.12594509000007, 39.69365554900003]]}}, {"type": "Feature", "properties": {"OBJECTID": 163, "FID_C_Leve": 158, "SHAPE_Leng": 1.10304836743}, "geometry": {"type": "LineString", "coordinates": [[162.12594509000007, 39.69365554900003], [163.228981803, 39.698726118000025]]}}, {"type": "Feature", "properties": {"OBJECTID": 164, "FID_C_Leve": 159, "SHAPE_Leng": 2.54926016473}, "geometry": {"type": "LineString", "coordinates": [[163.228981803, 39.698726118000025], [164.98373299600007, 39.70515619100007], [164.95831530500004, 38.911065688000065]]}}, {"type": "Feature", "properties": {"OBJECTID": 165, "FID_C_Leve": 5, "SHAPE_Leng": 2.78238124382}, "geometry": {"type": "LineString", "coordinates": [[162.12594509000007, 39.69365554900003], [162.08091325700002, 42.475672357000064]]}}, {"type": "Feature", "properties": {"OBJECTID": 166, "FID_C_Leve": 41, "SHAPE_Leng": 1.18527035437}, "geometry": {"type": "LineString", "coordinates": [[162.08091325700002, 42.475672357000064], [163.26351178100003, 42.55521193200008]]}}, {"type": "Feature", "properties": {"OBJECTID": 167, "FID_C_Leve": 5, "SHAPE_Leng": 0.237605699567}, "geometry": {"type": "LineString", "coordinates": [[162.08091325700002, 42.475672357000064], [162.0770676940001, 42.71324693500003]]}}, {"type": "Feature", "properties": {"OBJECTID": 168, "FID_C_Leve": 36, "SHAPE_Leng": 1.31693438743}, "geometry": {"type": "LineString", "coordinates": [[162.0770676940001, 42.71324693500003], [160.7696378160001, 42.87118139900008]]}}, {"type": "Feature", "properties": {"OBJECTID": 169, "FID_C_Leve": 5, "SHAPE_Leng": 3.08184193915}, "geometry": {"type": "LineString", "coordinates": [[162.0770676940001, 42.71324693500003], [162.0271891970001, 45.79468521500007]]}}, {"type": "Feature", "properties": {"OBJECTID": 170, "FID_C_Leve": 37, "SHAPE_Leng": 1.14306758685}, "geometry": {"type": "LineString", "coordinates": [[162.0271891970001, 45.79468521500007], [160.88478590300008, 45.83364958300007]]}}, {"type": "Feature", "properties": {"OBJECTID": 171, "FID_C_Leve": 4, "SHAPE_Leng": 8.42720272019}, "geometry": {"type": "LineString", "coordinates": [[121.74762694000003, 37.567240680000054], [121.7204114110001, 45.994399454000074]]}}, {"type": "Feature", "properties": {"OBJECTID": 172, "FID_C_Leve": 43, "SHAPE_Leng": 1.40522402027}, "geometry": {"type": "LineString", "coordinates": [[121.7204114110001, 45.994399454000074], [123.12533699700009, 46.023358821000045]]}}, {"type": "Feature", "properties": {"OBJECTID": 173, "FID_C_Leve": 4, "SHAPE_Leng": 0.958753373709}, "geometry": {"type": "LineString", "coordinates": [[121.7204114110001, 45.994399454000074], [121.71731513100008, 46.953147828000056]]}}, {"type": "Feature", "properties": {"OBJECTID": 174, "FID_C_Leve": 42, "SHAPE_Leng": 1.11027261901}, "geometry": {"type": "LineString", "coordinates": [[121.71731513100008, 46.953147828000056], [120.60704251200002, 46.95315192100003]]}}, {"type": "Feature", "properties": {"OBJECTID": 175, "FID_C_Leve": 38, "SHAPE_Leng": 1.05776484386}, "geometry": {"type": "LineString", "coordinates": [[161.97604264200004, 48.95446275100005], [160.91904703600005, 48.91412971500006]]}}, {"type": "Feature", "properties": {"OBJECTID": 176, "FID_C_Leve": 5, "SHAPE_Leng": 3.16019145735}, "geometry": {"type": "LineString", "coordinates": [[162.0271891970001, 45.79468521500007], [161.97604264200004, 48.95446275100005]]}}, {"type": "Feature", "properties": {"OBJECTID": 177, "FID_C_Leve": 4, "SHAPE_Leng": 2.00466614594}, "geometry": {"type": "LineString", "coordinates": [[121.71731513100008, 46.953147828000056], [121.71084109100002, 48.95780352000003]]}}, {"type": "Feature", "properties": {"OBJECTID": 178, "FID_C_Leve": 44, "SHAPE_Leng": 1.32119354375}, "geometry": {"type": "LineString", "coordinates": [[121.71084109100002, 48.95780352000003], [123.03203463400007, 48.957848074000026]]}}, {"type": "Feature", "properties": {"OBJECTID": 179, "FID_C_Leve": 4, "SHAPE_Leng": 1.62706925084}, "geometry": {"type": "LineString", "coordinates": [[121.71084109100002, 48.95780352000003], [121.70558649500003, 50.58486428600003]]}}, {"type": "Feature", "properties": {"OBJECTID": 180, "FID_C_Leve": 45, "SHAPE_Leng": 1.38918214482}, "geometry": {"type": "LineString", "coordinates": [[121.70558649500003, 50.58486428600003], [123.09446205400002, 50.555680162000044]]}}, {"type": "Feature", "properties": {"OBJECTID": 181, "FID_C_Leve": 5, "SHAPE_Leng": 2.33016972625}, "geometry": {"type": "LineString", "coordinates": [[161.97604264200004, 48.95446275100005], [161.93832968800007, 51.28432727200004]]}}, {"type": "Feature", "properties": {"OBJECTID": 182, "FID_C_Leve": 40, "SHAPE_Leng": 1.28212171631}, "geometry": {"type": "LineString", "coordinates": [[161.93832968800007, 51.28432727200004], [163.21984501000009, 51.24489917400007]]}}, {"type": "Feature", "properties": {"OBJECTID": 183, "FID_C_Leve": 39, "SHAPE_Leng": 1.00173441254}, "geometry": {"type": "LineString", "coordinates": [[161.92937050500007, 51.83781568300003], [160.9276361190001, 51.83758510300004]]}}, {"type": "Feature", "properties": {"OBJECTID": 184, "FID_C_Leve": 5, "SHAPE_Leng": 0.553560916315}, "geometry": {"type": "LineString", "coordinates": [[161.93832968800007, 51.28432727200004], [161.92937050500007, 51.83781568300003]]}}, {"type": "Feature", "properties": {"OBJECTID": 185, "FID_C_Leve": 5, "SHAPE_Leng": 0.696064903472}, "geometry": {"type": "LineString", "coordinates": [[161.92937050500007, 51.83781568300003], [161.91810494600008, 52.53378941600005]]}}, {"type": "Feature", "properties": {"OBJECTID": 186, "FID_C_Leve": 4, "SHAPE_Leng": 4.24175735292}, "geometry": {"type": "LineString", "coordinates": [[121.70558649500003, 50.58486428600003], [121.69188780100001, 54.82659951900007]]}}, {"type": "Feature", "properties": {"OBJECTID": 187, "FID_C_Leve": 46, "SHAPE_Leng": 1.37820840913}, "geometry": {"type": "LineString", "coordinates": [[121.69188780100001, 54.82659951900007], [123.06978678500002, 54.79739662700007]]}}, {"type": "Feature", "properties": {"OBJECTID": 188, "FID_C_Leve": 4, "SHAPE_Leng": 1.65602855486}, "geometry": {"type": "LineString", "coordinates": [[121.69188780100001, 54.82659951900007], [121.68653968100011, 56.48261943800003]]}}, {"type": "Feature", "properties": {"OBJECTID": 189, "FID_C_Leve": 47, "SHAPE_Leng": 1.38661082236}, "geometry": {"type": "LineString", "coordinates": [[121.68653968100011, 56.48261943800003], [123.07283953000001, 56.51198440600007]]}}, {"type": "Feature", "properties": {"OBJECTID": 190, "FID_C_Leve": 8, "SHAPE_Leng": 2.66578694554}, "geometry": {"type": "LineString", "coordinates": [[71.57570293200007, 58.725364941000066], [71.58267086800004, 56.05958710200008]]}}, {"type": "Feature", "properties": {"OBJECTID": 191, "FID_C_Leve": 91, "SHAPE_Leng": 1.38771023526}, "geometry": {"type": "LineString", "coordinates": [[71.57570293200007, 58.725364941000066], [70.18826158400003, 58.75268165600005]]}}, {"type": "Feature", "properties": {"OBJECTID": 192, "FID_C_Leve": 4, "SHAPE_Leng": 2.63507438539}, "geometry": {"type": "LineString", "coordinates": [[121.68653968100011, 56.48261943800003], [121.6780297470001, 59.11768008200005]]}}, {"type": "Feature", "properties": {"OBJECTID": 193, "FID_C_Leve": 92, "SHAPE_Leng": 1.15334892955}, "geometry": {"type": "LineString", "coordinates": [[121.6780297470001, 59.11768008200005], [120.5272342400001, 59.19438376100004]]}}, {"type": "Feature", "properties": {"OBJECTID": 194, "FID_C_Leve": 90, "SHAPE_Leng": 1.39049660473}, "geometry": {"type": "LineString", "coordinates": [[71.57115598400003, 60.46492656100003], [70.18091418800003, 60.43830783800007]]}}, {"type": "Feature", "properties": {"OBJECTID": 195, "FID_C_Leve": 8, "SHAPE_Leng": 1.7395675625}, "geometry": {"type": "LineString", "coordinates": [[71.57115598400003, 60.46492656100003], [71.57570293200007, 58.725364941000066]]}}, {"type": "Feature", "properties": {"OBJECTID": 196, "FID_C_Leve": 4, "SHAPE_Leng": 1.69393619254}, "geometry": {"type": "LineString", "coordinates": [[121.6780297470001, 59.11768008200005], [121.67255920500008, 60.811607441000035]]}}, {"type": "Feature", "properties": {"OBJECTID": 197, "FID_C_Leve": 48, "SHAPE_Leng": 1.4281479822}, "geometry": {"type": "LineString", "coordinates": [[121.67255920500008, 60.811607441000035], [123.10070718700001, 60.81163109700003]]}}, {"type": "Feature", "properties": {"OBJECTID": 198, "FID_C_Leve": 8, "SHAPE_Leng": 0.842674084644}, "geometry": {"type": "LineString", "coordinates": [[71.56895337000003, 61.30759776700006], [71.57115598400003, 60.46492656100003]]}}, {"type": "Feature", "properties": {"OBJECTID": 199, "FID_C_Leve": 89, "SHAPE_Leng": 1.3031858278}, "geometry": {"type": "LineString", "coordinates": [[71.56895337000003, 61.30759776700006], [72.87185720400004, 61.33470682700005]]}}, {"type": "Feature", "properties": {"OBJECTID": 200, "FID_C_Leve": 4, "SHAPE_Leng": 1.51066906584}, "geometry": {"type": "LineString", "coordinates": [[121.67255920500008, 60.811607441000035], [121.66768052100008, 62.322268629000064]]}}, {"type": "Feature", "properties": {"OBJECTID": 201, "FID_C_Leve": 49, "SHAPE_Leng": 1.43231945989}, "geometry": {"type": "LineString", "coordinates": [[121.66768052100008, 62.322268629000064], [123.09999998, 62.32231898900005]]}}, {"type": "Feature", "properties": {"OBJECTID": 202, "FID_C_Leve": 8, "SHAPE_Leng": 2.5278091142}, "geometry": {"type": "LineString", "coordinates": [[71.56234608600005, 63.83539824600007], [71.56895337000003, 61.30759776700006]]}}, {"type": "Feature", "properties": {"OBJECTID": 203, "FID_C_Leve": 87, "SHAPE_Leng": 1.34851517743}, "geometry": {"type": "LineString", "coordinates": [[71.56234608600005, 63.83539824600007], [72.91058673600008, 63.80818917700003]]}}, {"type": "Feature", "properties": {"OBJECTID": 204, "FID_C_Leve": 8, "SHAPE_Leng": 1.08722972607}, "geometry": {"type": "LineString", "coordinates": [[71.55950424300005, 64.92262425800004], [71.56234608600005, 63.83539824600007]]}}, {"type": "Feature", "properties": {"OBJECTID": 205, "FID_C_Leve": 88, "SHAPE_Leng": 1.3265397568}, "geometry": {"type": "LineString", "coordinates": [[71.55950424300005, 64.92262425800004], [72.88576507600004, 64.89542261800005]]}}, {"type": "Feature", "properties": {"OBJECTID": 206, "FID_C_Leve": 8, "SHAPE_Leng": 0.652266790197}, "geometry": {"type": "LineString", "coordinates": [[71.55779932300004, 65.57488882000007], [71.55950424300005, 64.92262425800004]]}}, {"type": "Feature", "properties": {"OBJECTID": 207, "FID_C_Leve": 86, "SHAPE_Leng": 1.50144740909}, "geometry": {"type": "LineString", "coordinates": [[71.55779932300004, 65.57488882000007], [70.05659895400004, 65.60212435500006]]}}, {"type": "Feature", "properties": {"OBJECTID": 208, "FID_C_Leve": 4, "SHAPE_Leng": 4.35815753693}, "geometry": {"type": "LineString", "coordinates": [[121.66768052100008, 62.322268629000064], [121.65360591500007, 66.68040343900003]]}}, {"type": "Feature", "properties": {"OBJECTID": 209, "FID_C_Leve": 50, "SHAPE_Leng": 1.43889244346}, "geometry": {"type": "LineString", "coordinates": [[121.65360591500007, 66.68040343900003], [123.09221041900003, 66.70918789500007]]}}, {"type": "Feature", "properties": {"OBJECTID": 210, "FID_C_Leve": 85, "SHAPE_Leng": 1.52593991333}, "geometry": {"type": "LineString", "coordinates": [[71.55318132900004, 67.34163109000008], [70.02941811800008, 67.26015535200008]]}}, {"type": "Feature", "properties": {"OBJECTID": 211, "FID_C_Leve": 8, "SHAPE_Leng": 1.76674830535}, "geometry": {"type": "LineString", "coordinates": [[71.55318132900004, 67.34163109000008], [71.55779932300004, 65.57488882000007]]}}, {"type": "Feature", "properties": {"OBJECTID": 212, "FID_C_Leve": 4, "SHAPE_Leng": 1.56877533085}, "geometry": {"type": "LineString", "coordinates": [[121.65360591500007, 66.68040343900003], [121.64853957800005, 68.24917058900007]]}}, {"type": "Feature", "properties": {"OBJECTID": 213, "FID_C_Leve": 51, "SHAPE_Leng": 1.44887145065}, "geometry": {"type": "LineString", "coordinates": [[121.64853957800005, 68.24917058900007], [123.09711839700003, 68.22005211300007]]}}, {"type": "Feature", "properties": {"OBJECTID": 214, "FID_C_Leve": 84, "SHAPE_Leng": 1.53834733982}, "geometry": {"type": "LineString", "coordinates": [[71.54003743500004, 72.37019349100007], [70.00192507300005, 72.34330669500008]]}}, {"type": "Feature", "properties": {"OBJECTID": 215, "FID_C_Leve": 8, "SHAPE_Leng": 5.02857957904}, "geometry": {"type": "LineString", "coordinates": [[71.54003743500004, 72.37019349100007], [71.55318132900004, 67.34163109000008]]}}, {"type": "Feature", "properties": {"OBJECTID": 216, "FID_C_Leve": 163, "SHAPE_Leng": 1.11347132127}, "geometry": {"type": "LineString", "coordinates": [[121.63288252400002, 73.09730273600007], [120.51947812800006, 73.08509477700005]]}}, {"type": "Feature", "properties": {"OBJECTID": 217, "FID_C_Leve": 4, "SHAPE_Leng": 4.84815742918}, "geometry": {"type": "LineString", "coordinates": [[121.64853957800005, 68.24917058900007], [121.63288252400002, 73.09730273600007]]}}, {"type": "Feature", "properties": {"OBJECTID": 218, "FID_C_Leve": 83, "SHAPE_Leng": 1.44342201396}, "geometry": {"type": "LineString", "coordinates": [[71.53584571700003, 73.97385186000008], [70.09242377300006, 73.97340246300007]]}}, {"type": "Feature", "properties": {"OBJECTID": 219, "FID_C_Leve": 8, "SHAPE_Leng": 1.60366384725}, "geometry": {"type": "LineString", "coordinates": [[71.53584571700003, 73.97385186000008], [71.54003743500004, 72.37019349100007]]}}, {"type": "Feature", "properties": {"OBJECTID": 220, "FID_C_Leve": 8, "SHAPE_Leng": 1.79385800197}, "geometry": {"type": "LineString", "coordinates": [[71.53115686200005, 75.76770373400007], [71.53584571700003, 73.97385186000008]]}}, {"type": "Feature", "properties": {"OBJECTID": 221, "FID_C_Leve": 82, "SHAPE_Leng": 1.35460821505}, "geometry": {"type": "LineString", "coordinates": [[71.53115686200005, 75.76770373400007], [72.88576507600004, 75.76775702600008]]}}, {"type": "Feature", "properties": {"OBJECTID": 222, "FID_C_Leve": 52, "SHAPE_Leng": 1.00367253661}, "geometry": {"type": "LineString", "coordinates": [[121.62386255800004, 75.89029225800004], [120.62061205700002, 75.86118911400007]]}}, {"type": "Feature", "properties": {"OBJECTID": 223, "FID_C_Leve": 4, "SHAPE_Leng": 2.79300408696}, "geometry": {"type": "LineString", "coordinates": [[121.63288252400002, 73.09730273600007], [121.62386255800004, 75.89029225800004]]}}, {"type": "Feature", "properties": {"OBJECTID": 224, "FID_C_Leve": 53, "SHAPE_Leng": 0.942025238843}, "geometry": {"type": "LineString", "coordinates": [[121.6202974470001, 76.99421171100005], [120.6787186250001, 76.96521390800007]]}}, {"type": "Feature", "properties": {"OBJECTID": 225, "FID_C_Leve": 4, "SHAPE_Leng": 1.10392520975}, "geometry": {"type": "LineString", "coordinates": [[121.62386255800004, 75.89029225800004], [121.6202974470001, 76.99421171100005]]}}, {"type": "Feature", "properties": {"OBJECTID": 226, "FID_C_Leve": 78, "SHAPE_Leng": 1.28472883373}, "geometry": {"type": "LineString", "coordinates": [[74.78607296800004, 79.90103893600008], [74.75833244400008, 78.61660963100007]]}}, {"type": "Feature", "properties": {"OBJECTID": 227, "FID_C_Leve": 8, "SHAPE_Leng": 4.14890061598}, "geometry": {"type": "LineString", "coordinates": [[71.52031230700004, 79.91659017700005], [71.53115686200005, 75.76770373400007]]}}, {"type": "Feature", "properties": {"OBJECTID": 228, "FID_C_Leve": 8, "SHAPE_Leng": 3.26579768755}, "geometry": {"type": "LineString", "coordinates": [[74.78607296800004, 79.90103893600008], [71.52031230700004, 79.91659017700005]]}}, {"type": "Feature", "properties": {"OBJECTID": 229, "FID_C_Leve": 8, "SHAPE_Leng": 1.33289626328}, "geometry": {"type": "LineString", "coordinates": [[76.04482519400005, 80.20872741100004], [75.43059491800005, 79.89796978400005], [74.78607296800004, 79.90103893600008]]}}, {"type": "Feature", "properties": {"OBJECTID": 230, "FID_C_Leve": 79, "SHAPE_Leng": 1.39927215632}, "geometry": {"type": "LineString", "coordinates": [[76.04482519400005, 80.20872741100004], [76.09147035300003, 78.81023293600003]]}}, {"type": "Feature", "properties": {"OBJECTID": 231, "FID_C_Leve": 76, "SHAPE_Leng": 0.629001397688}, "geometry": {"type": "LineString", "coordinates": [[70.33731705100007, 80.88859791300007], [69.89351393800007, 80.44286082100007]]}}, {"type": "Feature", "properties": {"OBJECTID": 232, "FID_C_Leve": 10, "SHAPE_Leng": 1.53110313649}, "geometry": {"type": "LineString", "coordinates": [[71.52031230700004, 79.91659017700005], [70.33731705100007, 80.88859791300007]]}}, {"type": "Feature", "properties": {"OBJECTID": 233, "FID_C_Leve": 8, "SHAPE_Leng": 1.68949989215}, "geometry": {"type": "LineString", "coordinates": [[77.55236692200003, 80.97143825000006], [76.04482519400005, 80.20872741100004]]}}, {"type": "Feature", "properties": {"OBJECTID": 234, "FID_C_Leve": 80, "SHAPE_Leng": 1.46881426689}, "geometry": {"type": "LineString", "coordinates": [[77.55236692200003, 80.97143825000006], [78.27889920500007, 79.69489362000007]]}}, {"type": "Feature", "properties": {"OBJECTID": 235, "FID_C_Leve": 10, "SHAPE_Leng": 0.594849898114}, "geometry": {"type": "LineString", "coordinates": [[70.33731705100007, 80.88859791300007], [69.87771077700006, 81.26623328500006]]}}, {"type": "Feature", "properties": {"OBJECTID": 236, "FID_C_Leve": 8, "SHAPE_Leng": 0.850885227425}, "geometry": {"type": "LineString", "coordinates": [[78.31161230100008, 81.35556339200008], [77.55236692200003, 80.97143825000006]]}}, {"type": "Feature", "properties": {"OBJECTID": 237, "FID_C_Leve": 81, "SHAPE_Leng": 1.52721920508}, "geometry": {"type": "LineString", "coordinates": [[78.31161230100008, 81.35556339200008], [79.27305007400008, 80.16895650300006]]}}, {"type": "Feature", "properties": {"OBJECTID": 238, "FID_C_Leve": 7, "SHAPE_Leng": 1.21175481524}, "geometry": {"type": "LineString", "coordinates": [[137.96548329600012, 81.47834941300005], [139.17721526000003, 81.47090766000008]]}}, {"type": "Feature", "properties": {"OBJECTID": 239, "FID_C_Leve": 65, "SHAPE_Leng": 1.04137200388}, "geometry": {"type": "LineString", "coordinates": [[135.58320385600007, 81.49297998800006], [135.58305334800002, 80.45160799500007]]}}, {"type": "Feature", "properties": {"OBJECTID": 240, "FID_C_Leve": 7, "SHAPE_Leng": 2.38232436582}, "geometry": {"type": "LineString", "coordinates": [[135.58320385600007, 81.49297998800006], [137.96548329600012, 81.47834941300005]]}}, {"type": "Feature", "properties": {"OBJECTID": 241, "FID_C_Leve": 7, "SHAPE_Leng": 0.755727990499}, "geometry": {"type": "LineString", "coordinates": [[134.82749011700002, 81.49762114200007], [135.58320385600007, 81.49297998800006]]}}, {"type": "Feature", "properties": {"OBJECTID": 242, "FID_C_Leve": 64, "SHAPE_Leng": 0.938939833083}, "geometry": {"type": "LineString", "coordinates": [[134.18852039600006, 81.50154532300007], [134.18853284300008, 80.56260549000007]]}}, {"type": "Feature", "properties": {"OBJECTID": 243, "FID_C_Leve": 7, "SHAPE_Leng": 0.638981770907}, "geometry": {"type": "LineString", "coordinates": [[134.18852039600006, 81.50154532300007], [134.82749011700002, 81.49762114200007]]}}, {"type": "Feature", "properties": {"OBJECTID": 244, "FID_C_Leve": 7, "SHAPE_Leng": 1.01702419102}, "geometry": {"type": "LineString", "coordinates": [[133.17151538400003, 81.50779117600007], [134.18852039600006, 81.50154532300007]]}}, {"type": "Feature", "properties": {"OBJECTID": 245, "FID_C_Leve": 7, "SHAPE_Leng": 4.29998337899}, "geometry": {"type": "LineString", "coordinates": [[128.87161309400005, 81.53419867500008], [133.17151538400003, 81.50779117600007]]}}, {"type": "Feature", "properties": {"OBJECTID": 246, "FID_C_Leve": 7, "SHAPE_Leng": 1.74316417055}, "geometry": {"type": "LineString", "coordinates": [[127.12848179600007, 81.54490397400008], [128.87161309400005, 81.53419867500008]]}}, {"type": "Feature", "properties": {"OBJECTID": 247, "FID_C_Leve": 7, "SHAPE_Leng": 3.89306664736}, "geometry": {"type": "LineString", "coordinates": [[123.2354885640001, 81.56881247500007], [127.12848179600007, 81.54490397400008]]}}, {"type": "Feature", "properties": {"OBJECTID": 248, "FID_C_Leve": 4, "SHAPE_Leng": 4.58463516596}, "geometry": {"type": "LineString", "coordinates": [[121.6202974470001, 76.99421171100005], [121.6054914340001, 81.57882296900004]]}}, {"type": "Feature", "properties": {"OBJECTID": 249, "FID_C_Leve": 7, "SHAPE_Leng": 1.63002786903}, "geometry": {"type": "LineString", "coordinates": [[121.6054914340001, 81.57882296900004], [123.2354885640001, 81.56881247500007]]}}, {"type": "Feature", "properties": {"OBJECTID": 250, "FID_C_Leve": 8, "SHAPE_Leng": 2.43778042203}, "geometry": {"type": "LineString", "coordinates": [[121.6054914340001, 81.57882296900004], [119.16808930700006, 81.62176778600008]]}}, {"type": "Feature", "properties": {"OBJECTID": 251, "FID_C_Leve": 54, "SHAPE_Leng": 1.47505815716}, "geometry": {"type": "LineString", "coordinates": [[118.29624954000008, 81.63712881300006], [118.23733220100007, 80.16324777500006]]}}, {"type": "Feature", "properties": {"OBJECTID": 252, "FID_C_Leve": 8, "SHAPE_Leng": 0.87197508019}, "geometry": {"type": "LineString", "coordinates": [[119.16808930700006, 81.62176778600008], [118.29624954000008, 81.63712881300006]]}}, {"type": "Feature", "properties": {"OBJECTID": 253, "FID_C_Leve": 8, "SHAPE_Leng": 2.44060896097}, "geometry": {"type": "LineString", "coordinates": [[118.29624954000008, 81.63712881300006], [115.85601931300005, 81.68012345900007]]}}, {"type": "Feature", "properties": {"OBJECTID": 254, "FID_C_Leve": 8, "SHAPE_Leng": 1.45346240444}, "geometry": {"type": "LineString", "coordinates": [[115.85601931300005, 81.68012345900007], [114.40278245700006, 81.70572817500005]]}}, {"type": "Feature", "properties": {"OBJECTID": 255, "FID_C_Leve": 149, "SHAPE_Leng": 1.22116420506}, "geometry": {"type": "LineString", "coordinates": [[114.10173614900009, 81.71103233800005], [114.06926772300005, 80.49029984600008]]}}, {"type": "Feature", "properties": {"OBJECTID": 256, "FID_C_Leve": 8, "SHAPE_Leng": 0.301093031646}, "geometry": {"type": "LineString", "coordinates": [[114.40278245700006, 81.70572817500005], [114.10173614900009, 81.71103233800005]]}}, {"type": "Feature", "properties": {"OBJECTID": 257, "FID_C_Leve": 8, "SHAPE_Leng": 0.826631753043}, "geometry": {"type": "LineString", "coordinates": [[79.04921629100005, 81.72873950200005], [78.31161230100008, 81.35556339200008]]}}, {"type": "Feature", "properties": {"OBJECTID": 258, "FID_C_Leve": 10, "SHAPE_Leng": 0.968931847433}, "geometry": {"type": "LineString", "coordinates": [[67.74703979200007, 81.73498967100005], [66.78012878500004, 81.67244345200004]]}}, {"type": "Feature", "properties": {"OBJECTID": 259, "FID_C_Leve": 8, "SHAPE_Leng": 4.34773468594}, "geometry": {"type": "LineString", "coordinates": [[114.10173614900009, 81.71103233800005], [109.75467614500008, 81.78762359700005]]}}, {"type": "Feature", "properties": {"OBJECTID": 260, "FID_C_Leve": 8, "SHAPE_Leng": 2.03443791531}, "geometry": {"type": "LineString", "coordinates": [[109.75467614500008, 81.78762359700005], [107.72055393400007, 81.82346298800007]]}}, {"type": "Feature", "properties": {"OBJECTID": 261, "FID_C_Leve": 10, "SHAPE_Leng": 2.3350763891}, "geometry": {"type": "LineString", "coordinates": [[69.87771077700006, 81.26623328500006], [69.19334043600003, 81.82854599300003], [67.74703979200007, 81.73498967100005]]}}, {"type": "Feature", "properties": {"OBJECTID": 262, "FID_C_Leve": 8, "SHAPE_Leng": 3.63160875943}, "geometry": {"type": "LineString", "coordinates": [[107.72055393400007, 81.82346298800007], [104.08950872800006, 81.88743871400004]]}}, {"type": "Feature", "properties": {"OBJECTID": 263, "FID_C_Leve": 71, "SHAPE_Leng": 1.39284898633}, "geometry": {"type": "LineString", "coordinates": [[100.98746095100006, 81.94209398500004], [100.98752190500005, 80.54924500000004]]}}, {"type": "Feature", "properties": {"OBJECTID": 264, "FID_C_Leve": 8, "SHAPE_Leng": 3.10252922781}, "geometry": {"type": "LineString", "coordinates": [[104.08950872800006, 81.88743871400004], [100.98746095100006, 81.94209398500004]]}}, {"type": "Feature", "properties": {"OBJECTID": 265, "FID_C_Leve": 70, "SHAPE_Leng": 1.41076490966}, "geometry": {"type": "LineString", "coordinates": [[98.23616760700008, 81.99056928100003], [98.22047555700004, 80.57989164600008]]}}, {"type": "Feature", "properties": {"OBJECTID": 266, "FID_C_Leve": 8, "SHAPE_Leng": 2.75172035626}, "geometry": {"type": "LineString", "coordinates": [[100.98746095100006, 81.94209398500004], [98.23616760700008, 81.99056928100003]]}}, {"type": "Feature", "properties": {"OBJECTID": 267, "FID_C_Leve": 8, "SHAPE_Leng": 0.103308473433}, "geometry": {"type": "LineString", "coordinates": [[98.23616760700008, 81.99056928100003], [98.13287516500009, 81.99238920100004]]}}, {"type": "Feature", "properties": {"OBJECTID": 268, "FID_C_Leve": 72, "SHAPE_Leng": 1.00185346984}, "geometry": {"type": "LineString", "coordinates": [[94.79057540700006, 82.05127749400003], [94.82980130700008, 81.05019223100004]]}}, {"type": "Feature", "properties": {"OBJECTID": 269, "FID_C_Leve": 8, "SHAPE_Leng": 3.34281849692}, "geometry": {"type": "LineString", "coordinates": [[98.13287516500009, 81.99238920100004], [94.79057540700006, 82.05127749400003]]}}, {"type": "Feature", "properties": {"OBJECTID": 270, "FID_C_Leve": 8, "SHAPE_Leng": 12.8713133538}, "geometry": {"type": "LineString", "coordinates": [[94.79057540700006, 82.05127749400003], [81.92125942500007, 82.27802318200008]]}}, {"type": "Feature", "properties": {"OBJECTID": 271, "FID_C_Leve": 8, "SHAPE_Leng": 3.01060836075}, "geometry": {"type": "LineString", "coordinates": [[81.92125942500007, 82.27802318200008], [80.19502342200008, 82.30843789600004], [79.04921629100005, 81.72873950200005]]}}, {"type": "Feature", "properties": {"OBJECTID": 272, "FID_C_Leve": 59, "SHAPE_Leng": 1.31754090383}, "geometry": {"type": "LineString", "coordinates": [[127.12848179600007, 81.54490397400008], [127.12852863900002, 82.86244487700003]]}}, {"type": "Feature", "properties": {"OBJECTID": 273, "FID_C_Leve": 57, "SHAPE_Leng": 1.25656981765}, "geometry": {"type": "LineString", "coordinates": [[119.16808930700006, 81.62176778600008], [119.19713881700011, 82.87800177400004]]}}, {"type": "Feature", "properties": {"OBJECTID": 274, "FID_C_Leve": 67, "SHAPE_Leng": 1.09144156752}, "geometry": {"type": "LineString", "coordinates": [[107.72055393400007, 81.82346298800007], [107.77902504800005, 82.91333721200004]]}}, {"type": "Feature", "properties": {"OBJECTID": 275, "FID_C_Leve": 58, "SHAPE_Leng": 1.34866878119}, "geometry": {"type": "LineString", "coordinates": [[123.2354885640001, 81.56881247500007], [123.23515931400004, 82.91748121600006]]}}, {"type": "Feature", "properties": {"OBJECTID": 276, "FID_C_Leve": 60, "SHAPE_Leng": 1.38693847225}, "geometry": {"type": "LineString", "coordinates": [[128.87161309400005, 81.53419867500008], [128.87174473000005, 82.92113714100003]]}}, {"type": "Feature", "properties": {"OBJECTID": 277, "FID_C_Leve": 62, "SHAPE_Leng": 1.42401528708}, "geometry": {"type": "LineString", "coordinates": [[134.82749011700002, 81.49762114200007], [134.8276595320001, 82.92163641900004]]}}, {"type": "Feature", "properties": {"OBJECTID": 278, "FID_C_Leve": 68, "SHAPE_Leng": 1.0423648665}, "geometry": {"type": "LineString", "coordinates": [[104.08950872800006, 81.88743871400004], [104.08932894400004, 82.92980356500004]]}}, {"type": "Feature", "properties": {"OBJECTID": 279, "FID_C_Leve": 61, "SHAPE_Leng": 1.42471664081}, "geometry": {"type": "LineString", "coordinates": [[133.17151538400003, 81.50779117600007], [133.17119595200006, 82.93250778100008]]}}, {"type": "Feature", "properties": {"OBJECTID": 280, "FID_C_Leve": 66, "SHAPE_Leng": 1.15256230533}, "geometry": {"type": "LineString", "coordinates": [[109.75467614500008, 81.78762359700005], [109.72506138100005, 82.93980536800007]]}}, {"type": "Feature", "properties": {"OBJECTID": 281, "FID_C_Leve": 69, "SHAPE_Leng": 0.971764888956}, "geometry": {"type": "LineString", "coordinates": [[98.13287516500009, 81.99238920100004], [98.16229293200007, 82.96370871300007]]}}, {"type": "Feature", "properties": {"OBJECTID": 282, "FID_C_Leve": 63, "SHAPE_Leng": 1.49199332498}, "geometry": {"type": "LineString", "coordinates": [[137.96548329600012, 81.47834941300005], [137.9070302550001, 82.96919726700008]]}}, {"type": "Feature", "properties": {"OBJECTID": 283, "FID_C_Leve": 55, "SHAPE_Leng": 1.29591511938}, "geometry": {"type": "LineString", "coordinates": [[115.85601931300005, 81.68012345900007], [115.88479986800007, 82.97571895000004]]}}, {"type": "Feature", "properties": {"OBJECTID": 284, "FID_C_Leve": 56, "SHAPE_Leng": 1.29434123197}, "geometry": {"type": "LineString", "coordinates": [[114.40278245700006, 81.70572817500005], [114.46131583600004, 82.99874521600003]]}}, {"type": "Feature", "properties": {"OBJECTID": 285, "FID_C_Leve": 73, "SHAPE_Leng": 0.929321782081}, "geometry": {"type": "LineString", "coordinates": [[81.92125942500007, 82.27802318200008], [81.96053542000004, 83.20651463100006]]}}, {"type": "Feature", "properties": {"OBJECTID": 286, "FID_C_Leve": 77, "SHAPE_Leng": 2.21049779826}, "geometry": {"type": "LineString", "coordinates": [[69.87771077700006, 81.26623328500006], [70.92708225000007, 83.21177177800007]]}}, {"type": "Feature", "properties": {"OBJECTID": 287, "FID_C_Leve": 74, "SHAPE_Leng": 1.60487215944}, "geometry": {"type": "LineString", "coordinates": [[79.04921629100005, 81.72873950200005], [78.51011122300008, 83.24035465600008]]}}, {"type": "Feature", "properties": {"OBJECTID": 288, "FID_C_Leve": 75, "SHAPE_Leng": 1.55903158673}, "geometry": {"type": "LineString", "coordinates": [[67.74703979200007, 81.73498967100005], [67.61059868100006, 83.28803935200006]]}}, {"type": "Feature", "properties": {"OBJECTID": 289, "FID_C_Leve": 150, "SHAPE_Leng": 0.933366922947}, "geometry": {"type": "LineString", "coordinates": [[70.92708225000007, 83.21177177800007], [70.68369625300005, 84.11284728500004]]}}, {"type": "Feature", "properties": {"OBJECTID": 290, "FID_C_Leve": 152, "SHAPE_Leng": 3.55954678896}, "geometry": {"type": "LineString", "coordinates": [[70.68369625300005, 84.11284728500004], [74.24321111800003, 84.12792271600006]]}}, {"type": "Feature", "properties": {"OBJECTID": 291, "FID_C_Leve": 152, "SHAPE_Leng": 4.52806728618}, "geometry": {"type": "LineString", "coordinates": [[74.24321111800003, 84.12792271600006], [78.77123779400006, 84.14710003600004]]}}, {"type": "Feature", "properties": {"OBJECTID": 292, "FID_C_Leve": 151, "SHAPE_Leng": 0.943596455183}, "geometry": {"type": "LineString", "coordinates": [[78.51011122300008, 83.24035465600008], [78.77123779400006, 84.14710003600004]]}}, {"type": "Feature", "properties": {"OBJECTID": 293, "FID_C_Leve": 151, "SHAPE_Leng": 1.03578644858}, "geometry": {"type": "LineString", "coordinates": [[78.77123779400006, 84.14710003600004], [79.05787660300007, 85.14243503500006]]}}, {"type": "Feature", "properties": {"OBJECTID": 294, "FID_C_Leve": 153, "SHAPE_Leng": 1.0286490322}, "geometry": {"type": "LineString", "coordinates": [[74.24321111800003, 84.12792271600006], [74.21296497600008, 85.15612697700004]]}}, {"type": "Feature", "properties": {"OBJECTID": 295, "FID_C_Leve": 150, "SHAPE_Leng": 1.09183194574}, "geometry": {"type": "LineString", "coordinates": [[70.68369625300005, 84.11284728500004], [70.39898870700006, 85.16690544800008]]}}, {"type": "Feature", "properties": {"OBJECTID": 0, "FID_C_Leve": 0, "SHAPE_Leng": 0.0}, "geometry": {"type": "LineString", "coordinates": [[123.23515931400004, 82.91748121600006], [123.26768982171131, 88.30830330034127]]}}]}