{"type": "FeatureCollection", "features": [{"type": "Feature", "properties": {"OBJECTID": 1, "PlaceNode": 40}, "geometry": {"type": "Point", "coordinates": [139.17721526000003, 81.47090766000008]}}, {"type": "Feature", "properties": {"OBJECTID": 2, "PlaceNode": 41}, "geometry": {"type": "Point", "coordinates": [137.9070302550001, 82.96919726700008]}}, {"type": "Feature", "properties": {"OBJECTID": 3, "PlaceNode": 39}, "geometry": {"type": "Point", "coordinates": [135.58305334800002, 80.45160799500007]}}, {"type": "Feature", "properties": {"OBJECTID": 4, "PlaceNode": 42}, "geometry": {"type": "Point", "coordinates": [134.8276595320001, 82.92163641900004]}}, {"type": "Feature", "properties": {"OBJECTID": 5, "PlaceNode": 43}, "geometry": {"type": "Point", "coordinates": [133.17119595200006, 82.93250778100008]}}, {"type": "Feature", "properties": {"OBJECTID": 6, "PlaceNode": 7}, "geometry": {"type": "Point", "coordinates": [134.18853284300008, 80.56260549000007]}}, {"type": "Feature", "properties": {"OBJECTID": 7, "PlaceNode": 44}, "geometry": {"type": "Point", "coordinates": [128.87174473000005, 82.92113714100003]}}, {"type": "Feature", "properties": {"OBJECTID": 8, "PlaceNode": 45}, "geometry": {"type": "Point", "coordinates": [127.12852863900002, 82.86244487700003]}}, {"type": "Feature", "properties": {"OBJECTID": 9, "PlaceNode": 46}, "geometry": {"type": "Point", "coordinates": [123.23515931400004, 82.91748121600006]}}, {"type": "Feature", "properties": {"OBJECTID": 10, "PlaceNode": 46}, "geometry": {"type": "Point", "coordinates": [119.19713881700011, 82.87800177400004]}}, {"type": "Feature", "properties": {"OBJECTID": 11, "PlaceNode": 38}, "geometry": {"type": "Point", "coordinates": [118.23733220100007, 80.16324777500006]}}, {"type": "Feature", "properties": {"OBJECTID": 12, "PlaceNode": 36}, "geometry": {"type": "Point", "coordinates": [120.6787186250001, 76.96521390800007]}}, {"type": "Feature", "properties": {"OBJECTID": 13, "PlaceNode": 37}, "geometry": {"type": "Point", "coordinates": [120.62061205700002, 75.86118911400007]}}, {"type": "Feature", "properties": {"OBJECTID": 14, "PlaceNode": 47}, "geometry": {"type": "Point", "coordinates": [115.88479986800007, 82.97571895000004]}}, {"type": "Feature", "properties": {"OBJECTID": 15, "PlaceNode": 48}, "geometry": {"type": "Point", "coordinates": [114.46131583600004, 82.99874521600003]}}, {"type": "Feature", "properties": {"OBJECTID": 16, "PlaceNode": 49}, "geometry": {"type": "Point", "coordinates": [109.72506138100005, 82.93980536800007]}}, {"type": "Feature", "properties": {"OBJECTID": 17, "PlaceNode": 50}, "geometry": {"type": "Point", "coordinates": [107.77902504800005, 82.91333721200004]}}, {"type": "Feature", "properties": {"OBJECTID": 18, "PlaceNode": 51}, "geometry": {"type": "Point", "coordinates": [104.08932894400004, 82.92980356500004]}}, {"type": "Feature", "properties": {"OBJECTID": 19, "PlaceNode": 8}, "geometry": {"type": "Point", "coordinates": [100.98752190500005, 80.54924500000004]}}, {"type": "Feature", "properties": {"OBJECTID": 20, "PlaceNode": 52}, "geometry": {"type": "Point", "coordinates": [98.16229293200007, 82.96370871300007]}}, {"type": "Feature", "properties": {"OBJECTID": 21, "PlaceNode": 53}, "geometry": {"type": "Point", "coordinates": [98.22047555700004, 80.57989164600008]}}, {"type": "Feature", "properties": {"OBJECTID": 22, "PlaceNode": 54}, "geometry": {"type": "Point", "coordinates": [94.82980130700008, 81.05019223100004]}}, {"type": "Feature", "properties": {"OBJECTID": 23, "PlaceNode": 61}, "geometry": {"type": "Point", "coordinates": [81.96053542000004, 83.20651463100006]}}, {"type": "Feature", "properties": {"OBJECTID": 24, "PlaceNode": 62}, "geometry": {"type": "Point", "coordinates": [78.51011122300008, 83.24035465600008]}}, {"type": "Feature", "properties": {"OBJECTID": 26, "PlaceNode": 62}, "geometry": {"type": "Point", "coordinates": [70.92708225000007, 83.21177177800007]}}, {"type": "Feature", "properties": {"OBJECTID": 27, "PlaceNode": 64}, "geometry": {"type": "Point", "coordinates": [79.27305007400008, 80.16895650300006]}}, {"type": "Feature", "properties": {"OBJECTID": 28, "PlaceNode": 67}, "geometry": {"type": "Point", "coordinates": [78.27889920500007, 79.69489362000007]}}, {"type": "Feature", "properties": {"OBJECTID": 29, "PlaceNode": 66}, "geometry": {"type": "Point", "coordinates": [76.09147035300003, 78.81023293600003]}}, {"type": "Feature", "properties": {"OBJECTID": 30, "PlaceNode": 65}, "geometry": {"type": "Point", "coordinates": [74.75833244400008, 78.61660963100007]}}, {"type": "Feature", "properties": {"OBJECTID": 31, "PlaceNode": 63}, "geometry": {"type": "Point", "coordinates": [69.89351393800007, 80.44286082100007]}}, {"type": "Feature", "properties": {"OBJECTID": 32, "PlaceNode": 14}, "geometry": {"type": "Point", "coordinates": [72.88576507600004, 75.76775702600008]}}, {"type": "Feature", "properties": {"OBJECTID": 33, "PlaceNode": 68}, "geometry": {"type": "Point", "coordinates": [70.09242377300006, 73.97340246300007]}}, {"type": "Feature", "properties": {"OBJECTID": 34, "PlaceNode": 69}, "geometry": {"type": "Point", "coordinates": [70.00192507300005, 72.34330669500008]}}, {"type": "Feature", "properties": {"OBJECTID": 35, "PlaceNode": 70}, "geometry": {"type": "Point", "coordinates": [70.02941811800008, 67.26015535200008]}}, {"type": "Feature", "properties": {"OBJECTID": 36, "PlaceNode": 71}, "geometry": {"type": "Point", "coordinates": [70.05659895400004, 65.60212435500006]}}, {"type": "Feature", "properties": {"OBJECTID": 37, "PlaceNode": 15}, "geometry": {"type": "Point", "coordinates": [72.88576507600004, 64.89542261800005]}}, {"type": "Feature", "properties": {"OBJECTID": 38, "PlaceNode": 55}, "geometry": {"type": "Point", "coordinates": [72.91058673600008, 63.80818917700003]}}, {"type": "Feature", "properties": {"OBJECTID": 39, "PlaceNode": 13}, "geometry": {"type": "Point", "coordinates": [72.87185720400004, 61.33470682700005]}}, {"type": "Feature", "properties": {"OBJECTID": 40, "PlaceNode": 72}, "geometry": {"type": "Point", "coordinates": [70.18091418800003, 60.43830783800007]}}, {"type": "Feature", "properties": {"OBJECTID": 41, "PlaceNode": 73}, "geometry": {"type": "Point", "coordinates": [70.18826158400003, 58.75268165600005]}}, {"type": "Feature", "properties": {"OBJECTID": 42, "PlaceNode": 87}, "geometry": {"type": "Point", "coordinates": [71.58267086800004, 56.05958710200008]}}, {"type": "Feature", "properties": {"OBJECTID": 43, "PlaceNode": 57}, "geometry": {"type": "Point", "coordinates": [67.61059868100006, 83.28803935200006]}}, {"type": "Feature", "properties": {"OBJECTID": 44, "PlaceNode": 56}, "geometry": {"type": "Point", "coordinates": [66.78012878500004, 81.67244345200004]}}, {"type": "Feature", "properties": {"OBJECTID": 45, "PlaceNode": 34}, "geometry": {"type": "Point", "coordinates": [123.09711839700003, 68.22005211300007]}}, {"type": "Feature", "properties": {"OBJECTID": 46, "PlaceNode": 33}, "geometry": {"type": "Point", "coordinates": [123.09221041900003, 66.70918789500007]}}, {"type": "Feature", "properties": {"OBJECTID": 47, "PlaceNode": 32}, "geometry": {"type": "Point", "coordinates": [123.09999998, 62.32231898900005]}}, {"type": "Feature", "properties": {"OBJECTID": 48, "PlaceNode": 31}, "geometry": {"type": "Point", "coordinates": [123.10070718700001, 60.81163109700003]}}, {"type": "Feature", "properties": {"OBJECTID": 49, "PlaceNode": 30}, "geometry": {"type": "Point", "coordinates": [123.07283953000001, 56.51198440600007]}}, {"type": "Feature", "properties": {"OBJECTID": 50, "PlaceNode": 29}, "geometry": {"type": "Point", "coordinates": [123.06978678500002, 54.79739662700007]}}, {"type": "Feature", "properties": {"OBJECTID": 51, "PlaceNode": 28}, "geometry": {"type": "Point", "coordinates": [123.09446205400002, 50.555680162000044]}}, {"type": "Feature", "properties": {"OBJECTID": 52, "PlaceNode": 27}, "geometry": {"type": "Point", "coordinates": [123.03203463400007, 48.957848074000026]}}, {"type": "Feature", "properties": {"OBJECTID": 53, "PlaceNode": 10}, "geometry": {"type": "Point", "coordinates": [120.60704251200002, 46.95315192100003]}}, {"type": "Feature", "properties": {"OBJECTID": 54, "PlaceNode": 26}, "geometry": {"type": "Point", "coordinates": [123.12533699700009, 46.023358821000045]}}, {"type": "Feature", "properties": {"OBJECTID": 55, "PlaceNode": 19}, "geometry": {"type": "Point", "coordinates": [120.49578031300007, 37.53882191200006]}}, {"type": "Feature", "properties": {"OBJECTID": 56, "PlaceNode": 4}, "geometry": {"type": "Point", "coordinates": [123.0252089060001, 33.42966905600008]}}, {"type": "Feature", "properties": {"OBJECTID": 57, "PlaceNode": 136}, "geometry": {"type": "Point", "coordinates": [119.03126146900001, 31.56199579400004]}}, {"type": "Feature", "properties": {"OBJECTID": 58, "PlaceNode": 21}, "geometry": {"type": "Point", "coordinates": [118.45640077700011, 35.46974299200008]}}, {"type": "Feature", "properties": {"OBJECTID": 59, "PlaceNode": 19}, "geometry": {"type": "Point", "coordinates": [116.021297376, 37.25206635100005]}}, {"type": "Feature", "properties": {"OBJECTID": 60, "PlaceNode": 20}, "geometry": {"type": "Point", "coordinates": [115.26709584000002, 36.21168808700003]}}, {"type": "Feature", "properties": {"OBJECTID": 61, "PlaceNode": 17}, "geometry": {"type": "Point", "coordinates": [110.00871443300008, 31.50350409500004]}}, {"type": "Feature", "properties": {"OBJECTID": 62, "PlaceNode": 74}, "geometry": {"type": "Point", "coordinates": [115.78438333600002, 28.43005140100007]}}, {"type": "Feature", "properties": {"OBJECTID": 63, "PlaceNode": 3}, "geometry": {"type": "Point", "coordinates": [109.17569333200004, 28.37258453100003]}}, {"type": "Feature", "properties": {"OBJECTID": 64, "PlaceNode": 88}, "geometry": {"type": "Point", "coordinates": [106.90573909400007, 31.503143961000035]}}, {"type": "Feature", "properties": {"OBJECTID": 65, "PlaceNode": 2}, "geometry": {"type": "Point", "coordinates": [100.75932038700006, 28.419014102000062]}}, {"type": "Feature", "properties": {"OBJECTID": 66, "PlaceNode": 75}, "geometry": {"type": "Point", "coordinates": [117.47970637900005, 21.160873566000078]}}, {"type": "Feature", "properties": {"OBJECTID": 67, "PlaceNode": 75}, "geometry": {"type": "Point", "coordinates": [117.43808305700009, 18.028718627000046]}}, {"type": "Feature", "properties": {"OBJECTID": 68, "PlaceNode": 75}, "geometry": {"type": "Point", "coordinates": [117.39951391400007, 15.126390580000077]}}, {"type": "Feature", "properties": {"OBJECTID": 69, "PlaceNode": 76}, "geometry": {"type": "Point", "coordinates": [121.15657358500005, 13.798447704000068]}}, {"type": "Feature", "properties": {"OBJECTID": 70, "PlaceNode": 78}, "geometry": {"type": "Point", "coordinates": [124.59254219400009, 15.298537062000037]}}, {"type": "Feature", "properties": {"OBJECTID": 71, "PlaceNode": 80}, "geometry": {"type": "Point", "coordinates": [124.59021158600001, 23.918902137000032]}}, {"type": "Feature", "properties": {"OBJECTID": 72, "PlaceNode": 140}, "geometry": {"type": "Point", "coordinates": [161.93908356400004, 28.161277297000026]}}, {"type": "Feature", "properties": {"OBJECTID": 73, "PlaceNode": 81}, "geometry": {"type": "Point", "coordinates": [164.50142520600002, 28.354593156000078]}}, {"type": "Feature", "properties": {"OBJECTID": 74, "PlaceNode": 83}, "geometry": {"type": "Point", "coordinates": [164.008966707, 31.506517391000045]}}, {"type": "Feature", "properties": {"OBJECTID": 75, "PlaceNode": 84}, "geometry": {"type": "Point", "coordinates": [165.47016838500008, 31.476510395000048]}}, {"type": "Feature", "properties": {"OBJECTID": 76, "PlaceNode": 12}, "geometry": {"type": "Point", "coordinates": [166.67573421600002, 29.95741208800007]}}, {"type": "Feature", "properties": {"OBJECTID": 77, "PlaceNode": 85}, "geometry": {"type": "Point", "coordinates": [163.30864417100008, 34.22108224700003]}}, {"type": "Feature", "properties": {"OBJECTID": 78, "PlaceNode": 16}, "geometry": {"type": "Point", "coordinates": [163.26351178100003, 42.55521193200008]}}, {"type": "Feature", "properties": {"OBJECTID": 79, "PlaceNode": 22}, "geometry": {"type": "Point", "coordinates": [160.7696378160001, 42.87118139900008]}}, {"type": "Feature", "properties": {"OBJECTID": 80, "PlaceNode": 23}, "geometry": {"type": "Point", "coordinates": [160.88478590300008, 45.83364958300007]}}, {"type": "Feature", "properties": {"OBJECTID": 81, "PlaceNode": 24}, "geometry": {"type": "Point", "coordinates": [160.91904703600005, 48.91412971500006]}}, {"type": "Feature", "properties": {"OBJECTID": 82, "PlaceNode": 25}, "geometry": {"type": "Point", "coordinates": [160.9276361190001, 51.83758510300004]}}, {"type": "Feature", "properties": {"OBJECTID": 83, "PlaceNode": 16}, "geometry": {"type": "Point", "coordinates": [163.21984501000009, 51.24489917400007]}}, {"type": "Feature", "properties": {"OBJECTID": 84, "PlaceNode": 6}, "geometry": {"type": "Point", "coordinates": [157.9256420580001, 31.597375243000045]}}, {"type": "Feature", "properties": {"OBJECTID": 85, "PlaceNode": 6}, "geometry": {"type": "Point", "coordinates": [149.03824905500005, 31.587244037000062]}}, {"type": "Feature", "properties": {"OBJECTID": 86, "PlaceNode": 5}, "geometry": {"type": "Point", "coordinates": [145.8781308330001, 31.486782360000063]}}, {"type": "Feature", "properties": {"OBJECTID": 87, "PlaceNode": 5}, "geometry": {"type": "Point", "coordinates": [136.991041246, 31.660860382000067]}}, {"type": "Feature", "properties": {"OBJECTID": 88, "PlaceNode": 4}, "geometry": {"type": "Point", "coordinates": [135.01600210200002, 31.686276602000078]}}, {"type": "Feature", "properties": {"OBJECTID": 89, "PlaceNode": 1}, "geometry": {"type": "Point", "coordinates": [88.96542624700004, 28.453508241000065]}}, {"type": "Feature", "properties": {"OBJECTID": 90, "PlaceNode": 89}, "geometry": {"type": "Point", "coordinates": [90.17791051400008, 33.65626151200007]}}, {"type": "Feature", "properties": {"OBJECTID": 91, "PlaceNode": 90}, "geometry": {"type": "Point", "coordinates": [90.25974808300003, 38.373970952000036]}}, {"type": "Feature", "properties": {"OBJECTID": 92, "PlaceNode": 91}, "geometry": {"type": "Point", "coordinates": [85.90718581600004, 31.621883326000045]}}, {"type": "Feature", "properties": {"OBJECTID": 93, "PlaceNode": 91}, "geometry": {"type": "Point", "coordinates": [79.26254420900005, 31.589765077000038]}}, {"type": "Feature", "properties": {"OBJECTID": 94, "PlaceNode": 96}, "geometry": {"type": "Point", "coordinates": [78.53722150600004, 28.451532840000027]}}, {"type": "Feature", "properties": {"OBJECTID": 95, "PlaceNode": 97}, "geometry": {"type": "Point", "coordinates": [83.26690800900008, 28.39178682200003]}}, {"type": "Feature", "properties": {"OBJECTID": 96, "PlaceNode": 95}, "geometry": {"type": "Point", "coordinates": [70.67385016700007, 28.45477317700005]}}, {"type": "Feature", "properties": {"OBJECTID": 97, "PlaceNode": 107}, "geometry": {"type": "Point", "coordinates": [65.53804342500007, 29.05463149600007]}}, {"type": "Feature", "properties": {"OBJECTID": 98, "PlaceNode": 92}, "geometry": {"type": "Point", "coordinates": [62.81091024700004, 31.20765860800003]}}, {"type": "Feature", "properties": {"OBJECTID": 99, "PlaceNode": 106}, "geometry": {"type": "Point", "coordinates": [61.41777601200005, 29.083647464000023]}}, {"type": "Feature", "properties": {"OBJECTID": 100, "PlaceNode": 108}, "geometry": {"type": "Point", "coordinates": [61.795852195000066, 25.551513775000046]}}, {"type": "Feature", "properties": {"OBJECTID": 101, "PlaceNode": 105}, "geometry": {"type": "Point", "coordinates": [59.35762334900005, 29.543296273000067]}}, {"type": "Feature", "properties": {"OBJECTID": 102, "PlaceNode": 105}, "geometry": {"type": "Point", "coordinates": [55.61462690400003, 29.55869955000003]}}, {"type": "Feature", "properties": {"OBJECTID": 103, "PlaceNode": 93}, "geometry": {"type": "Point", "coordinates": [52.132686498000055, 31.14678829500008]}}, {"type": "Feature", "properties": {"OBJECTID": 104, "PlaceNode": 99}, "geometry": {"type": "Point", "coordinates": [74.12622000300007, 21.561576600000024]}}, {"type": "Feature", "properties": {"OBJECTID": 105, "PlaceNode": 98}, "geometry": {"type": "Point", "coordinates": [81.50132952100006, 15.907373375000077]}}, {"type": "Feature", "properties": {"OBJECTID": 106, "PlaceNode": 104}, "geometry": {"type": "Point", "coordinates": [69.38881995500003, 16.111386094000068]}}, {"type": "Feature", "properties": {"OBJECTID": 107, "PlaceNode": 100}, "geometry": {"type": "Point", "coordinates": [70.92199488200004, 18.701395126000023]}}, {"type": "Feature", "properties": {"OBJECTID": 108, "PlaceNode": 108}, "geometry": {"type": "Point", "coordinates": [61.18564827100005, 18.02856377200004]}}, {"type": "Feature", "properties": {"OBJECTID": 109, "PlaceNode": 104}, "geometry": {"type": "Point", "coordinates": [61.10287654700005, 15.337070034000021]}}, {"type": "Feature", "properties": {"OBJECTID": 110, "PlaceNode": 114}, "geometry": {"type": "Point", "coordinates": [59.06756444900003, 18.91472503600005]}}, {"type": "Feature", "properties": {"OBJECTID": 111, "PlaceNode": 109}, "geometry": {"type": "Point", "coordinates": [57.00734892300005, 14.605907523000042]}}, {"type": "Feature", "properties": {"OBJECTID": 112, "PlaceNode": 110}, "geometry": {"type": "Point", "coordinates": [54.94710941800008, 14.613241205000065]}}, {"type": "Feature", "properties": {"OBJECTID": 113, "PlaceNode": 111}, "geometry": {"type": "Point", "coordinates": [49.31740797100008, 14.865069593000044]}}, {"type": "Feature", "properties": {"OBJECTID": 114, "PlaceNode": 112}, "geometry": {"type": "Point", "coordinates": [50.04365146500004, 15.920462393000037]}}, {"type": "Feature", "properties": {"OBJECTID": 115, "PlaceNode": 113}, "geometry": {"type": "Point", "coordinates": [50.796389573000056, 18.028552756000067]}}, {"type": "Feature", "properties": {"OBJECTID": 116, "PlaceNode": 114}, "geometry": {"type": "Point", "coordinates": [52.86662289600008, 22.583965379000063]}}, {"type": "Feature", "properties": {"OBJECTID": 117, "PlaceNode": 139}, "geometry": {"type": "Point", "coordinates": [49.24271858600008, 27.79160641900006]}}, {"type": "Feature", "properties": {"OBJECTID": 118, "PlaceNode": 116}, "geometry": {"type": "Point", "coordinates": [50.20489536600007, 30.33429147800007]}}, {"type": "Feature", "properties": {"OBJECTID": 119, "PlaceNode": 138}, "geometry": {"type": "Point", "coordinates": [45.46853441500008, 28.582840599000065]}}, {"type": "Feature", "properties": {"OBJECTID": 120, "PlaceNode": 117}, "geometry": {"type": "Point", "coordinates": [44.40220849800005, 30.067753570000036]}}, {"type": "Feature", "properties": {"OBJECTID": 121, "PlaceNode": 122}, "geometry": {"type": "Point", "coordinates": [40.08264557800004, 30.09783266100004]}}, {"type": "Feature", "properties": {"OBJECTID": 122, "PlaceNode": 121}, "geometry": {"type": "Point", "coordinates": [37.247214875000054, 34.435248460000025]}}, {"type": "Feature", "properties": {"OBJECTID": 123, "PlaceNode": 120}, "geometry": {"type": "Point", "coordinates": [33.134324897000056, 35.561084348000065]}}, {"type": "Feature", "properties": {"OBJECTID": 124, "PlaceNode": 123}, "geometry": {"type": "Point", "coordinates": [29.259516802000064, 34.62741753100005]}}, {"type": "Feature", "properties": {"OBJECTID": 125, "PlaceNode": 124}, "geometry": {"type": "Point", "coordinates": [27.486061199000062, 33.80374900600003]}}, {"type": "Feature", "properties": {"OBJECTID": 126, "PlaceNode": 127}, "geometry": {"type": "Point", "coordinates": [22.65249188200005, 30.864426270000024]}}, {"type": "Feature", "properties": {"OBJECTID": 127, "PlaceNode": 134}, "geometry": {"type": "Point", "coordinates": [22.652301313000066, 32.62114371100006]}}, {"type": "Feature", "properties": {"OBJECTID": 128, "PlaceNode": 132}, "geometry": {"type": "Point", "coordinates": [21.668688099000065, 32.60702273700008]}}, {"type": "Feature", "properties": {"OBJECTID": 129, "PlaceNode": 131}, "geometry": {"type": "Point", "coordinates": [8.575790251000058, 35.38903748100006]}}, {"type": "Feature", "properties": {"OBJECTID": 130, "PlaceNode": 128}, "geometry": {"type": "Point", "coordinates": [8.111764307000044, 29.472144435000075]}}, {"type": "Feature", "properties": {"OBJECTID": 131, "PlaceNode": 125}, "geometry": {"type": "Point", "coordinates": [9.473668777000057, 27.655512574000056]}}, {"type": "Feature", "properties": {"OBJECTID": 132, "PlaceNode": 129}, "geometry": {"type": "Point", "coordinates": [9.577295523000032, 31.327377212000044]}}, {"type": "Feature", "properties": {"OBJECTID": 133, "PlaceNode": 127}, "geometry": {"type": "Point", "coordinates": [13.546239167000067, 29.18558427800008]}}, {"type": "Feature", "properties": {"OBJECTID": 134, "PlaceNode": 126}, "geometry": {"type": "Point", "coordinates": [16.81051420800003, 22.464682975000073]}}, {"type": "Feature", "properties": {"OBJECTID": 135, "PlaceNode": 125}, "geometry": {"type": "Point", "coordinates": [12.733591189000038, 16.933057333000022]}}, {"type": "Feature", "properties": {"OBJECTID": 136, "PlaceNode": 130}, "geometry": {"type": "Point", "coordinates": [21.28934328500003, 16.944648726000025]}}, {"type": "Feature", "properties": {"OBJECTID": 137, "PlaceNode": 133}, "geometry": {"type": "Point", "coordinates": [21.260806526000067, 13.439400976000059]}}, {"type": "Feature", "properties": {"OBJECTID": 138, "PlaceNode": 77}, "geometry": {"type": "Point", "coordinates": [123.31251285600001, 13.833990499000038]}}, {"type": "Feature", "properties": {"OBJECTID": 139, "PlaceNode": 94}, "geometry": {"type": "Point", "coordinates": [124.56582710900011, 19.906007059000046]}}, {"type": "Feature", "properties": {"OBJECTID": 140, "PlaceNode": 11}, "geometry": {"type": "Point", "coordinates": [127.35637712400012, 24.029698540000027]}}, {"type": "Feature", "properties": {"OBJECTID": 141, "PlaceNode": 89}, "geometry": {"type": "Point", "coordinates": [96.37520746400008, 32.85695552400006]}}, {"type": "Feature", "properties": {"OBJECTID": 142, "PlaceNode": 90}, "geometry": {"type": "Point", "coordinates": [96.20731791600008, 38.212656227000025]}}, {"type": "Feature", "properties": {"OBJECTID": 143, "PlaceNode": 9}, "geometry": {"type": "Point", "coordinates": [120.5272342400001, 59.19438376100004]}}, {"type": "Feature", "properties": {"OBJECTID": 144, "PlaceNode": 35}, "geometry": {"type": "Point", "coordinates": [114.06926772300005, 80.49029984600008]}}, {"type": "Feature", "properties": {"OBJECTID": 145, "PlaceNode": 58}, "geometry": {"type": "Point", "coordinates": [70.39898870700006, 85.16690544800008]}}, {"type": "Feature", "properties": {"OBJECTID": 146, "PlaceNode": 59}, "geometry": {"type": "Point", "coordinates": [74.21296497600008, 85.15612697700004]}}, {"type": "Feature", "properties": {"OBJECTID": 147, "PlaceNode": 60}, "geometry": {"type": "Point", "coordinates": [79.05787660300007, 85.14243503500006]}}, {"type": "Feature", "properties": {"OBJECTID": 148, "PlaceNode": 93}, "geometry": {"type": "Point", "coordinates": [56.873809659000074, 38.94407276800007]}}, {"type": "Feature", "properties": {"OBJECTID": 149, "PlaceNode": 102}, "geometry": {"type": "Point", "coordinates": [71.37413362300003, 24.843092128000023]}}, {"type": "Feature", "properties": {"OBJECTID": 150, "PlaceNode": 101}, "geometry": {"type": "Point", "coordinates": [70.87378034000005, 21.484306394000043]}}, {"type": "Feature", "properties": {"OBJECTID": 151, "PlaceNode": 103}, "geometry": {"type": "Point", "coordinates": [72.54437879700004, 20.005550749000065]}}, {"type": "Feature", "properties": {"OBJECTID": 152, "PlaceNode": 141}, "geometry": {"type": "Point", "coordinates": [80.80054614000005, 28.442622113000027]}}, {"type": "Feature", "properties": {"OBJECTID": 153, "PlaceNode": 18}, "geometry": {"type": "Point", "coordinates": [108.86852106200007, 39.00401210500007]}}, {"type": "Feature", "properties": {"OBJECTID": 154, "PlaceNode": 79}, "geometry": {"type": "Point", "coordinates": [125.07956108300004, 25.406838781000033]}}, {"type": "Feature", "properties": {"OBJECTID": 155, "PlaceNode": 82}, "geometry": {"type": "Point", "coordinates": [164.95831530500004, 38.911065688000065]}}, {"type": "Feature", "properties": {"OBJECTID": 156, "PlaceNode": 86}, "geometry": {"type": "Point", "coordinates": [163.228981803, 39.698726118000025]}}, {"type": "Feature", "properties": {"OBJECTID": 157, "PlaceNode": 115}, "geometry": {"type": "Point", "coordinates": [52.35525719300006, 17.018997527000067]}}, {"type": "Feature", "properties": {"OBJECTID": 158, "PlaceNode": 118}, "geometry": {"type": "Point", "coordinates": [43.528845637000074, 37.52830629500005]}}, {"type": "Feature", "properties": {"OBJECTID": 159, "PlaceNode": 119}, "geometry": {"type": "Point", "coordinates": [40.79006420700006, 35.045728078000025]}}, {"type": "Feature", "properties": {"OBJECTID": 160, "PlaceNode": 137}, "geometry": {"type": "Point", "coordinates": [120.51947812800006, 73.08509477700005]}}, {"type": "Feature", "properties": {"OBJECTID": 161, "PlaceNode": 142}, "geometry": {"type": "Point", "coordinates": [123.26768982171131, 88.30830330034127]}}]}