{"type": "FeatureCollection", "features": [{"type": "Feature", "properties": {"OBJECTID": 1, "FID_D_Leve": 85, "SHAPE_Leng": 1.20720468121}, "geometry": {"type": "LineString", "coordinates": [[16.043358383000054, 9.720889140000054], [16.04045573919702, 7.7874399097837905]]}}, {"type": "Feature", "properties": {"OBJECTID": 2, "FID_D_Leve": 133, "SHAPE_Leng": 1.96658724508}, "geometry": {"type": "LineString", "coordinates": [[16.043358383000054, 9.720889140000054], [18.009835098000053, 9.70003915500007]]}}, {"type": "Feature", "properties": {"OBJECTID": 3, "FID_D_Leve": 132, "SHAPE_Leng": 1.09664014279}, "geometry": {"type": "LineString", "coordinates": [[10.305495015000076, 10.64044926400004], [10.176422356000046, 9.551431426000022]]}}, {"type": "Feature", "properties": {"OBJECTID": 4, "FID_D_Leve": 85, "SHAPE_Leng": 2.99210955321}, "geometry": {"type": "LineString", "coordinates": [[10.305495015000076, 10.64044926400004], [13.297435269000061, 10.67227841600004]]}}, {"type": "Feature", "properties": {"OBJECTID": 5, "FID_D_Leve": 85, "SHAPE_Leng": 1.97437704498}, "geometry": {"type": "LineString", "coordinates": [[13.297435269000061, 10.67227841600004], [15.271700600000031, 10.693281239000044]]}}, {"type": "Feature", "properties": {"OBJECTID": 6, "FID_D_Leve": 85, "SHAPE_Leng": 1.72515869815}, "geometry": {"type": "LineString", "coordinates": [[15.271700600000031, 10.693281239000044], [16.01612750700002, 10.701200674000063], [16.043358383000054, 9.720889140000054]]}}, {"type": "Feature", "properties": {"OBJECTID": 7, "FID_D_Leve": 109, "SHAPE_Leng": 2.7882432787}, "geometry": {"type": "LineString", "coordinates": [[54.28253527700008, 11.432447617000037], [54.34495831300006, 9.617875221000077], [53.37246032500008, 9.631787393000025]]}}, {"type": "Feature", "properties": {"OBJECTID": 8, "FID_D_Leve": 134, "SHAPE_Leng": 0.887197855968}, "geometry": {"type": "LineString", "coordinates": [[15.271700600000031, 10.693281239000044], [15.229376614000046, 11.579468982000037]]}}, {"type": "Feature", "properties": {"OBJECTID": 9, "FID_D_Leve": 131, "SHAPE_Leng": 0.944379449461}, "geometry": {"type": "LineString", "coordinates": [[13.297435269000061, 10.67227841600004], [13.297697691000053, 11.616657829000076]]}}, {"type": "Feature", "properties": {"OBJECTID": 10, "FID_D_Leve": 86, "SHAPE_Leng": 2.40624598569}, "geometry": {"type": "LineString", "coordinates": [[54.28253527700008, 11.432447617000037], [55.95534751900004, 11.432447617000037], [55.948295597000026, 12.16584745800003]]}}, {"type": "Feature", "properties": {"OBJECTID": 11, "FID_D_Leve": 108, "SHAPE_Leng": 2.41182807253}, "geometry": {"type": "LineString", "coordinates": [[55.948295597000026, 12.16584745800003], [58.359818493000034, 12.12748115100004]]}}, {"type": "Feature", "properties": {"OBJECTID": 12, "FID_D_Leve": 97, "SHAPE_Leng": 1.93448010948}, "geometry": {"type": "LineString", "coordinates": [[47.71598018600008, 12.481892002000052], [47.73892144200005, 10.547547929000075]]}}, {"type": "Feature", "properties": {"OBJECTID": 13, "FID_D_Leve": 97, "SHAPE_Leng": 0.970787895858}, "geometry": {"type": "LineString", "coordinates": [[48.686768080000036, 12.481831932000034], [47.71598018600008, 12.481892002000052]]}}, {"type": "Feature", "properties": {"OBJECTID": 14, "FID_D_Leve": 96, "SHAPE_Leng": 0.779051473361}, "geometry": {"type": "LineString", "coordinates": [[49.46578001600005, 12.489680608000072], [48.686768080000036, 12.481831932000034]]}}, {"type": "Feature", "properties": {"OBJECTID": 15, "FID_D_Leve": 86, "SHAPE_Leng": 5.85234072233}, "geometry": {"type": "LineString", "coordinates": [[49.46578001600005, 12.489680608000072], [49.48765380200007, 11.432447617000037], [54.28253527700008, 11.432447617000037]]}}, {"type": "Feature", "properties": {"OBJECTID": 16, "FID_D_Leve": 98, "SHAPE_Leng": 4.19963580105}, "geometry": {"type": "LineString", "coordinates": [[47.71598018600008, 12.481892002000052], [45.513949807000074, 12.497196530000053], [45.55221424700005, 10.500010816000042]]}}, {"type": "Feature", "properties": {"OBJECTID": 17, "FID_D_Leve": 166, "SHAPE_Leng": 1.11089069354}, "geometry": {"type": "LineString", "coordinates": [[160.05064254900003, 12.903850220000038], [160.10694258400008, 11.794387089000054]]}}, {"type": "Feature", "properties": {"OBJECTID": 18, "FID_D_Leve": 167, "SHAPE_Leng": 1.01730214505}, "geometry": {"type": "LineString", "coordinates": [[156.49666334100004, 12.922551397000063], [156.49679902200012, 11.905249261000051]]}}, {"type": "Feature", "properties": {"OBJECTID": 19, "FID_D_Leve": 140, "SHAPE_Leng": 3.55402841082}, "geometry": {"type": "LineString", "coordinates": [[160.05064254900003, 12.903850220000038], [156.49666334100004, 12.922551397000063]]}}, {"type": "Feature", "properties": {"OBJECTID": 20, "FID_D_Leve": 168, "SHAPE_Leng": 1.11643327796}, "geometry": {"type": "LineString", "coordinates": [[153.2647149280001, 12.93955803600005], [153.29378026000006, 11.82350316700007]]}}, {"type": "Feature", "properties": {"OBJECTID": 21, "FID_D_Leve": 140, "SHAPE_Leng": 3.23199315749}, "geometry": {"type": "LineString", "coordinates": [[156.49666334100004, 12.922551397000063], [153.2647149280001, 12.93955803600005]]}}, {"type": "Feature", "properties": {"OBJECTID": 22, "FID_D_Leve": 169, "SHAPE_Leng": 1.08402377251}, "geometry": {"type": "LineString", "coordinates": [[150.20761135400005, 12.955644635000056], [150.1785557510001, 11.872010328000044]]}}, {"type": "Feature", "properties": {"OBJECTID": 23, "FID_D_Leve": 140, "SHAPE_Leng": 3.05714589786}, "geometry": {"type": "LineString", "coordinates": [[153.2647149280001, 12.93955803600005], [150.20761135400005, 12.955644635000056]]}}, {"type": "Feature", "properties": {"OBJECTID": 24, "FID_D_Leve": 140, "SHAPE_Leng": 1.60424294952}, "geometry": {"type": "LineString", "coordinates": [[150.20761135400005, 12.955644635000056], [148.6033906140001, 12.964086107000071]]}}, {"type": "Feature", "properties": {"OBJECTID": 25, "FID_D_Leve": 170, "SHAPE_Leng": 1.04112293101}, "geometry": {"type": "LineString", "coordinates": [[146.88831712500007, 12.973110891000033], [146.91781288900006, 11.932405862000053]]}}, {"type": "Feature", "properties": {"OBJECTID": 26, "FID_D_Leve": 140, "SHAPE_Leng": 1.71509723322}, "geometry": {"type": "LineString", "coordinates": [[148.6033906140001, 12.964086107000071], [146.88831712500007, 12.973110891000033]]}}, {"type": "Feature", "properties": {"OBJECTID": 27, "FID_D_Leve": 171, "SHAPE_Leng": 1.14108540101}, "geometry": {"type": "LineString", "coordinates": [[143.8892908900001, 12.988891884000054], [143.8892869670001, 11.847806483000056]]}}, {"type": "Feature", "properties": {"OBJECTID": 28, "FID_D_Leve": 140, "SHAPE_Leng": 2.99906775481}, "geometry": {"type": "LineString", "coordinates": [[146.88831712500007, 12.973110891000033], [143.8892908900001, 12.988891884000054]]}}, {"type": "Feature", "properties": {"OBJECTID": 29, "FID_D_Leve": 140, "SHAPE_Leng": 3.08626157295}, "geometry": {"type": "LineString", "coordinates": [[143.8892908900001, 12.988891884000054], [140.80307204400003, 13.005131688000063]]}}, {"type": "Feature", "properties": {"OBJECTID": 30, "FID_D_Leve": 172, "SHAPE_Leng": 1.29979567175}, "geometry": {"type": "LineString", "coordinates": [[140.54103459500004, 13.006510539000033], [140.57005404000006, 11.707038854000075]]}}, {"type": "Feature", "properties": {"OBJECTID": 31, "FID_D_Leve": 140, "SHAPE_Leng": 0.262041076758}, "geometry": {"type": "LineString", "coordinates": [[140.80307204400003, 13.005131688000063], [140.54103459500004, 13.006510539000033]]}}, {"type": "Feature", "properties": {"OBJECTID": 32, "FID_D_Leve": 140, "SHAPE_Leng": 2.06736614911}, "geometry": {"type": "LineString", "coordinates": [[140.54103459500004, 13.006510539000033], [138.4736970670001, 13.017388950000054]]}}, {"type": "Feature", "properties": {"OBJECTID": 33, "FID_D_Leve": 175, "SHAPE_Leng": 1.22870976746}, "geometry": {"type": "LineString", "coordinates": [[137.45466254300004, 13.022751149000044], [137.4255175820001, 11.794387089000054]]}}, {"type": "Feature", "properties": {"OBJECTID": 34, "FID_D_Leve": 140, "SHAPE_Leng": 1.01904863195}, "geometry": {"type": "LineString", "coordinates": [[138.4736970670001, 13.017388950000054], [137.45466254300004, 13.022751149000044]]}}, {"type": "Feature", "properties": {"OBJECTID": 35, "FID_D_Leve": 176, "SHAPE_Leng": 1.21579420353}, "geometry": {"type": "LineString", "coordinates": [[134.31021315200007, 13.039297365000039], [134.31009720300005, 11.82350316700007]]}}, {"type": "Feature", "properties": {"OBJECTID": 36, "FID_D_Leve": 140, "SHAPE_Leng": 3.14449292412}, "geometry": {"type": "LineString", "coordinates": [[137.45466254300004, 13.022751149000044], [134.31021315200007, 13.039297365000039]]}}, {"type": "Feature", "properties": {"OBJECTID": 37, "FID_D_Leve": 177, "SHAPE_Leng": 1.34895873895}, "geometry": {"type": "LineString", "coordinates": [[131.13649528400003, 13.05599759200004], [131.13644466800008, 11.707038854000075]]}}, {"type": "Feature", "properties": {"OBJECTID": 38, "FID_D_Leve": 140, "SHAPE_Leng": 3.17376180632}, "geometry": {"type": "LineString", "coordinates": [[134.31021315200007, 13.039297365000039], [131.13649528400003, 13.05599759200004]]}}, {"type": "Feature", "properties": {"OBJECTID": 39, "FID_D_Leve": 178, "SHAPE_Leng": 1.23139841929}, "geometry": {"type": "LineString", "coordinates": [[127.99189268800001, 13.072544614000037], [127.99178993200007, 11.841146199000036]]}}, {"type": "Feature", "properties": {"OBJECTID": 40, "FID_D_Leve": 140, "SHAPE_Leng": 3.14464613124}, "geometry": {"type": "LineString", "coordinates": [[131.13649528400003, 13.05599759200004], [127.99189268800001, 13.072544614000037]]}}, {"type": "Feature", "properties": {"OBJECTID": 41, "FID_D_Leve": 180, "SHAPE_Leng": 1.0552803895}, "geometry": {"type": "LineString", "coordinates": [[125.02441976800003, 13.088159572000052], [123.97388940400003, 12.98814629900005]]}}, {"type": "Feature", "properties": {"OBJECTID": 42, "FID_D_Leve": 179, "SHAPE_Leng": 1.21866117164}, "geometry": {"type": "LineString", "coordinates": [[125.02441976800003, 13.088159572000052], [124.99312876300007, 11.869900189000077]]}}, {"type": "Feature", "properties": {"OBJECTID": 43, "FID_D_Leve": 140, "SHAPE_Leng": 2.96751400297}, "geometry": {"type": "LineString", "coordinates": [[127.99189268800001, 13.072544614000037], [125.02441976800003, 13.088159572000052]]}}, {"type": "Feature", "properties": {"OBJECTID": 44, "FID_D_Leve": 140, "SHAPE_Leng": 0.463045881636}, "geometry": {"type": "LineString", "coordinates": [[160.04681584000002, 13.36688028900005], [160.05064254900003, 12.903850220000038]]}}, {"type": "Feature", "properties": {"OBJECTID": 45, "FID_D_Leve": 165, "SHAPE_Leng": 1.08348819266}, "geometry": {"type": "LineString", "coordinates": [[160.04681584000002, 13.36688028900005], [161.13030336300005, 13.365675658000043]]}}, {"type": "Feature", "properties": {"OBJECTID": 46, "FID_D_Leve": 103, "SHAPE_Leng": 0.61219530069}, "geometry": {"type": "LineString", "coordinates": [[68.88021732200008, 13.48154478300006], [68.89941490700005, 12.869650561000071]]}}, {"type": "Feature", "properties": {"OBJECTID": 47, "FID_D_Leve": 87, "SHAPE_Leng": 2.85854041201}, "geometry": {"type": "LineString", "coordinates": [[68.88021732200008, 13.48154478300006], [71.73873824400005, 13.492100616000073]]}}, {"type": "Feature", "properties": {"OBJECTID": 48, "FID_D_Leve": 105, "SHAPE_Leng": 0.669771207}, "geometry": {"type": "LineString", "coordinates": [[71.73873824400005, 13.492100616000073], [71.73873851700006, 12.822329409000076]]}}, {"type": "Feature", "properties": {"OBJECTID": 49, "FID_D_Leve": 87, "SHAPE_Leng": 3.24138650233}, "geometry": {"type": "LineString", "coordinates": [[71.73873824400005, 13.492100616000073], [74.98010264600003, 13.504070199000068]]}}, {"type": "Feature", "properties": {"OBJECTID": 50, "FID_D_Leve": 106, "SHAPE_Leng": 0.730303920603}, "geometry": {"type": "LineString", "coordinates": [[74.98010264600003, 13.504070199000068], [74.99270038800006, 12.773874942000077]]}}, {"type": "Feature", "properties": {"OBJECTID": 51, "FID_D_Leve": 87, "SHAPE_Leng": 2.26132131707}, "geometry": {"type": "LineString", "coordinates": [[74.98010264600003, 13.504070199000068], [77.24140854500007, 13.512420660000032]]}}, {"type": "Feature", "properties": {"OBJECTID": 52, "FID_D_Leve": 107, "SHAPE_Leng": 0.745827282115}, "geometry": {"type": "LineString", "coordinates": [[77.24140854500007, 13.512420660000032], [77.25400578500006, 12.766699771000049]]}}, {"type": "Feature", "properties": {"OBJECTID": 53, "FID_D_Leve": 87, "SHAPE_Leng": 1.37410177086}, "geometry": {"type": "LineString", "coordinates": [[77.24140854500007, 13.512420660000032], [78.61550094700004, 13.517494854000063]]}}, {"type": "Feature", "properties": {"OBJECTID": 54, "FID_D_Leve": 173, "SHAPE_Leng": 1.04699144005}, "geometry": {"type": "LineString", "coordinates": [[140.80307204400003, 13.005131688000063], [140.803266462, 14.052123110000025]]}}, {"type": "Feature", "properties": {"OBJECTID": 55, "FID_D_Leve": 174, "SHAPE_Leng": 1.055273833}, "geometry": {"type": "LineString", "coordinates": [[138.4736970670001, 13.017388950000054], [138.4736964010001, 14.072662783000055]]}}, {"type": "Feature", "properties": {"OBJECTID": 56, "FID_D_Leve": 195, "SHAPE_Leng": 1.11996674791}, "geometry": {"type": "LineString", "coordinates": [[148.6033906140001, 12.964086107000071], [148.63794733100008, 14.083519602000024]]}}, {"type": "Feature", "properties": {"OBJECTID": 57, "FID_D_Leve": 130, "SHAPE_Leng": 0.869139493176}, "geometry": {"type": "LineString", "coordinates": [[10.278753755000025, 14.370855086000063], [9.409871217000045, 14.349722321000058]]}}, {"type": "Feature", "properties": {"OBJECTID": 58, "FID_D_Leve": 85, "SHAPE_Leng": 3.73050166758}, "geometry": {"type": "LineString", "coordinates": [[10.278753755000025, 14.370855086000063], [10.305495015000076, 10.64044926400004]]}}, {"type": "Feature", "properties": {"OBJECTID": 59, "FID_D_Leve": 210, "SHAPE_Leng": 1.44947502699}, "geometry": {"type": "LineString", "coordinates": [[55.92631053400004, 14.452294026000061], [54.477445216000035, 14.410256612000069]]}}, {"type": "Feature", "properties": {"OBJECTID": 60, "FID_D_Leve": 86, "SHAPE_Leng": 2.28655226297}, "geometry": {"type": "LineString", "coordinates": [[55.948295597000026, 12.16584745800003], [55.92631053400004, 14.452294026000061]]}}, {"type": "Feature", "properties": {"OBJECTID": 61, "FID_D_Leve": 87, "SHAPE_Leng": 1.52070692648}, "geometry": {"type": "LineString", "coordinates": [[68.85539236300008, 15.00204906700003], [68.88021732200008, 13.48154478300006]]}}, {"type": "Feature", "properties": {"OBJECTID": 62, "FID_D_Leve": 86, "SHAPE_Leng": 2.5293314474}, "geometry": {"type": "LineString", "coordinates": [[49.41346021700008, 15.018470874000059], [49.46578001600005, 12.489680608000072]]}}, {"type": "Feature", "properties": {"OBJECTID": 63, "FID_D_Leve": 86, "SHAPE_Leng": 2.93360785008}, "geometry": {"type": "LineString", "coordinates": [[65.92188305700006, 15.026094226000055], [68.85539236300008, 15.00204906700003]]}}, {"type": "Feature", "properties": {"OBJECTID": 64, "FID_D_Leve": 102, "SHAPE_Leng": 0.731879348233}, "geometry": {"type": "LineString", "coordinates": [[65.74600951900004, 15.027535812000053], [65.74607831100008, 14.295656467000072]]}}, {"type": "Feature", "properties": {"OBJECTID": 65, "FID_D_Leve": 86, "SHAPE_Leng": 0.175879446039}, "geometry": {"type": "LineString", "coordinates": [[65.74600951900004, 15.027535812000053], [65.92188305700006, 15.026094226000055]]}}, {"type": "Feature", "properties": {"OBJECTID": 66, "FID_D_Leve": 95, "SHAPE_Leng": 0.887321532301}, "geometry": {"type": "LineString", "coordinates": [[49.41346021700008, 15.018470874000059], [48.52719779300003, 15.061811588000069]]}}, {"type": "Feature", "properties": {"OBJECTID": 67, "FID_D_Leve": 86, "SHAPE_Leng": 6.47026295137}, "geometry": {"type": "LineString", "coordinates": [[59.275963913000055, 15.080568973000027], [65.74600951900004, 15.027535812000053]]}}, {"type": "Feature", "properties": {"OBJECTID": 68, "FID_D_Leve": 86, "SHAPE_Leng": 2.85196553859}, "geometry": {"type": "LineString", "coordinates": [[56.42409417600004, 15.103944954000042], [59.275963913000055, 15.080568973000027]]}}, {"type": "Feature", "properties": {"OBJECTID": 69, "FID_D_Leve": 86, "SHAPE_Leng": 1.15991930135}, "geometry": {"type": "LineString", "coordinates": [[55.92631053400004, 14.452294026000061], [55.92000493000006, 15.108076833000041], [56.42409417600004, 15.103944954000042]]}}, {"type": "Feature", "properties": {"OBJECTID": 70, "FID_D_Leve": 86, "SHAPE_Leng": 0.209764749}, "geometry": {"type": "LineString", "coordinates": [[68.85539236300008, 15.00204906700003], [68.85539236300008, 15.211813816000074]]}}, {"type": "Feature", "properties": {"OBJECTID": 71, "FID_D_Leve": 104, "SHAPE_Leng": 0.957320660227}, "geometry": {"type": "LineString", "coordinates": [[68.85539236300008, 15.211813816000074], [69.81263049900008, 15.199244111000041]]}}, {"type": "Feature", "properties": {"OBJECTID": 72, "FID_D_Leve": 140, "SHAPE_Leng": 2.17120992698}, "geometry": {"type": "LineString", "coordinates": [[125.02441976800003, 13.088159572000052], [125.00895089800008, 15.259314394000057]]}}, {"type": "Feature", "properties": {"OBJECTID": 73, "FID_D_Leve": 181, "SHAPE_Leng": 1.2664734184}, "geometry": {"type": "LineString", "coordinates": [[125.00895089800008, 15.259314394000057], [126.2750891600001, 15.230179861000067]]}}, {"type": "Feature", "properties": {"OBJECTID": 74, "FID_D_Leve": 99, "SHAPE_Leng": 0.637247896519}, "geometry": {"type": "LineString", "coordinates": [[56.42409417600004, 15.103944954000042], [56.39902804900004, 15.740699672000062]]}}, {"type": "Feature", "properties": {"OBJECTID": 75, "FID_D_Leve": 100, "SHAPE_Leng": 0.866620461061}, "geometry": {"type": "LineString", "coordinates": [[59.275963913000055, 15.080568973000027], [59.250912999000036, 15.946827292000023]]}}, {"type": "Feature", "properties": {"OBJECTID": 76, "FID_D_Leve": 101, "SHAPE_Leng": 0.952471214624}, "geometry": {"type": "LineString", "coordinates": [[65.92188305700006, 15.026094226000055], [65.90945866800007, 15.978484403000039]]}}, {"type": "Feature", "properties": {"OBJECTID": 77, "FID_D_Leve": 140, "SHAPE_Leng": 2.9986130322}, "geometry": {"type": "LineString", "coordinates": [[160.0220346650001, 16.365390921000028], [160.04681584000002, 13.36688028900005]]}}, {"type": "Feature", "properties": {"OBJECTID": 78, "FID_D_Leve": 164, "SHAPE_Leng": 1.054468348}, "geometry": {"type": "LineString", "coordinates": [[160.0220346650001, 16.365390921000028], [161.0765030130001, 16.365389793000077]]}}, {"type": "Feature", "properties": {"OBJECTID": 79, "FID_D_Leve": 182, "SHAPE_Leng": 0.940512463822}, "geometry": {"type": "LineString", "coordinates": [[125.00044613000011, 16.453013010000063], [124.05993366900009, 16.452940156000068]]}}, {"type": "Feature", "properties": {"OBJECTID": 80, "FID_D_Leve": 140, "SHAPE_Leng": 1.19372891266}, "geometry": {"type": "LineString", "coordinates": [[125.00895089800008, 15.259314394000057], [125.00044613000011, 16.453013010000063]]}}, {"type": "Feature", "properties": {"OBJECTID": 81, "FID_D_Leve": 86, "SHAPE_Leng": 2.21049055988}, "geometry": {"type": "LineString", "coordinates": [[50.05313522000006, 16.557122966000065], [49.38162603600006, 16.557122966000065], [49.41346021700008, 15.018470874000059]]}}, {"type": "Feature", "properties": {"OBJECTID": 82, "FID_D_Leve": 94, "SHAPE_Leng": 1.29089046455}, "geometry": {"type": "LineString", "coordinates": [[50.05313522000006, 16.557122966000065], [51.34400885200006, 16.563715209000065]]}}, {"type": "Feature", "properties": {"OBJECTID": 83, "FID_D_Leve": 200, "SHAPE_Leng": 2.17322809676}, "geometry": {"type": "LineString", "coordinates": [[118.42026105700006, 18.075898979000044], [118.40666423200003, 15.90271341700003]]}}, {"type": "Feature", "properties": {"OBJECTID": 84, "FID_D_Leve": 202, "SHAPE_Leng": 3.77949718602}, "geometry": {"type": "LineString", "coordinates": [[117.6101526970001, 18.07838441900003], [115.9750439930001, 18.077196730000026], [115.97239459100001, 15.93281031600003]]}}, {"type": "Feature", "properties": {"OBJECTID": 85, "FID_D_Leve": 201, "SHAPE_Leng": 0.810112172698}, "geometry": {"type": "LineString", "coordinates": [[118.42026105700006, 18.075898979000044], [117.6101526970001, 18.07838441900003]]}}, {"type": "Feature", "properties": {"OBJECTID": 86, "FID_D_Leve": 85, "SHAPE_Leng": 4.20394664952}, "geometry": {"type": "LineString", "coordinates": [[10.248618711000063, 18.574693726000078], [10.278753755000025, 14.370855086000063]]}}, {"type": "Feature", "properties": {"OBJECTID": 87, "FID_D_Leve": 129, "SHAPE_Leng": 10.8194715959}, "geometry": {"type": "LineString", "coordinates": [[9.38190284500007, 18.574794809000025], [2.129849861000025, 18.55340170900007], [2.066156675000059, 14.98658329500006]]}}, {"type": "Feature", "properties": {"OBJECTID": 88, "FID_D_Leve": 128, "SHAPE_Leng": 0.866715871895}, "geometry": {"type": "LineString", "coordinates": [[10.248618711000063, 18.574693726000078], [9.38190284500007, 18.574794809000025]]}}, {"type": "Feature", "properties": {"OBJECTID": 89, "FID_D_Leve": 140, "SHAPE_Leng": 3.14491031713}, "geometry": {"type": "LineString", "coordinates": [[159.99604445800003, 19.510193842000035], [160.0220346650001, 16.365390921000028]]}}, {"type": "Feature", "properties": {"OBJECTID": 90, "FID_D_Leve": 163, "SHAPE_Leng": 1.09786871355}, "geometry": {"type": "LineString", "coordinates": [[159.99604445800003, 19.510193842000035], [161.09352728800002, 19.53929968400007]]}}, {"type": "Feature", "properties": {"OBJECTID": 91, "FID_D_Leve": 200, "SHAPE_Leng": 2.31594515404}, "geometry": {"type": "LineString", "coordinates": [[118.43475079300003, 20.391798805000064], [118.42026105700006, 18.075898979000044]]}}, {"type": "Feature", "properties": {"OBJECTID": 92, "FID_D_Leve": 140, "SHAPE_Leng": 1.3392938648}, "geometry": {"type": "LineString", "coordinates": [[159.98497624900006, 20.849441971000033], [159.99604445800003, 19.510193842000035]]}}, {"type": "Feature", "properties": {"OBJECTID": 93, "FID_D_Leve": 162, "SHAPE_Leng": 1.12277641545}, "geometry": {"type": "LineString", "coordinates": [[159.98497624900006, 20.849441971000033], [161.1077526370001, 20.849690250000037]]}}, {"type": "Feature", "properties": {"OBJECTID": 94, "FID_D_Leve": 135, "SHAPE_Leng": 0.703597873741}, "geometry": {"type": "LineString", "coordinates": [[12.872767228000043, 21.483288264000066], [12.851382585000067, 20.780015440000057]]}}, {"type": "Feature", "properties": {"OBJECTID": 95, "FID_D_Leve": 135, "SHAPE_Leng": 1.47817315954}, "geometry": {"type": "LineString", "coordinates": [[11.394742711000049, 21.50425053300006], [12.872767228000043, 21.483288264000066]]}}, {"type": "Feature", "properties": {"OBJECTID": 96, "FID_D_Leve": 85, "SHAPE_Leng": 2.92981127892}, "geometry": {"type": "LineString", "coordinates": [[10.227617019000036, 21.504429731000073], [10.248618711000063, 18.574693726000078]]}}, {"type": "Feature", "properties": {"OBJECTID": 97, "FID_D_Leve": 127, "SHAPE_Leng": 1.16712570576}, "geometry": {"type": "LineString", "coordinates": [[10.227617019000036, 21.504429731000073], [11.394742711000049, 21.50425053300006]]}}, {"type": "Feature", "properties": {"OBJECTID": 98, "FID_D_Leve": 85, "SHAPE_Leng": 0.127383098779}, "geometry": {"type": "LineString", "coordinates": [[10.226703902000054, 21.631809557000054], [10.227617019000036, 21.504429731000073]]}}, {"type": "Feature", "properties": {"OBJECTID": 99, "FID_D_Leve": 126, "SHAPE_Leng": 0.871377906544}, "geometry": {"type": "LineString", "coordinates": [[10.226703902000054, 21.631809557000054], [9.355587029000048, 21.653136760000052]]}}, {"type": "Feature", "properties": {"OBJECTID": 100, "FID_D_Leve": 86, "SHAPE_Leng": 5.66438722718}, "geometry": {"type": "LineString", "coordinates": [[49.98143138700004, 22.22105633600006], [50.05313522000006, 16.557122966000065]]}}, {"type": "Feature", "properties": {"OBJECTID": 101, "FID_D_Leve": 93, "SHAPE_Leng": 1.29731691408}, "geometry": {"type": "LineString", "coordinates": [[49.98143138700004, 22.22105633600006], [48.68437520600003, 22.24706477500007]]}}, {"type": "Feature", "properties": {"OBJECTID": 102, "FID_D_Leve": 187, "SHAPE_Leng": 0.588831334699}, "geometry": {"type": "LineString", "coordinates": [[173.25612952300003, 22.897698293000076], [172.70577868100008, 22.688327112000024]]}}, {"type": "Feature", "properties": {"OBJECTID": 103, "FID_D_Leve": 188, "SHAPE_Leng": 0.474330379826}, "geometry": {"type": "LineString", "coordinates": [[173.25612952300003, 22.897698293000076], [173.66390804700006, 22.655405114000075]]}}, {"type": "Feature", "properties": {"OBJECTID": 104, "FID_D_Leve": 86, "SHAPE_Leng": 7.989716493}, "geometry": {"type": "LineString", "coordinates": [[68.85539236300008, 15.211813816000074], [68.85539235300007, 23.201530309000077]]}}, {"type": "Feature", "properties": {"OBJECTID": 105, "FID_D_Leve": 115, "SHAPE_Leng": 6.01049777621}, "geometry": {"type": "LineString", "coordinates": [[84.06342470700008, 23.340253666000024], [84.04792188600004, 22.496957520000024], [89.21477293300006, 22.54333045900006]]}}, {"type": "Feature", "properties": {"OBJECTID": 106, "FID_D_Leve": 186, "SHAPE_Leng": 0.772843632785}, "geometry": {"type": "LineString", "coordinates": [[173.25612952300003, 22.897698293000076], [173.62212906700006, 23.578382959000066]]}}, {"type": "Feature", "properties": {"OBJECTID": 107, "FID_D_Leve": 75, "SHAPE_Leng": 0.768568253958}, "geometry": {"type": "LineString", "coordinates": [[98.68640763200005, 24.093418335000024], [98.12800243800007, 23.56532667600004]]}}, {"type": "Feature", "properties": {"OBJECTID": 108, "FID_D_Leve": 76, "SHAPE_Leng": 0.816635332427}, "geometry": {"type": "LineString", "coordinates": [[98.68640763200005, 24.093418335000024], [99.26184408100005, 23.513965007000024]]}}, {"type": "Feature", "properties": {"OBJECTID": 109, "FID_D_Leve": 113, "SHAPE_Leng": 0.795192232418}, "geometry": {"type": "LineString", "coordinates": [[84.06931274400006, 24.135424099000033], [84.06342470700008, 23.340253666000024]]}}, {"type": "Feature", "properties": {"OBJECTID": 110, "FID_D_Leve": 114, "SHAPE_Leng": 5.15588352609}, "geometry": {"type": "LineString", "coordinates": [[84.06931274400006, 24.135424099000033], [89.22510386500005, 24.10455581000008]]}}, {"type": "Feature", "properties": {"OBJECTID": 111, "FID_D_Leve": 72, "SHAPE_Leng": 2.94084397916}, "geometry": {"type": "LineString", "coordinates": [[107.05666625500004, 24.232302867000044], [107.09416652600004, 22.482617695000044], [108.28477818600004, 22.50122100300007]]}}, {"type": "Feature", "properties": {"OBJECTID": 112, "FID_D_Leve": 71, "SHAPE_Leng": 1.17724443235}, "geometry": {"type": "LineString", "coordinates": [[107.05666625500004, 24.232302867000044], [108.23374739400003, 24.21269558000006]]}}, {"type": "Feature", "properties": {"OBJECTID": 113, "FID_D_Leve": 70, "SHAPE_Leng": 0.774689846063}, "geometry": {"type": "LineString", "coordinates": [[102.64797708200007, 24.305740826000033], [102.64801765800007, 23.531050981000078]]}}, {"type": "Feature", "properties": {"OBJECTID": 114, "FID_D_Leve": 71, "SHAPE_Leng": 4.4093007788}, "geometry": {"type": "LineString", "coordinates": [[102.64797708200007, 24.305740826000033], [107.05666625500004, 24.232302867000044]]}}, {"type": "Feature", "properties": {"OBJECTID": 115, "FID_D_Leve": 86, "SHAPE_Leng": 2.39838520582}, "geometry": {"type": "LineString", "coordinates": [[49.95107092600006, 24.61924937200007], [49.98143138700004, 22.22105633600006]]}}, {"type": "Feature", "properties": {"OBJECTID": 116, "FID_D_Leve": 91, "SHAPE_Leng": 1.20526453674}, "geometry": {"type": "LineString", "coordinates": [[49.95107092600006, 24.61924937200007], [51.15633546200007, 24.61929159300007]]}}, {"type": "Feature", "properties": {"OBJECTID": 117, "FID_D_Leve": 140, "SHAPE_Leng": 3.80076766912}, "geometry": {"type": "LineString", "coordinates": [[159.95356589800008, 24.65007984700003], [159.98497624900006, 20.849441971000033]]}}, {"type": "Feature", "properties": {"OBJECTID": 118, "FID_D_Leve": 206, "SHAPE_Leng": 1.18624907425}, "geometry": {"type": "LineString", "coordinates": [[159.95356589800008, 24.65007984700003], [161.13981489000003, 24.65052158700007]]}}, {"type": "Feature", "properties": {"OBJECTID": 119, "FID_D_Leve": 136, "SHAPE_Leng": 4.60704117061}, "geometry": {"type": "LineString", "coordinates": [[12.872767228000043, 21.483288264000066], [14.104168824000055, 21.44082614000007], [14.061688838000066, 24.815466468000068]]}}, {"type": "Feature", "properties": {"OBJECTID": 120, "FID_D_Leve": 112, "SHAPE_Leng": 1.35045953678}, "geometry": {"type": "LineString", "coordinates": [[94.88373197600004, 24.985638582000036], [94.89909649000003, 23.635266451000064]]}}, {"type": "Feature", "properties": {"OBJECTID": 121, "FID_D_Leve": 111, "SHAPE_Leng": 1.16301160078}, "geometry": {"type": "LineString", "coordinates": [[94.88373197600004, 24.985638582000036], [96.04633369500004, 24.95476421500007]]}}, {"type": "Feature", "properties": {"OBJECTID": 122, "FID_D_Leve": 85, "SHAPE_Leng": 3.96514956225}, "geometry": {"type": "LineString", "coordinates": [[10.198280621000038, 25.596857245000024], [10.226703902000054, 21.631809557000054]]}}, {"type": "Feature", "properties": {"OBJECTID": 123, "FID_D_Leve": 122, "SHAPE_Leng": 1.15787662979}, "geometry": {"type": "LineString", "coordinates": [[10.198280621000038, 25.596857245000024], [11.356122953000067, 25.587945228000024]]}}, {"type": "Feature", "properties": {"OBJECTID": 124, "FID_D_Leve": 137, "SHAPE_Leng": 5.56469558457}, "geometry": {"type": "LineString", "coordinates": [[15.741635838000036, 26.11381633700006], [15.738960597000073, 21.546981450000033], [14.74110068300007, 21.546981450000033]]}}, {"type": "Feature", "properties": {"OBJECTID": 125, "FID_D_Leve": 70, "SHAPE_Leng": 3.63400028966}, "geometry": {"type": "LineString", "coordinates": [[101.04171163200004, 26.321135137000056], [101.04809169000004, 24.305741800000078], [102.64797610800008, 24.324345107000056], [102.64797708200007, 24.305740826000033]]}}, {"type": "Feature", "properties": {"OBJECTID": 126, "FID_D_Leve": 222, "SHAPE_Leng": 15.6912622067}, "geometry": {"type": "LineString", "coordinates": [[154.10538125000005, 26.342097048000028], [154.2301443770001, 15.508864903000074], [149.37451454200004, 15.636675015000037]]}}, {"type": "Feature", "properties": {"OBJECTID": 127, "FID_D_Leve": 199, "SHAPE_Leng": 5.99123378482}, "geometry": {"type": "LineString", "coordinates": [[118.37210901000003, 26.382705103000035], [118.43475079300003, 20.391798805000064]]}}, {"type": "Feature", "properties": {"OBJECTID": 128, "FID_D_Leve": 113, "SHAPE_Leng": 2.25430925369}, "geometry": {"type": "LineString", "coordinates": [[84.08600488000008, 26.389671553000028], [84.06931274400006, 24.135424099000033]]}}, {"type": "Feature", "properties": {"OBJECTID": 129, "FID_D_Leve": 111, "SHAPE_Leng": 1.40434783862}, "geometry": {"type": "LineString", "coordinates": [[94.85399532900004, 26.389671553000028], [94.88373197600004, 24.985638582000036]]}}, {"type": "Feature", "properties": {"OBJECTID": 130, "FID_D_Leve": 73, "SHAPE_Leng": 3.8856610379}, "geometry": {"type": "LineString", "coordinates": [[109.08724295400003, 26.40411662400004], [109.09687877700009, 24.26132916000006], [109.70555551800004, 24.26132916000006], [109.74753322400005, 23.12793109100005]]}}, {"type": "Feature", "properties": {"OBJECTID": 131, "FID_D_Leve": 140, "SHAPE_Leng": 10.0562410869}, "geometry": {"type": "LineString", "coordinates": [[125.00044613000011, 16.453013010000063], [124.92880005000006, 26.508998871000074]]}}, {"type": "Feature", "properties": {"OBJECTID": 132, "FID_D_Leve": 216, "SHAPE_Leng": 12.4931102452}, "geometry": {"type": "LineString", "coordinates": [[138.4736964010001, 14.072662783000055], [138.52939653400006, 26.565648859000078]]}}, {"type": "Feature", "properties": {"OBJECTID": 133, "FID_D_Leve": 183, "SHAPE_Leng": 0.870697052}, "geometry": {"type": "LineString", "coordinates": [[166.69241328900011, 27.217695202000073], [166.69241328900011, 26.346998150000047]]}}, {"type": "Feature", "properties": {"OBJECTID": 134, "FID_D_Leve": 184, "SHAPE_Leng": 1.74108421903}, "geometry": {"type": "LineString", "coordinates": [[166.69241328900011, 27.217695202000073], [168.43318767900007, 27.250540002000037]]}}, {"type": "Feature", "properties": {"OBJECTID": 135, "FID_D_Leve": 185, "SHAPE_Leng": 8.37143449071}, "geometry": {"type": "LineString", "coordinates": [[168.43318767900007, 27.250540002000037], [168.96962096200002, 27.217695202000073], [168.96962096200002, 24.57211569900005], [172.1527834410001, 24.57211569900005], [173.25612952300003, 22.897698293000076]]}}, {"type": "Feature", "properties": {"OBJECTID": 136, "FID_D_Leve": 184, "SHAPE_Leng": 0.0341141316643}, "geometry": {"type": "LineString", "coordinates": [[168.43318767900007, 27.250540002000037], [168.46729574000005, 27.251183550000064]]}}, {"type": "Feature", "properties": {"OBJECTID": 137, "FID_D_Leve": 123, "SHAPE_Leng": 0.829027868388}, "geometry": {"type": "LineString", "coordinates": [[10.183992196000077, 27.59009251300006], [9.355587029000048, 27.55796642000007]]}}, {"type": "Feature", "properties": {"OBJECTID": 138, "FID_D_Leve": 85, "SHAPE_Leng": 1.99328648034}, "geometry": {"type": "LineString", "coordinates": [[10.183992196000077, 27.59009251300006], [10.198280621000038, 25.596857245000024]]}}, {"type": "Feature", "properties": {"OBJECTID": 139, "FID_D_Leve": 85, "SHAPE_Leng": 0.325059170564}, "geometry": {"type": "LineString", "coordinates": [[10.509037011000032, 27.593147445000056], [10.183992196000077, 27.59009251300006]]}}, {"type": "Feature", "properties": {"OBJECTID": 140, "FID_D_Leve": 85, "SHAPE_Leng": 1.75331980976}, "geometry": {"type": "LineString", "coordinates": [[12.26227938900007, 27.60962528700003], [10.509037011000032, 27.593147445000056]]}}, {"type": "Feature", "properties": {"OBJECTID": 141, "FID_D_Leve": 85, "SHAPE_Leng": 3.46145534205}, "geometry": {"type": "LineString", "coordinates": [[15.72358186300005, 27.642156326000077], [12.26227938900007, 27.60962528700003]]}}, {"type": "Feature", "properties": {"OBJECTID": 142, "FID_D_Leve": 121, "SHAPE_Leng": 1.52844661928}, "geometry": {"type": "LineString", "coordinates": [[15.72358186300005, 27.642156326000077], [15.741635838000036, 26.11381633700006]]}}, {"type": "Feature", "properties": {"OBJECTID": 143, "FID_D_Leve": 85, "SHAPE_Leng": 4.26904833973}, "geometry": {"type": "LineString", "coordinates": [[19.992441669000073, 27.682277189000047], [15.72358186300005, 27.642156326000077]]}}, {"type": "Feature", "properties": {"OBJECTID": 144, "FID_D_Leve": 211, "SHAPE_Leng": 1.05863926238}, "geometry": {"type": "LineString", "coordinates": [[48.88264004300004, 27.71159533200006], [47.82400110700007, 27.712426616000073]]}}, {"type": "Feature", "properties": {"OBJECTID": 145, "FID_D_Leve": 85, "SHAPE_Leng": 0.630809850758}, "geometry": {"type": "LineString", "coordinates": [[49.51335796400008, 27.72236435900004], [48.88264004300004, 27.71159533200006]]}}, {"type": "Feature", "properties": {"OBJECTID": 146, "FID_D_Leve": 85, "SHAPE_Leng": 0.398400339054}, "geometry": {"type": "LineString", "coordinates": [[49.91170024300004, 27.72916575000005], [49.51335796400008, 27.72236435900004]]}}, {"type": "Feature", "properties": {"OBJECTID": 147, "FID_D_Leve": 86, "SHAPE_Leng": 3.11016557901}, "geometry": {"type": "LineString", "coordinates": [[49.91170024300004, 27.72916575000005], [49.95107092600006, 24.61924937200007]]}}, {"type": "Feature", "properties": {"OBJECTID": 148, "FID_D_Leve": 85, "SHAPE_Leng": 7.82482177913}, "geometry": {"type": "LineString", "coordinates": [[27.81691788100005, 27.75581549900005], [19.992441669000073, 27.682277189000047]]}}, {"type": "Feature", "properties": {"OBJECTID": 149, "FID_D_Leve": 140, "SHAPE_Leng": 3.18757435907}, "geometry": {"type": "LineString", "coordinates": [[159.92722310700003, 27.837545353000053], [159.95356589800008, 24.65007984700003]]}}, {"type": "Feature", "properties": {"OBJECTID": 150, "FID_D_Leve": 85, "SHAPE_Leng": 11.4805790461}, "geometry": {"type": "LineString", "coordinates": [[39.296989911000026, 27.863710912000045], [27.81691788100005, 27.75581549900005]]}}, {"type": "Feature", "properties": {"OBJECTID": 151, "FID_D_Leve": 160, "SHAPE_Leng": 0.956244903194}, "geometry": {"type": "LineString", "coordinates": [[159.92722310700003, 27.837545353000053], [158.97141553000006, 27.866462314000046]]}}, {"type": "Feature", "properties": {"OBJECTID": 152, "FID_D_Leve": 85, "SHAPE_Leng": 14.8711643839}, "geometry": {"type": "LineString", "coordinates": [[48.88264004300004, 27.71159533200006], [48.88264004300004, 25.160036133000062], [42.50374204600007, 25.160036133000062], [42.50374204600007, 27.893849560000035], [39.296989911000026, 27.863710912000045]]}}, {"type": "Feature", "properties": {"OBJECTID": 153, "FID_D_Leve": 85, "SHAPE_Leng": 11.0844160623}, "geometry": {"type": "LineString", "coordinates": [[60.99450094100007, 27.918396116000054], [49.91170024300004, 27.72916575000005]]}}, {"type": "Feature", "properties": {"OBJECTID": 154, "FID_D_Leve": 85, "SHAPE_Leng": 0.714269542584}, "geometry": {"type": "LineString", "coordinates": [[61.708666391000065, 27.930589946000055], [60.99450094100007, 27.918396116000054]]}}, {"type": "Feature", "properties": {"OBJECTID": 155, "FID_D_Leve": 90, "SHAPE_Leng": 1.47544455494}, "geometry": {"type": "LineString", "coordinates": [[61.708666391000065, 27.930589946000055], [61.73459916200005, 26.455373309000038]]}}, {"type": "Feature", "properties": {"OBJECTID": 156, "FID_D_Leve": 183, "SHAPE_Leng": 0.770232007}, "geometry": {"type": "LineString", "coordinates": [[166.69241328900011, 27.987927209000077], [166.69241328900011, 27.217695202000073]]}}, {"type": "Feature", "properties": {"OBJECTID": 157, "FID_D_Leve": 183, "SHAPE_Leng": 0.590192736971}, "geometry": {"type": "LineString", "coordinates": [[166.1022705050001, 27.99560583300007], [166.69241328900011, 27.987927209000077]]}}, {"type": "Feature", "properties": {"OBJECTID": 158, "FID_D_Leve": 183, "SHAPE_Leng": 3.51595956817}, "geometry": {"type": "LineString", "coordinates": [[162.58660852200012, 28.041349754000066], [166.1022705050001, 27.99560583300007]]}}, {"type": "Feature", "properties": {"OBJECTID": 159, "FID_D_Leve": 85, "SHAPE_Leng": 7.29836653428}, "geometry": {"type": "LineString", "coordinates": [[69.00596931300004, 28.05518582600007], [61.708666391000065, 27.930589946000055]]}}, {"type": "Feature", "properties": {"OBJECTID": 160, "FID_D_Leve": 88, "SHAPE_Leng": 1.68334765239}, "geometry": {"type": "LineString", "coordinates": [[69.00596931300004, 28.05518582600007], [69.05683712000007, 26.37260691700004]]}}, {"type": "Feature", "properties": {"OBJECTID": 161, "FID_D_Leve": 85, "SHAPE_Leng": 0.249155310134}, "geometry": {"type": "LineString", "coordinates": [[69.25508831300004, 28.059439343000065], [69.00596931300004, 28.05518582600007]]}}, {"type": "Feature", "properties": {"OBJECTID": 162, "FID_D_Leve": 59, "SHAPE_Leng": 2.44828827901}, "geometry": {"type": "LineString", "coordinates": [[71.70337076800007, 28.06477953800004], [69.25508831300004, 28.059439343000065]]}}, {"type": "Feature", "properties": {"OBJECTID": 163, "FID_D_Leve": 59, "SHAPE_Leng": 5.56917839001}, "geometry": {"type": "LineString", "coordinates": [[77.27253591000004, 28.076927004000026], [71.70337076800007, 28.06477953800004]]}}, {"type": "Feature", "properties": {"OBJECTID": 164, "FID_D_Leve": 81, "SHAPE_Leng": 1.81027299077}, "geometry": {"type": "LineString", "coordinates": [[77.27253591000004, 28.076927004000026], [77.29737674000006, 26.26682445600005]]}}, {"type": "Feature", "properties": {"OBJECTID": 165, "FID_D_Leve": 59, "SHAPE_Leng": 0.959339248085}, "geometry": {"type": "LineString", "coordinates": [[78.23187287600007, 28.079019510000023], [77.27253591000004, 28.076927004000026]]}}, {"type": "Feature", "properties": {"OBJECTID": 166, "FID_D_Leve": 59, "SHAPE_Leng": 3.39174814132}, "geometry": {"type": "LineString", "coordinates": [[81.62361294900006, 28.08641757600003], [78.23187287600007, 28.079019510000023]]}}, {"type": "Feature", "properties": {"OBJECTID": 167, "FID_D_Leve": 79, "SHAPE_Leng": 1.78203060582}, "geometry": {"type": "LineString", "coordinates": [[81.62361294900006, 28.08641757600003], [81.58657535900005, 26.304771905000052]]}}, {"type": "Feature", "properties": {"OBJECTID": 168, "FID_D_Leve": 59, "SHAPE_Leng": 0.283177073623}, "geometry": {"type": "LineString", "coordinates": [[81.90678934900006, 28.087035240000034], [81.62361294900006, 28.08641757600003]]}}, {"type": "Feature", "properties": {"OBJECTID": 169, "FID_D_Leve": 59, "SHAPE_Leng": 2.15458131434}, "geometry": {"type": "LineString", "coordinates": [[84.06136553800008, 28.091734803000065], [81.90678934900006, 28.087035240000034]]}}, {"type": "Feature", "properties": {"OBJECTID": 170, "FID_D_Leve": 80, "SHAPE_Leng": 1.7022415822}, "geometry": {"type": "LineString", "coordinates": [[84.06136553800008, 28.091734803000065], [84.08600488000008, 26.389671553000028]]}}, {"type": "Feature", "properties": {"OBJECTID": 171, "FID_D_Leve": 140, "SHAPE_Leng": 0.261795135094}, "geometry": {"type": "LineString", "coordinates": [[159.92505957600008, 28.099331548000066], [159.92722310700003, 27.837545353000053]]}}, {"type": "Feature", "properties": {"OBJECTID": 172, "FID_D_Leve": 161, "SHAPE_Leng": 2.66218043723}, "geometry": {"type": "LineString", "coordinates": [[159.92505957600008, 28.099331548000066], [162.58660852200012, 28.041349754000066]]}}, {"type": "Feature", "properties": {"OBJECTID": 173, "FID_D_Leve": 59, "SHAPE_Leng": 3.60748338752}, "geometry": {"type": "LineString", "coordinates": [[87.66884034400005, 28.09960342900007], [84.06136553800008, 28.091734803000065]]}}, {"type": "Feature", "properties": {"OBJECTID": 174, "FID_D_Leve": 59, "SHAPE_Leng": 6.87209633541}, "geometry": {"type": "LineString", "coordinates": [[94.54092033200004, 28.114592814000048], [87.66884034400005, 28.09960342900007]]}}, {"type": "Feature", "properties": {"OBJECTID": 175, "FID_D_Leve": 59, "SHAPE_Leng": 0.313056955702}, "geometry": {"type": "LineString", "coordinates": [[94.85397654300004, 28.115275652000037], [94.54092033200004, 28.114592814000048]]}}, {"type": "Feature", "properties": {"OBJECTID": 176, "FID_D_Leve": 110, "SHAPE_Leng": 1.7256040991}, "geometry": {"type": "LineString", "coordinates": [[94.85397654300004, 28.115275652000037], [94.85399532900004, 26.389671553000028]]}}, {"type": "Feature", "properties": {"OBJECTID": 177, "FID_D_Leve": 59, "SHAPE_Leng": 1.58961653139}, "geometry": {"type": "LineString", "coordinates": [[96.44358929300006, 28.11874291600003], [94.85397654300004, 28.115275652000037]]}}, {"type": "Feature", "properties": {"OBJECTID": 178, "FID_D_Leve": 59, "SHAPE_Leng": 2.24282289525}, "geometry": {"type": "LineString", "coordinates": [[98.68640685300005, 28.123634951000042], [96.44358929300006, 28.11874291600003]]}}, {"type": "Feature", "properties": {"OBJECTID": 179, "FID_D_Leve": 74, "SHAPE_Leng": 4.030216616}, "geometry": {"type": "LineString", "coordinates": [[98.68640685300005, 28.123634951000042], [98.68640763200005, 24.093418335000024]]}}, {"type": "Feature", "properties": {"OBJECTID": 180, "FID_D_Leve": 59, "SHAPE_Leng": 2.31570889963}, "geometry": {"type": "LineString", "coordinates": [[101.00211024400005, 28.128685964000056], [98.68640685300005, 28.123634951000042]]}}, {"type": "Feature", "properties": {"OBJECTID": 181, "FID_D_Leve": 66, "SHAPE_Leng": 1.8079845857}, "geometry": {"type": "LineString", "coordinates": [[101.00211024400005, 28.128685964000056], [101.04171163200004, 26.321135137000056]]}}, {"type": "Feature", "properties": {"OBJECTID": 182, "FID_D_Leve": 59, "SHAPE_Leng": 4.73638452396}, "geometry": {"type": "LineString", "coordinates": [[105.73848350100008, 28.139016944000048], [101.00211024400005, 28.128685964000056]]}}, {"type": "Feature", "properties": {"OBJECTID": 183, "FID_D_Leve": 59, "SHAPE_Leng": 3.34873190899}, "geometry": {"type": "LineString", "coordinates": [[109.08720744400006, 28.146321182000065], [105.73848350100008, 28.139016944000048]]}}, {"type": "Feature", "properties": {"OBJECTID": 184, "FID_D_Leve": 64, "SHAPE_Leng": 1.74220455836}, "geometry": {"type": "LineString", "coordinates": [[109.08720744400006, 28.146321182000065], [109.08724295400003, 26.40411662400004]]}}, {"type": "Feature", "properties": {"OBJECTID": 185, "FID_D_Leve": 59, "SHAPE_Leng": 0.620795638755}, "geometry": {"type": "LineString", "coordinates": [[109.70800160600004, 28.14767525900004], [109.08720744400006, 28.146321182000065]]}}, {"type": "Feature", "properties": {"OBJECTID": 186, "FID_D_Leve": 59, "SHAPE_Leng": 6.34294140265}, "geometry": {"type": "LineString", "coordinates": [[116.05092792000005, 28.161510453000062], [109.70800160600004, 28.14767525900004]]}}, {"type": "Feature", "properties": {"OBJECTID": 187, "FID_D_Leve": 61, "SHAPE_Leng": 1.758881135}, "geometry": {"type": "LineString", "coordinates": [[116.05092792000005, 28.161510453000062], [116.03752287500004, 26.402680401000055]]}}, {"type": "Feature", "properties": {"OBJECTID": 188, "FID_D_Leve": 59, "SHAPE_Leng": 2.30779918381}, "geometry": {"type": "LineString", "coordinates": [[118.35872161400005, 28.166544214000055], [116.05092792000005, 28.161510453000062]]}}, {"type": "Feature", "properties": {"OBJECTID": 189, "FID_D_Leve": 62, "SHAPE_Leng": 1.78388934531}, "geometry": {"type": "LineString", "coordinates": [[118.35872161400005, 28.166544214000055], [118.37210901000003, 26.382705103000035]]}}, {"type": "Feature", "properties": {"OBJECTID": 190, "FID_D_Leve": 59, "SHAPE_Leng": 1.10660626741}, "geometry": {"type": "LineString", "coordinates": [[119.4653252490001, 28.16895793900005], [118.35872161400005, 28.166544214000055]]}}, {"type": "Feature", "properties": {"OBJECTID": 191, "FID_D_Leve": 59, "SHAPE_Leng": 2.78875863992}, "geometry": {"type": "LineString", "coordinates": [[122.25407725500008, 28.175040766000052], [119.4653252490001, 28.16895793900005]]}}, {"type": "Feature", "properties": {"OBJECTID": 192, "FID_D_Leve": 217, "SHAPE_Leng": 3.89525818053}, "geometry": {"type": "LineString", "coordinates": [[138.52939653400006, 26.565648859000078], [138.57237867100002, 28.217820621000044], [140.81489810900007, 28.223800673000028]]}}, {"type": "Feature", "properties": {"OBJECTID": 193, "FID_D_Leve": 217, "SHAPE_Leng": 1.53747360354}, "geometry": {"type": "LineString", "coordinates": [[140.81489810900007, 28.223800673000028], [142.3523662460001, 28.227900588000068]]}}, {"type": "Feature", "properties": {"OBJECTID": 194, "FID_D_Leve": 217, "SHAPE_Leng": 1.78489587926}, "geometry": {"type": "LineString", "coordinates": [[142.3523662460001, 28.227900588000068], [144.13725577900004, 28.232660294000027]]}}, {"type": "Feature", "properties": {"OBJECTID": 195, "FID_D_Leve": 221, "SHAPE_Leng": 5.43352057025}, "geometry": {"type": "LineString", "coordinates": [[144.13725577900004, 28.232660294000027], [144.2208034350001, 23.773839373000044], [143.24688805200003, 23.77207777800004]]}}, {"type": "Feature", "properties": {"OBJECTID": 196, "FID_D_Leve": 217, "SHAPE_Leng": 3.11559356961}, "geometry": {"type": "LineString", "coordinates": [[144.13725577900004, 28.232660294000027], [147.2528382710001, 28.24096851400003]]}}, {"type": "Feature", "properties": {"OBJECTID": 197, "FID_D_Leve": 217, "SHAPE_Leng": 8.81197504596}, "geometry": {"type": "LineString", "coordinates": [[147.2528382710001, 28.24096851400003], [154.147079307, 28.259353157000078], [154.10538125000005, 26.342097048000028]]}}, {"type": "Feature", "properties": {"OBJECTID": 198, "FID_D_Leve": 189, "SHAPE_Leng": 0.61139473221}, "geometry": {"type": "LineString", "coordinates": [[167.64015801300002, 28.830545838000035], [168.2515527280001, 28.83040077100003]]}}, {"type": "Feature", "properties": {"OBJECTID": 199, "FID_D_Leve": 189, "SHAPE_Leng": 1.81172313587}, "geometry": {"type": "LineString", "coordinates": [[166.69241328900011, 27.987927209000077], [166.67154174100006, 28.830775663000054], [167.64015801300002, 28.830545838000035]]}}, {"type": "Feature", "properties": {"OBJECTID": 200, "FID_D_Leve": 118, "SHAPE_Leng": 1.46359319998}, "geometry": {"type": "LineString", "coordinates": [[19.992441669000073, 27.682277189000047], [19.968446135000022, 29.145673673000033]]}}, {"type": "Feature", "properties": {"OBJECTID": 201, "FID_D_Leve": 89, "SHAPE_Leng": 1.28593823199}, "geometry": {"type": "LineString", "coordinates": [[60.99450094100007, 27.918396116000054], [61.02018161600006, 29.204077896000058]]}}, {"type": "Feature", "properties": {"OBJECTID": 202, "FID_D_Leve": 124, "SHAPE_Leng": 1.61871649174}, "geometry": {"type": "LineString", "coordinates": [[12.26227938900007, 27.60962528700003], [12.27117441200005, 29.228317339000057]]}}, {"type": "Feature", "properties": {"OBJECTID": 203, "FID_D_Leve": 92, "SHAPE_Leng": 1.53958510395}, "geometry": {"type": "LineString", "coordinates": [[49.51335796400008, 27.72236435900004], [49.51361795300005, 29.26194944100007]]}}, {"type": "Feature", "properties": {"OBJECTID": 204, "FID_D_Leve": 117, "SHAPE_Leng": 1.53781512927}, "geometry": {"type": "LineString", "coordinates": [[27.81691788100005, 27.75581549900005], [27.847203549000028, 29.29333237700007]]}}, {"type": "Feature", "properties": {"OBJECTID": 205, "FID_D_Leve": 116, "SHAPE_Leng": 1.45792600761}, "geometry": {"type": "LineString", "coordinates": [[39.296989911000026, 27.863710912000045], [39.25151258100004, 29.32092745600005]]}}, {"type": "Feature", "properties": {"OBJECTID": 206, "FID_D_Leve": 125, "SHAPE_Leng": 1.76401591899}, "geometry": {"type": "LineString", "coordinates": [[10.509037011000032, 27.593147445000056], [10.210791280000024, 29.331768061000048]]}}, {"type": "Feature", "properties": {"OBJECTID": 207, "FID_D_Leve": 204, "SHAPE_Leng": 1.52663300957}, "geometry": {"type": "LineString", "coordinates": [[166.1022705050001, 27.99560583300007], [166.10141169000008, 29.522238601000026]]}}, {"type": "Feature", "properties": {"OBJECTID": 208, "FID_D_Leve": 219, "SHAPE_Leng": 1.29621537431}, "geometry": {"type": "LineString", "coordinates": [[142.3523662460001, 28.227900588000068], [142.310372905, 29.523435557000028]]}}, {"type": "Feature", "properties": {"OBJECTID": 209, "FID_D_Leve": 190, "SHAPE_Leng": 5.49069045172}, "geometry": {"type": "LineString", "coordinates": [[168.2515527280001, 28.83040077100003], [173.05671089600003, 28.83797459300007], [173.05676125200011, 29.523500906000038]]}}, {"type": "Feature", "properties": {"OBJECTID": 210, "FID_D_Leve": 205, "SHAPE_Leng": 0.705612806841}, "geometry": {"type": "LineString", "coordinates": [[167.64015801300002, 28.830545838000035], [167.6108206450001, 29.535548499000072]]}}, {"type": "Feature", "properties": {"OBJECTID": 211, "FID_D_Leve": 63, "SHAPE_Leng": 1.44178158608}, "geometry": {"type": "LineString", "coordinates": [[109.70800160600004, 28.14767525900004], [109.70801634100008, 29.58945684500003]]}}, {"type": "Feature", "properties": {"OBJECTID": 212, "FID_D_Leve": 220, "SHAPE_Leng": 1.37385116429}, "geometry": {"type": "LineString", "coordinates": [[147.2528382710001, 28.24096851400003], [147.2543220870001, 29.61481887700006]]}}, {"type": "Feature", "properties": {"OBJECTID": 213, "FID_D_Leve": 78, "SHAPE_Leng": 1.53516515145}, "geometry": {"type": "LineString", "coordinates": [[81.90678934900006, 28.087035240000034], [81.88218663600009, 29.62200323600007]]}}, {"type": "Feature", "properties": {"OBJECTID": 214, "FID_D_Leve": 218, "SHAPE_Leng": 1.40006419218}, "geometry": {"type": "LineString", "coordinates": [[140.81489810900007, 28.223800673000028], [140.7766401230001, 29.623342051000066]]}}, {"type": "Feature", "properties": {"OBJECTID": 215, "FID_D_Leve": 60, "SHAPE_Leng": 1.46333710596}, "geometry": {"type": "LineString", "coordinates": [[119.4653252490001, 28.16895793900005], [119.43820373100004, 29.632043688000067]]}}, {"type": "Feature", "properties": {"OBJECTID": 216, "FID_D_Leve": 82, "SHAPE_Leng": 1.55500399675}, "geometry": {"type": "LineString", "coordinates": [[78.23187287600007, 28.079019510000023], [78.18202353700008, 29.63322428200007]]}}, {"type": "Feature", "properties": {"OBJECTID": 217, "FID_D_Leve": 83, "SHAPE_Leng": 1.57879026105}, "geometry": {"type": "LineString", "coordinates": [[71.70337076800007, 28.06477953800004], [71.71580900500004, 29.64352080200007]]}}, {"type": "Feature", "properties": {"OBJECTID": 218, "FID_D_Leve": 65, "SHAPE_Leng": 1.50724247711}, "geometry": {"type": "LineString", "coordinates": [[105.73848350100008, 28.139016944000048], [105.70739703200007, 29.645938812000054]]}}, {"type": "Feature", "properties": {"OBJECTID": 219, "FID_D_Leve": 77, "SHAPE_Leng": 1.60287559341}, "geometry": {"type": "LineString", "coordinates": [[87.66884034400005, 28.09960342900007], [87.63189527900005, 29.702053188000036]]}}, {"type": "Feature", "properties": {"OBJECTID": 220, "FID_D_Leve": 67, "SHAPE_Leng": 1.59051268333}, "geometry": {"type": "LineString", "coordinates": [[96.44358929300006, 28.11874291600003], [96.42383373900003, 29.709132904000057]]}}, {"type": "Feature", "properties": {"OBJECTID": 221, "FID_D_Leve": 68, "SHAPE_Leng": 1.59854822243}, "geometry": {"type": "LineString", "coordinates": [[94.54092033200004, 28.114592814000048], [94.56079116300003, 29.71301752900007]]}}, {"type": "Feature", "properties": {"OBJECTID": 222, "FID_D_Leve": 140, "SHAPE_Leng": 1.89503770399}, "geometry": {"type": "LineString", "coordinates": [[159.9093985820001, 29.99430453800005], [159.92505957600008, 28.099331548000066]]}}, {"type": "Feature", "properties": {"OBJECTID": 223, "FID_D_Leve": 203, "SHAPE_Leng": 2.91998268719}, "geometry": {"type": "LineString", "coordinates": [[159.9093985820001, 29.99430453800005], [162.8288290900001, 29.93752071600005]]}}, {"type": "Feature", "properties": {"OBJECTID": 224, "FID_D_Leve": 120, "SHAPE_Leng": 1.69884003109}, "geometry": {"type": "LineString", "coordinates": [[19.952256324000075, 30.373940493000077], [18.25350112700005, 30.35696309900004]]}}, {"type": "Feature", "properties": {"OBJECTID": 225, "FID_D_Leve": 119, "SHAPE_Leng": 1.22837351449}, "geometry": {"type": "LineString", "coordinates": [[19.968446135000022, 29.145673673000033], [19.952256324000075, 30.373940493000077]]}}, {"type": "Feature", "properties": {"OBJECTID": 226, "FID_D_Leve": 119, "SHAPE_Leng": 1.59534352262}, "geometry": {"type": "LineString", "coordinates": [[19.952256324000075, 30.373940493000077], [21.547506628000065, 30.39118644200005]]}}, {"type": "Feature", "properties": {"OBJECTID": 227, "FID_D_Leve": 191, "SHAPE_Leng": 2.63598793061}, "geometry": {"type": "LineString", "coordinates": [[173.05676125200011, 29.523500906000038], [173.03694042200004, 32.15941431600004]]}}, {"type": "Feature", "properties": {"OBJECTID": 228, "FID_D_Leve": 191, "SHAPE_Leng": 0.68367994985}, "geometry": {"type": "LineString", "coordinates": [[173.03694042200004, 32.15941431600004], [173.72033769600012, 32.13975624600005]]}}, {"type": "Feature", "properties": {"OBJECTID": 229, "FID_D_Leve": 196, "SHAPE_Leng": 3.50888613727}, "geometry": {"type": "LineString", "coordinates": [[105.70739703200007, 29.645938812000054], [105.65320543000007, 32.76273940100003], [105.26159095900005, 32.76273940100003]]}}, {"type": "Feature", "properties": {"OBJECTID": 230, "FID_D_Leve": 1, "SHAPE_Leng": 5.4768487736}, "geometry": {"type": "LineString", "coordinates": [[122.25407725500008, 28.175040766000052], [122.24751815900004, 33.65188561200006]]}}, {"type": "Feature", "properties": {"OBJECTID": 231, "FID_D_Leve": 138, "SHAPE_Leng": 6.97409613283}, "geometry": {"type": "LineString", "coordinates": [[122.24751815900004, 33.65188561200006], [129.22137440900008, 33.70972914500004]]}}, {"type": "Feature", "properties": {"OBJECTID": 232, "FID_D_Leve": 138, "SHAPE_Leng": 3.57134926406}, "geometry": {"type": "LineString", "coordinates": [[129.22137440900008, 33.70972914500004], [132.79260083200006, 33.73935011000003]]}}, {"type": "Feature", "properties": {"OBJECTID": 233, "FID_D_Leve": 138, "SHAPE_Leng": 1.47070199465}, "geometry": {"type": "LineString", "coordinates": [[132.79260083200006, 33.73935011000003], [134.26325224000004, 33.75154819200003]]}}, {"type": "Feature", "properties": {"OBJECTID": 234, "FID_D_Leve": 138, "SHAPE_Leng": 4.89175611912}, "geometry": {"type": "LineString", "coordinates": [[134.26325224000004, 33.75154819200003], [139.1548401010001, 33.792120683000064]]}}, {"type": "Feature", "properties": {"OBJECTID": 235, "FID_D_Leve": 138, "SHAPE_Leng": 1.53072048806}, "geometry": {"type": "LineString", "coordinates": [[139.1548401010001, 33.792120683000064], [140.68550793800011, 33.80481656200004]]}}, {"type": "Feature", "properties": {"OBJECTID": 236, "FID_D_Leve": 138, "SHAPE_Leng": 4.8017283785}, "geometry": {"type": "LineString", "coordinates": [[140.68550793800011, 33.80481656200004], [145.48707115500008, 33.844642358000044]]}}, {"type": "Feature", "properties": {"OBJECTID": 237, "FID_D_Leve": 138, "SHAPE_Leng": 1.5304715815}, "geometry": {"type": "LineString", "coordinates": [[145.48707115500008, 33.844642358000044], [147.0174900940001, 33.85733617300008]]}}, {"type": "Feature", "properties": {"OBJECTID": 238, "FID_D_Leve": 138, "SHAPE_Leng": 8.67366792375}, "geometry": {"type": "LineString", "coordinates": [[147.0174900940001, 33.85733617300008], [155.69085967600006, 33.92927604700003]]}}, {"type": "Feature", "properties": {"OBJECTID": 239, "FID_D_Leve": 138, "SHAPE_Leng": 1.50021342773}, "geometry": {"type": "LineString", "coordinates": [[155.69085967600006, 33.92927604700003], [157.191021502, 33.94171889900008]]}}, {"type": "Feature", "properties": {"OBJECTID": 240, "FID_D_Leve": 138, "SHAPE_Leng": 2.68566198073}, "geometry": {"type": "LineString", "coordinates": [[157.191021502, 33.94171889900008], [159.8765911060001, 33.96399392500007]]}}, {"type": "Feature", "properties": {"OBJECTID": 241, "FID_D_Leve": 140, "SHAPE_Leng": 3.96982495329}, "geometry": {"type": "LineString", "coordinates": [[159.8765911060001, 33.96399392500007], [159.9093985820001, 29.99430453800005]]}}, {"type": "Feature", "properties": {"OBJECTID": 242, "FID_D_Leve": 138, "SHAPE_Leng": 4.28902290835}, "geometry": {"type": "LineString", "coordinates": [[159.8765911060001, 33.96399392500007], [164.1654664880001, 33.999567314000046]]}}, {"type": "Feature", "properties": {"OBJECTID": 243, "FID_D_Leve": 159, "SHAPE_Leng": 2.77933706507}, "geometry": {"type": "LineString", "coordinates": [[164.1654664880001, 33.999567314000046], [164.15407746900007, 32.40857053000008], [165.34201908600005, 32.43773315800007]]}}, {"type": "Feature", "properties": {"OBJECTID": 244, "FID_D_Leve": 158, "SHAPE_Leng": 1.14198148774}, "geometry": {"type": "LineString", "coordinates": [[164.1654664880001, 33.999567314000046], [165.30729957800008, 33.98115772600005]]}}, {"type": "Feature", "properties": {"OBJECTID": 245, "FID_D_Leve": 146, "SHAPE_Leng": 0.956809030113}, "geometry": {"type": "LineString", "coordinates": [[145.48707115500008, 33.844642358000044], [145.4571731090001, 34.80098415200007]]}}, {"type": "Feature", "properties": {"OBJECTID": 246, "FID_D_Leve": 148, "SHAPE_Leng": 0.901275163323}, "geometry": {"type": "LineString", "coordinates": [[155.69085967600006, 33.92927604700003], [155.7206345180001, 34.83005925000003]]}}, {"type": "Feature", "properties": {"OBJECTID": 247, "FID_D_Leve": 149, "SHAPE_Leng": 0.895872979882}, "geometry": {"type": "LineString", "coordinates": [[157.191021502, 33.94171889900008], [157.1908818700001, 34.83759186800006]]}}, {"type": "Feature", "properties": {"OBJECTID": 248, "FID_D_Leve": 84, "SHAPE_Leng": 6.80054616229}, "geometry": {"type": "LineString", "coordinates": [[78.18202353700008, 29.63322428200007], [78.17140045000008, 34.86158125400004], [79.74357884800008, 34.861605920000045]]}}, {"type": "Feature", "properties": {"OBJECTID": 249, "FID_D_Leve": 141, "SHAPE_Leng": 1.16491000313}, "geometry": {"type": "LineString", "coordinates": [[129.22137440900008, 33.70972914500004], [129.28146073100004, 34.87308848300006]]}}, {"type": "Feature", "properties": {"OBJECTID": 250, "FID_D_Leve": 147, "SHAPE_Leng": 1.01919223768}, "geometry": {"type": "LineString", "coordinates": [[147.0174900940001, 33.85733617300008], [146.9878194360001, 34.87609643400003]]}}, {"type": "Feature", "properties": {"OBJECTID": 251, "FID_D_Leve": 145, "SHAPE_Leng": 1.08322194153}, "geometry": {"type": "LineString", "coordinates": [[140.68550793800011, 33.80481656200004], [140.68547416800004, 34.888038503000075]]}}, {"type": "Feature", "properties": {"OBJECTID": 252, "FID_D_Leve": 143, "SHAPE_Leng": 1.13913298077}, "geometry": {"type": "LineString", "coordinates": [[134.26325224000004, 33.75154819200003], [134.26331572200002, 34.89068117100004]]}}, {"type": "Feature", "properties": {"OBJECTID": 253, "FID_D_Leve": 144, "SHAPE_Leng": 1.10782767567}, "geometry": {"type": "LineString", "coordinates": [[139.1548401010001, 33.792120683000064], [139.124662854, 34.899537268000074]]}}, {"type": "Feature", "properties": {"OBJECTID": 254, "FID_D_Leve": 142, "SHAPE_Leng": 1.1610080855}, "geometry": {"type": "LineString", "coordinates": [[132.79260083200006, 33.73935011000003], [132.82306929600009, 34.89995833300003]]}}, {"type": "Feature", "properties": {"OBJECTID": 255, "FID_D_Leve": 26, "SHAPE_Leng": 6.8512024902}, "geometry": {"type": "LineString", "coordinates": [[69.21279774500005, 34.910511308000025], [69.25508831300004, 28.059439343000065]]}}, {"type": "Feature", "properties": {"OBJECTID": 256, "FID_D_Leve": 57, "SHAPE_Leng": 1.40412086934}, "geometry": {"type": "LineString", "coordinates": [[69.21279774500005, 34.910511308000025], [70.61691861100007, 34.910608178000075]]}}, {"type": "Feature", "properties": {"OBJECTID": 257, "FID_D_Leve": 197, "SHAPE_Leng": 2.33653436148}, "geometry": {"type": "LineString", "coordinates": [[105.26159095900005, 32.76273940100003], [105.23334227100008, 35.09910299300003]]}}, {"type": "Feature", "properties": {"OBJECTID": 258, "FID_D_Leve": 196, "SHAPE_Leng": 3.80032843799}, "geometry": {"type": "LineString", "coordinates": [[105.26159095900005, 32.76273940100003], [103.91891277200006, 32.76273940100003], [103.91933915300007, 35.220389615000045]]}}, {"type": "Feature", "properties": {"OBJECTID": 259, "FID_D_Leve": 192, "SHAPE_Leng": 3.08476427744}, "geometry": {"type": "LineString", "coordinates": [[173.03694042200004, 32.15941431600004], [172.9776289980001, 35.24360834400005]]}}, {"type": "Feature", "properties": {"OBJECTID": 260, "FID_D_Leve": 192, "SHAPE_Leng": 0.718475925489}, "geometry": {"type": "LineString", "coordinates": [[172.9776289980001, 35.24360834400005], [173.69583417400008, 35.22388575100007]]}}, {"type": "Feature", "properties": {"OBJECTID": 261, "FID_D_Leve": 58, "SHAPE_Leng": 3.28019792753}, "geometry": {"type": "LineString", "coordinates": [[70.61691861100007, 34.910608178000075], [73.01967712000004, 34.89354042600007], [73.01115928000007, 35.77087787800008]]}}, {"type": "Feature", "properties": {"OBJECTID": 262, "FID_D_Leve": 24, "SHAPE_Leng": 1.3749676387}, "geometry": {"type": "LineString", "coordinates": [[122.24485275400002, 35.87749925700007], [120.87007144300003, 35.85486401000003]]}}, {"type": "Feature", "properties": {"OBJECTID": 263, "FID_D_Leve": 1, "SHAPE_Leng": 2.22561524105}, "geometry": {"type": "LineString", "coordinates": [[122.24751815900004, 33.65188561200006], [122.24485275400002, 35.87749925700007]]}}, {"type": "Feature", "properties": {"OBJECTID": 264, "FID_D_Leve": 193, "SHAPE_Leng": 1.30500108772}, "geometry": {"type": "LineString", "coordinates": [[172.9776289980001, 35.24360834400005], [172.95785852400002, 36.54845966400006]]}}, {"type": "Feature", "properties": {"OBJECTID": 265, "FID_D_Leve": 193, "SHAPE_Leng": 0.889890998836}, "geometry": {"type": "LineString", "coordinates": [[172.95785852400002, 36.54845966400006], [173.84752987800005, 36.52868918900003]]}}, {"type": "Feature", "properties": {"OBJECTID": 266, "FID_D_Leve": 69, "SHAPE_Leng": 7.74190664255}, "geometry": {"type": "LineString", "coordinates": [[120.87007144300003, 35.85486401000003], [116.2108944360001, 35.840022832000045], [116.19074992800006, 36.988259769000024], [114.25687719100006, 36.94797075400004]]}}, {"type": "Feature", "properties": {"OBJECTID": 267, "FID_D_Leve": 198, "SHAPE_Leng": 10.7499692269}, "geometry": {"type": "LineString", "coordinates": [[114.25687719100006, 36.94797075400004], [110.82811094300007, 37.04252612200003], [110.88405586700009, 32.76273940100003], [107.84745265000004, 32.624524860000065]]}}, {"type": "Feature", "properties": {"OBJECTID": 268, "FID_D_Leve": 194, "SHAPE_Leng": 4.37975982358}, "geometry": {"type": "LineString", "coordinates": [[172.95785852400002, 36.54845966400006], [172.93808804900004, 37.95216335600003], [170.70402442600005, 37.95216335600003], [170.7144116290001, 38.69394392000004]]}}, {"type": "Feature", "properties": {"OBJECTID": 269, "FID_D_Leve": 139, "SHAPE_Leng": 6.06332626876}, "geometry": {"type": "LineString", "coordinates": [[164.1654664880001, 33.999567314000046], [164.08203411800002, 40.06231953400004]]}}, {"type": "Feature", "properties": {"OBJECTID": 270, "FID_D_Leve": 209, "SHAPE_Leng": 1.26256625239}, "geometry": {"type": "LineString", "coordinates": [[164.08203411800002, 40.06231953400004], [165.3443162970001, 40.03553815500004]]}}, {"type": "Feature", "properties": {"OBJECTID": 271, "FID_D_Leve": 139, "SHAPE_Leng": 1.45932738963}, "geometry": {"type": "LineString", "coordinates": [[164.08203411800002, 40.06231953400004], [164.06195353200008, 41.521508761000064]]}}, {"type": "Feature", "properties": {"OBJECTID": 272, "FID_D_Leve": 150, "SHAPE_Leng": 1.29595029917}, "geometry": {"type": "LineString", "coordinates": [[164.06195353200008, 41.521508761000064], [162.76742066100007, 41.58210433700003]]}}, {"type": "Feature", "properties": {"OBJECTID": 273, "FID_D_Leve": 139, "SHAPE_Leng": 2.94757995833}, "geometry": {"type": "LineString", "coordinates": [[170.670748569, 41.64120046600004], [170.7144116290001, 38.69394392000004]]}}, {"type": "Feature", "properties": {"OBJECTID": 274, "FID_D_Leve": 157, "SHAPE_Leng": 0.858929588219}, "geometry": {"type": "LineString", "coordinates": [[170.670748569, 41.64120046600004], [171.52914202500006, 41.67154370600008]]}}, {"type": "Feature", "properties": {"OBJECTID": 275, "FID_D_Leve": 139, "SHAPE_Leng": 1.61850685904}, "geometry": {"type": "LineString", "coordinates": [[164.06195353200008, 41.521508761000064], [164.0396826100001, 43.13986238700005]]}}, {"type": "Feature", "properties": {"OBJECTID": 276, "FID_D_Leve": 208, "SHAPE_Leng": 1.31067410296}, "geometry": {"type": "LineString", "coordinates": [[164.0396826100001, 43.13986238700005], [165.34920326600002, 43.08488734100007]]}}, {"type": "Feature", "properties": {"OBJECTID": 277, "FID_D_Leve": 139, "SHAPE_Leng": 1.44307767918}, "geometry": {"type": "LineString", "coordinates": [[164.0396826100001, 43.13986238700005], [164.0198256230001, 44.582803442000056]]}}, {"type": "Feature", "properties": {"OBJECTID": 278, "FID_D_Leve": 151, "SHAPE_Leng": 1.18815221715}, "geometry": {"type": "LineString", "coordinates": [[164.0198256230001, 44.582803442000056], [162.83318624900005, 44.642742471000076]]}}, {"type": "Feature", "properties": {"OBJECTID": 279, "FID_D_Leve": 1, "SHAPE_Leng": 8.78790582505}, "geometry": {"type": "LineString", "coordinates": [[122.24485275400002, 35.87749925700007], [122.23432832300011, 44.66539878000003]]}}, {"type": "Feature", "properties": {"OBJECTID": 280, "FID_D_Leve": 22, "SHAPE_Leng": 1.28994301661}, "geometry": {"type": "LineString", "coordinates": [[122.23432832300011, 44.66539878000003], [123.52394635000007, 44.69435271800006]]}}, {"type": "Feature", "properties": {"OBJECTID": 281, "FID_D_Leve": 139, "SHAPE_Leng": 3.12206020552}, "geometry": {"type": "LineString", "coordinates": [[170.62450090100003, 44.76291811500005], [170.670748569, 41.64120046600004]]}}, {"type": "Feature", "properties": {"OBJECTID": 282, "FID_D_Leve": 156, "SHAPE_Leng": 0.900764602962}, "geometry": {"type": "LineString", "coordinates": [[170.62450090100003, 44.76291811500005], [171.52526546100012, 44.762639913000044]]}}, {"type": "Feature", "properties": {"OBJECTID": 283, "FID_D_Leve": 1, "SHAPE_Leng": 0.130169833349}, "geometry": {"type": "LineString", "coordinates": [[122.23432832300011, 44.66539878000003], [122.23417243100005, 44.795568520000074]]}}, {"type": "Feature", "properties": {"OBJECTID": 284, "FID_D_Leve": 23, "SHAPE_Leng": 1.318642316}, "geometry": {"type": "LineString", "coordinates": [[122.23417243100005, 44.795568520000074], [120.91553011500002, 44.79557095000007]]}}, {"type": "Feature", "properties": {"OBJECTID": 285, "FID_D_Leve": 139, "SHAPE_Leng": 1.38032136367}, "geometry": {"type": "LineString", "coordinates": [[170.6040539390001, 46.14308802800008], [170.62450090100003, 44.76291811500005]]}}, {"type": "Feature", "properties": {"OBJECTID": 286, "FID_D_Leve": 155, "SHAPE_Leng": 0.938269149425}, "geometry": {"type": "LineString", "coordinates": [[170.6040539390001, 46.14308802800008], [171.54232308600012, 46.143155480000075]]}}, {"type": "Feature", "properties": {"OBJECTID": 287, "FID_D_Leve": 139, "SHAPE_Leng": 1.74816750955}, "geometry": {"type": "LineString", "coordinates": [[169.22540291300004, 46.54199437200003], [170.59850109600006, 46.51790493000004], [170.6040539390001, 46.14308802800008]]}}, {"type": "Feature", "properties": {"OBJECTID": 288, "FID_D_Leve": 139, "SHAPE_Leng": 1.62135855798}, "geometry": {"type": "LineString", "coordinates": [[167.60429381400002, 46.570434883000075], [169.22540291300004, 46.54199437200003]]}}, {"type": "Feature", "properties": {"OBJECTID": 289, "FID_D_Leve": 139, "SHAPE_Leng": 3.12111522352}, "geometry": {"type": "LineString", "coordinates": [[164.48365879900007, 46.625182866000046], [167.60429381400002, 46.570434883000075]]}}, {"type": "Feature", "properties": {"OBJECTID": 290, "FID_D_Leve": 139, "SHAPE_Leng": 2.54334005179}, "geometry": {"type": "LineString", "coordinates": [[164.0198256230001, 44.582803442000056], [163.99160068700007, 46.633815464000065], [164.48365879900007, 46.625182866000046]]}}, {"type": "Feature", "properties": {"OBJECTID": 291, "FID_D_Leve": 152, "SHAPE_Leng": 1.04628670068}, "geometry": {"type": "LineString", "coordinates": [[167.60429381400002, 46.570434883000075], [167.6046943760001, 47.61672150700008]]}}, {"type": "Feature", "properties": {"OBJECTID": 292, "FID_D_Leve": 153, "SHAPE_Leng": 1.08017816037}, "geometry": {"type": "LineString", "coordinates": [[169.22540291300004, 46.54199437200003], [169.19539427400002, 47.62175561400005]]}}, {"type": "Feature", "properties": {"OBJECTID": 293, "FID_D_Leve": 154, "SHAPE_Leng": 1.61643352648}, "geometry": {"type": "LineString", "coordinates": [[164.4536150880001, 47.91371920200004], [162.83746016700002, 47.88370892300003]]}}, {"type": "Feature", "properties": {"OBJECTID": 294, "FID_D_Leve": 154, "SHAPE_Leng": 1.2888865403}, "geometry": {"type": "LineString", "coordinates": [[164.48365879900007, 46.625182866000046], [164.4536150880001, 47.91371920200004]]}}, {"type": "Feature", "properties": {"OBJECTID": 295, "FID_D_Leve": 207, "SHAPE_Leng": 0.658665559119}, "geometry": {"type": "LineString", "coordinates": [[164.4536150880001, 47.91371920200004], [164.45293984500006, 48.572384415000045]]}}, {"type": "Feature", "properties": {"OBJECTID": 296, "FID_D_Leve": 1, "SHAPE_Leng": 5.25696862892}, "geometry": {"type": "LineString", "coordinates": [[122.23417243100005, 44.795568520000074], [122.22787666500005, 50.05253337900007]]}}, {"type": "Feature", "properties": {"OBJECTID": 297, "FID_D_Leve": 21, "SHAPE_Leng": 1.31266626741}, "geometry": {"type": "LineString", "coordinates": [[122.22787666500005, 50.05253337900007], [120.91553011500002, 50.081503403000056]]}}, {"type": "Feature", "properties": {"OBJECTID": 298, "FID_D_Leve": 1, "SHAPE_Leng": 2.82392056911}, "geometry": {"type": "LineString", "coordinates": [[122.22787666500005, 50.05253337900007], [122.22449472700009, 52.87645192300005]]}}, {"type": "Feature", "properties": {"OBJECTID": 299, "FID_D_Leve": 20, "SHAPE_Leng": 1.41223985735}, "geometry": {"type": "LineString", "coordinates": [[122.22449472700009, 52.87645192300005], [123.6366602380001, 52.86196109000008]]}}, {"type": "Feature", "properties": {"OBJECTID": 300, "FID_D_Leve": 56, "SHAPE_Leng": 1.79838626023}, "geometry": {"type": "LineString", "coordinates": [[69.74490291700005, 53.68914565400007], [67.94665461200003, 53.666870678000066]]}}, {"type": "Feature", "properties": {"OBJECTID": 301, "FID_D_Leve": 26, "SHAPE_Leng": 18.8535927174}, "geometry": {"type": "LineString", "coordinates": [[69.74490291700005, 53.68914565400007], [69.60575315800008, 40.578174312000044], [69.18495534400006, 39.42098032300004], [69.21279774500005, 34.910511308000025]]}}, {"type": "Feature", "properties": {"OBJECTID": 302, "FID_D_Leve": 1, "SHAPE_Leng": 4.50378094979}, "geometry": {"type": "LineString", "coordinates": [[122.22449472700009, 52.87645192300005], [122.21910098100011, 57.380229643000064]]}}, {"type": "Feature", "properties": {"OBJECTID": 303, "FID_D_Leve": 19, "SHAPE_Leng": 1.40069039598}, "geometry": {"type": "LineString", "coordinates": [[122.21910098100011, 57.380229643000064], [123.61971423300008, 57.39493010900003]]}}, {"type": "Feature", "properties": {"OBJECTID": 304, "FID_D_Leve": 54, "SHAPE_Leng": 1.89807658571}, "geometry": {"type": "LineString", "coordinates": [[69.79377617200004, 58.29408241600004], [67.89621264000004, 58.24995343200004]]}}, {"type": "Feature", "properties": {"OBJECTID": 305, "FID_D_Leve": 26, "SHAPE_Leng": 4.60519610626}, "geometry": {"type": "LineString", "coordinates": [[69.79377617200004, 58.29408241600004], [69.74490291700005, 53.68914565400007]]}}, {"type": "Feature", "properties": {"OBJECTID": 306, "FID_D_Leve": 1, "SHAPE_Leng": 1.7377692572}, "geometry": {"type": "LineString", "coordinates": [[122.21910098100011, 57.380229643000064], [122.21701982200011, 59.11799765400008]]}}, {"type": "Feature", "properties": {"OBJECTID": 307, "FID_D_Leve": 18, "SHAPE_Leng": 1.40022892579}, "geometry": {"type": "LineString", "coordinates": [[122.21701982200011, 59.11799765400008], [123.61724874100003, 59.11813558000006]]}}, {"type": "Feature", "properties": {"OBJECTID": 308, "FID_D_Leve": 1, "SHAPE_Leng": 0.724077750256}, "geometry": {"type": "LineString", "coordinates": [[122.21701982200011, 59.11799765400008], [122.2161526640001, 59.842074885000045]]}}, {"type": "Feature", "properties": {"OBJECTID": 309, "FID_D_Leve": 16, "SHAPE_Leng": 1.27378242237}, "geometry": {"type": "LineString", "coordinates": [[122.2161526640001, 59.842074885000045], [120.94245209000007, 59.856514668000045]]}}, {"type": "Feature", "properties": {"OBJECTID": 310, "FID_D_Leve": 53, "SHAPE_Leng": 1.95403139591}, "geometry": {"type": "LineString", "coordinates": [[69.81323209000004, 60.12725829800007], [67.85932508200005, 60.10521061600008]]}}, {"type": "Feature", "properties": {"OBJECTID": 311, "FID_D_Leve": 26, "SHAPE_Leng": 1.83327912416}, "geometry": {"type": "LineString", "coordinates": [[69.81323209000004, 60.12725829800007], [69.79377617200004, 58.29408241600004]]}}, {"type": "Feature", "properties": {"OBJECTID": 312, "FID_D_Leve": 17, "SHAPE_Leng": 1.26246348102}, "geometry": {"type": "LineString", "coordinates": [[122.21412351300012, 61.53641560500006], [120.95174360400006, 61.52188955000008]]}}, {"type": "Feature", "properties": {"OBJECTID": 313, "FID_D_Leve": 1, "SHAPE_Leng": 1.69434193506}, "geometry": {"type": "LineString", "coordinates": [[122.2161526640001, 59.842074885000045], [122.21412351300012, 61.53641560500006]]}}, {"type": "Feature", "properties": {"OBJECTID": 314, "FID_D_Leve": 1, "SHAPE_Leng": 2.04191659931}, "geometry": {"type": "LineString", "coordinates": [[122.21412351300012, 61.53641560500006], [122.21167810600002, 63.57833074000007]]}}, {"type": "Feature", "properties": {"OBJECTID": 315, "FID_D_Leve": 15, "SHAPE_Leng": 1.40613375187}, "geometry": {"type": "LineString", "coordinates": [[122.21167810600002, 63.57833074000007], [123.61773893500003, 63.564010359000065]]}}, {"type": "Feature", "properties": {"OBJECTID": 316, "FID_D_Leve": 26, "SHAPE_Leng": 3.66679549969}, "geometry": {"type": "LineString", "coordinates": [[69.85214644400008, 63.79384730000004], [69.81323209000004, 60.12725829800007]]}}, {"type": "Feature", "properties": {"OBJECTID": 317, "FID_D_Leve": 55, "SHAPE_Leng": 1.47854891909}, "geometry": {"type": "LineString", "coordinates": [[69.85214644400008, 63.79384730000004], [71.33052464100007, 63.77137926100005]]}}, {"type": "Feature", "properties": {"OBJECTID": 318, "FID_D_Leve": 1, "SHAPE_Leng": 1.69434193506}, "geometry": {"type": "LineString", "coordinates": [[122.21167810600002, 63.57833074000007], [122.20964895500003, 65.27267146000008]]}}, {"type": "Feature", "properties": {"OBJECTID": 319, "FID_D_Leve": 14, "SHAPE_Leng": 1.40449078702}, "geometry": {"type": "LineString", "coordinates": [[122.20964895500003, 65.27267146000008], [123.61406678700007, 65.25835629400007]]}}, {"type": "Feature", "properties": {"OBJECTID": 320, "FID_D_Leve": 52, "SHAPE_Leng": 2.00546341096}, "geometry": {"type": "LineString", "coordinates": [[69.87136260700004, 65.60443303600005], [67.86701786400005, 65.53745808600007]]}}, {"type": "Feature", "properties": {"OBJECTID": 321, "FID_D_Leve": 26, "SHAPE_Leng": 1.81068770591}, "geometry": {"type": "LineString", "coordinates": [[69.87136260700004, 65.60443303600005], [69.85214644400008, 63.79384730000004]]}}, {"type": "Feature", "properties": {"OBJECTID": 322, "FID_D_Leve": 26, "SHAPE_Leng": 1.60997468165}, "geometry": {"type": "LineString", "coordinates": [[69.88844867700004, 67.21431705100008], [69.87136260700004, 65.60443303600005]]}}, {"type": "Feature", "properties": {"OBJECTID": 323, "FID_D_Leve": 51, "SHAPE_Leng": 2.0215522038}, "geometry": {"type": "LineString", "coordinates": [[69.88844867700004, 67.21431705100008], [67.86701786400005, 67.23647062700007]]}}, {"type": "Feature", "properties": {"OBJECTID": 324, "FID_D_Leve": 214, "SHAPE_Leng": 6.84737196039}, "geometry": {"type": "LineString", "coordinates": [[111.36571294200007, 67.50830183000005], [111.36531796800006, 60.66092988100007]]}}, {"type": "Feature", "properties": {"OBJECTID": 325, "FID_D_Leve": 1, "SHAPE_Leng": 2.92525676778}, "geometry": {"type": "LineString", "coordinates": [[122.20964895500003, 65.27267146000008], [122.2061456560001, 68.19792613000004]]}}, {"type": "Feature", "properties": {"OBJECTID": 326, "FID_D_Leve": 13, "SHAPE_Leng": 1.21508711685}, "geometry": {"type": "LineString", "coordinates": [[122.2061456560001, 68.19792613000004], [120.99114522200011, 68.21243981000003]]}}, {"type": "Feature", "properties": {"OBJECTID": 327, "FID_D_Leve": 213, "SHAPE_Leng": 0.863993399}, "geometry": {"type": "LineString", "coordinates": [[111.36571294200007, 68.37229522900003], [111.36571294200007, 67.50830183000005]]}}, {"type": "Feature", "properties": {"OBJECTID": 328, "FID_D_Leve": 212, "SHAPE_Leng": 9.62675959666}, "geometry": {"type": "LineString", "coordinates": [[120.99114522200011, 68.21243981000003], [111.36571294200007, 68.37229522900003]]}}, {"type": "Feature", "properties": {"OBJECTID": 329, "FID_D_Leve": 1, "SHAPE_Leng": 1.52058061945}, "geometry": {"type": "LineString", "coordinates": [[122.2061456560001, 68.19792613000004], [122.20432460300003, 69.71850565900007]]}}, {"type": "Feature", "properties": {"OBJECTID": 330, "FID_D_Leve": 12, "SHAPE_Leng": 1.44954422819}, "geometry": {"type": "LineString", "coordinates": [[122.20432460300003, 69.71850565900007], [123.65379649500005, 69.70402450600005]]}}, {"type": "Feature", "properties": {"OBJECTID": 331, "FID_D_Leve": 50, "SHAPE_Leng": 2.03901273856}, "geometry": {"type": "LineString", "coordinates": [[69.94515325600008, 72.55713709000008], [67.90614052100005, 72.55701657500003]]}}, {"type": "Feature", "properties": {"OBJECTID": 332, "FID_D_Leve": 26, "SHAPE_Leng": 5.3431209399}, "geometry": {"type": "LineString", "coordinates": [[69.94515325600008, 72.55713709000008], [69.88844867700004, 67.21431705100008]]}}, {"type": "Feature", "properties": {"OBJECTID": 333, "FID_D_Leve": 1, "SHAPE_Leng": 3.7941674109}, "geometry": {"type": "LineString", "coordinates": [[122.20432460300003, 69.71850565900007], [122.1997806930001, 73.51267034900008]]}}, {"type": "Feature", "properties": {"OBJECTID": 334, "FID_D_Leve": 11, "SHAPE_Leng": 1.30571979416}, "geometry": {"type": "LineString", "coordinates": [[122.1997806930001, 73.51267034900008], [120.89477917200009, 73.55597405600008]]}}, {"type": "Feature", "properties": {"OBJECTID": 335, "FID_D_Leve": 49, "SHAPE_Leng": 2.07170642637}, "geometry": {"type": "LineString", "coordinates": [[69.96460917400003, 74.39031297300005], [67.89337807900006, 74.34593653600007]]}}, {"type": "Feature", "properties": {"OBJECTID": 336, "FID_D_Leve": 26, "SHAPE_Leng": 1.83327912516}, "geometry": {"type": "LineString", "coordinates": [[69.96460917400003, 74.39031297300005], [69.94515325600008, 72.55713709000008]]}}, {"type": "Feature", "properties": {"OBJECTID": 337, "FID_D_Leve": 1, "SHAPE_Leng": 2.41843702933}, "geometry": {"type": "LineString", "coordinates": [[122.1997806930001, 73.51267034900008], [122.1968843630001, 75.93110564400007]]}}, {"type": "Feature", "properties": {"OBJECTID": 338, "FID_D_Leve": 8, "SHAPE_Leng": 1.37475751935}, "geometry": {"type": "LineString", "coordinates": [[122.1968843630001, 75.93110564400007], [123.57156552200001, 75.91661605800005]]}}, {"type": "Feature", "properties": {"OBJECTID": 339, "FID_D_Leve": 26, "SHAPE_Leng": 1.85563329406}, "geometry": {"type": "LineString", "coordinates": [[69.98430232900006, 76.24584176600007], [69.96460917400003, 74.39031297300005]]}}, {"type": "Feature", "properties": {"OBJECTID": 340, "FID_D_Leve": 48, "SHAPE_Leng": 1.41610236465}, "geometry": {"type": "LineString", "coordinates": [[69.98430232900006, 76.24584176600007], [71.39969642600005, 76.20105943300007]]}}, {"type": "Feature", "properties": {"OBJECTID": 341, "FID_D_Leve": 10, "SHAPE_Leng": 1.28241312299}, "geometry": {"type": "LineString", "coordinates": [[122.19643344100007, 76.30762580400005], [120.91402032000008, 76.30755440700005]]}}, {"type": "Feature", "properties": {"OBJECTID": 342, "FID_D_Leve": 1, "SHAPE_Leng": 0.376520430013}, "geometry": {"type": "LineString", "coordinates": [[122.1968843630001, 75.93110564400007], [122.19643344100007, 76.30762580400005]]}}, {"type": "Feature", "properties": {"OBJECTID": 343, "FID_D_Leve": 9, "SHAPE_Leng": 1.22882289587}, "geometry": {"type": "LineString", "coordinates": [[122.19492460600009, 77.56750284200007], [120.96610172600003, 77.56730534800005]]}}, {"type": "Feature", "properties": {"OBJECTID": 344, "FID_D_Leve": 1, "SHAPE_Leng": 1.25987794149}, "geometry": {"type": "LineString", "coordinates": [[122.19643344100007, 76.30762580400005], [122.19492460600009, 77.56750284200007]]}}, {"type": "Feature", "properties": {"OBJECTID": 345, "FID_D_Leve": 44, "SHAPE_Leng": 1.2053410125}, "geometry": {"type": "LineString", "coordinates": [[73.32793990800008, 80.45595874100007], [73.35020360700008, 79.25082336100007]]}}, {"type": "Feature", "properties": {"OBJECTID": 346, "FID_D_Leve": 26, "SHAPE_Leng": 4.25107887593}, "geometry": {"type": "LineString", "coordinates": [[70.02941746700003, 80.49668124000004], [69.98430232900006, 76.24584176600007]]}}, {"type": "Feature", "properties": {"OBJECTID": 347, "FID_D_Leve": 25, "SHAPE_Leng": 3.29877380487}, "geometry": {"type": "LineString", "coordinates": [[73.32793990800008, 80.45595874100007], [70.02941746700003, 80.49668124000004]]}}, {"type": "Feature", "properties": {"OBJECTID": 348, "FID_D_Leve": 25, "SHAPE_Leng": 1.43956910454}, "geometry": {"type": "LineString", "coordinates": [[74.64701574400004, 80.93997211000004], [73.71556200500004, 80.45117328300006], [73.32793990800008, 80.45595874100007]]}}, {"type": "Feature", "properties": {"OBJECTID": 349, "FID_D_Leve": 45, "SHAPE_Leng": 1.66143262053}, "geometry": {"type": "LineString", "coordinates": [[74.64701574400004, 80.93997211000004], [74.62416546100008, 79.27869663100006]]}}, {"type": "Feature", "properties": {"OBJECTID": 350, "FID_D_Leve": 215, "SHAPE_Leng": 13.2867629154}, "geometry": {"type": "LineString", "coordinates": [[110.84600967200004, 81.30934273600008], [110.87644890900009, 69.12500912600007], [111.29044155200006, 69.04973773600005], [111.36571294200007, 68.37229522900003]]}}, {"type": "Feature", "properties": {"OBJECTID": 351, "FID_D_Leve": 42, "SHAPE_Leng": 0.790758380068}, "geometry": {"type": "LineString", "coordinates": [[68.81053924800005, 81.58702783200005], [68.24109062100007, 81.03836848700007]]}}, {"type": "Feature", "properties": {"OBJECTID": 352, "FID_D_Leve": 25, "SHAPE_Leng": 1.64704027425}, "geometry": {"type": "LineString", "coordinates": [[70.02941746700003, 80.49668124000004], [69.98334777000008, 80.49725000200004], [68.81053924800005, 81.58702783200005]]}}, {"type": "Feature", "properties": {"OBJECTID": 353, "FID_D_Leve": 25, "SHAPE_Leng": 1.72004963663}, "geometry": {"type": "LineString", "coordinates": [[76.17008833500006, 81.73923466700006], [74.64701574400004, 80.93997211000004]]}}, {"type": "Feature", "properties": {"OBJECTID": 354, "FID_D_Leve": 47, "SHAPE_Leng": 1.93287055013}, "geometry": {"type": "LineString", "coordinates": [[76.17008833500006, 81.73923466700006], [76.98944447700006, 79.98862218100004]]}}, {"type": "Feature", "properties": {"OBJECTID": 355, "FID_D_Leve": 25, "SHAPE_Leng": 0.347534914893}, "geometry": {"type": "LineString", "coordinates": [[68.81053924800005, 81.58702783200005], [68.55594818300005, 81.82359475000004]]}}, {"type": "Feature", "properties": {"OBJECTID": 356, "FID_D_Leve": 25, "SHAPE_Leng": 1.22967060283}, "geometry": {"type": "LineString", "coordinates": [[77.25893923300004, 82.31063077600004], [76.17008833500006, 81.73923466700006]]}}, {"type": "Feature", "properties": {"OBJECTID": 357, "FID_D_Leve": 46, "SHAPE_Leng": 1.53035442514}, "geometry": {"type": "LineString", "coordinates": [[77.25893923300004, 82.31063077600004], [78.21068187200007, 81.11222741500006]]}}, {"type": "Feature", "properties": {"OBJECTID": 358, "FID_D_Leve": 1, "SHAPE_Leng": 4.93336202885}, "geometry": {"type": "LineString", "coordinates": [[122.19492460600009, 77.56750284200007], [122.1890163920001, 82.50086133300005]]}}, {"type": "Feature", "properties": {"OBJECTID": 359, "FID_D_Leve": 25, "SHAPE_Leng": 0.384518521335}, "geometry": {"type": "LineString", "coordinates": [[122.1890163920001, 82.50086133300005], [121.8045253570001, 82.50545886000003]]}}, {"type": "Feature", "properties": {"OBJECTID": 360, "FID_D_Leve": 25, "SHAPE_Leng": 2.17860958239}, "geometry": {"type": "LineString", "coordinates": [[121.8045253570001, 82.50545886000003], [119.626071507, 82.53150758200007]]}}, {"type": "Feature", "properties": {"OBJECTID": 361, "FID_D_Leve": 2, "SHAPE_Leng": 2.35396240947}, "geometry": {"type": "LineString", "coordinates": [[122.1890163920001, 82.50086133300005], [124.54276104400003, 82.53287911500007]]}}, {"type": "Feature", "properties": {"OBJECTID": 362, "FID_D_Leve": 29, "SHAPE_Leng": 1.80259049125}, "geometry": {"type": "LineString", "coordinates": [[118.54737109900009, 82.54440607300006], [118.52563949900002, 80.74194658200008]]}}, {"type": "Feature", "properties": {"OBJECTID": 363, "FID_D_Leve": 25, "SHAPE_Leng": 1.07877752168}, "geometry": {"type": "LineString", "coordinates": [[119.626071507, 82.53150758200007], [118.54737109900009, 82.54440607300006]]}}, {"type": "Feature", "properties": {"OBJECTID": 364, "FID_D_Leve": 25, "SHAPE_Leng": 2.4808529955}, "geometry": {"type": "LineString", "coordinates": [[118.54737109900009, 82.54440607300006], [116.06669544100009, 82.57406859300005]]}}, {"type": "Feature", "properties": {"OBJECTID": 365, "FID_D_Leve": 2, "SHAPE_Leng": 3.18441960338}, "geometry": {"type": "LineString", "coordinates": [[124.54276104400003, 82.53287911500007], [127.72688606700001, 82.57619248800006]]}}, {"type": "Feature", "properties": {"OBJECTID": 366, "FID_D_Leve": 25, "SHAPE_Leng": 1.51044328622}, "geometry": {"type": "LineString", "coordinates": [[116.06669544100009, 82.57406859300005], [114.55636012500008, 82.59212833100008]]}}, {"type": "Feature", "properties": {"OBJECTID": 367, "FID_D_Leve": 2, "SHAPE_Leng": 3.08509153387}, "geometry": {"type": "LineString", "coordinates": [[127.72688606700001, 82.57619248800006], [130.81169220900006, 82.61815483600003]]}}, {"type": "Feature", "properties": {"OBJECTID": 368, "FID_D_Leve": 2, "SHAPE_Leng": 0.271833288416}, "geometry": {"type": "LineString", "coordinates": [[130.81169220900006, 82.61815483600003], [131.0835003510001, 82.62185221800007]]}}, {"type": "Feature", "properties": {"OBJECTID": 369, "FID_D_Leve": 3, "SHAPE_Leng": 1.36531450635}, "geometry": {"type": "LineString", "coordinates": [[131.0835003510001, 82.62185221800007], [131.0597796820001, 81.25674378600007]]}}, {"type": "Feature", "properties": {"OBJECTID": 370, "FID_D_Leve": 32, "SHAPE_Leng": 1.32757796738}, "geometry": {"type": "LineString", "coordinates": [[110.82469116700008, 82.63674952400004], [110.84600967200004, 81.30934273600008]]}}, {"type": "Feature", "properties": {"OBJECTID": 371, "FID_D_Leve": 25, "SHAPE_Leng": 3.731935726}, "geometry": {"type": "LineString", "coordinates": [[114.55636012500008, 82.59212833100008], [110.82469116700008, 82.63674952400004]]}}, {"type": "Feature", "properties": {"OBJECTID": 372, "FID_D_Leve": 2, "SHAPE_Leng": 1.46582764198}, "geometry": {"type": "LineString", "coordinates": [[131.0835003510001, 82.62185221800007], [132.5491923940001, 82.64178989800007]]}}, {"type": "Feature", "properties": {"OBJECTID": 373, "FID_D_Leve": 4, "SHAPE_Leng": 1.43145517554}, "geometry": {"type": "LineString", "coordinates": [[132.5491923940001, 82.64178989800007], [132.57291760200008, 81.21053134900006]]}}, {"type": "Feature", "properties": {"OBJECTID": 374, "FID_D_Leve": 25, "SHAPE_Leng": 1.35945054289}, "geometry": {"type": "LineString", "coordinates": [[110.82469116700008, 82.63674952400004], [109.46533780100003, 82.65300390500005]]}}, {"type": "Feature", "properties": {"OBJECTID": 375, "FID_D_Leve": 35, "SHAPE_Leng": 1.34134119932}, "geometry": {"type": "LineString", "coordinates": [[109.14180505100006, 82.65687252700008], [109.14193529500005, 81.31553133400007]]}}, {"type": "Feature", "properties": {"OBJECTID": 376, "FID_D_Leve": 25, "SHAPE_Leng": 0.323555878572}, "geometry": {"type": "LineString", "coordinates": [[109.46533780100003, 82.65300390500005], [109.14180505100006, 82.65687252700008]]}}, {"type": "Feature", "properties": {"OBJECTID": 377, "FID_D_Leve": 25, "SHAPE_Leng": 1.48835704044}, "geometry": {"type": "LineString", "coordinates": [[109.14180505100006, 82.65687252700008], [107.65355440200005, 82.67466818900004]]}}, {"type": "Feature", "properties": {"OBJECTID": 378, "FID_D_Leve": 25, "SHAPE_Leng": 4.59500932862}, "geometry": {"type": "LineString", "coordinates": [[107.65355440200005, 82.67466818900004], [103.05887353600008, 82.72960879100003]]}}, {"type": "Feature", "properties": {"OBJECTID": 379, "FID_D_Leve": 2, "SHAPE_Leng": 7.66844253388}, "geometry": {"type": "LineString", "coordinates": [[132.5491923940001, 82.64178989800007], [140.2169255450001, 82.74609340000006]]}}, {"type": "Feature", "properties": {"OBJECTID": 380, "FID_D_Leve": 25, "SHAPE_Leng": 1.76928798907}, "geometry": {"type": "LineString", "coordinates": [[103.05887353600008, 82.72960879100003], [101.28971202000008, 82.75076342600005]]}}, {"type": "Feature", "properties": {"OBJECTID": 381, "FID_D_Leve": 38, "SHAPE_Leng": 1.42442003814}, "geometry": {"type": "LineString", "coordinates": [[99.93061656200007, 82.76701472300005], [99.95230820600005, 81.34275985900007]]}}, {"type": "Feature", "properties": {"OBJECTID": 382, "FID_D_Leve": 25, "SHAPE_Leng": 1.35919261645}, "geometry": {"type": "LineString", "coordinates": [[101.28971202000008, 82.75076342600005], [99.93061656200007, 82.76701472300005]]}}, {"type": "Feature", "properties": {"OBJECTID": 383, "FID_D_Leve": 40, "SHAPE_Leng": 1.5276182923}, "geometry": {"type": "LineString", "coordinates": [[98.31295281200005, 82.78635783400006], [98.31306743000005, 81.25873954600007]]}}, {"type": "Feature", "properties": {"OBJECTID": 384, "FID_D_Leve": 25, "SHAPE_Leng": 1.61777939287}, "geometry": {"type": "LineString", "coordinates": [[99.93061656200007, 82.76701472300005], [98.31295281200005, 82.78635783400006]]}}, {"type": "Feature", "properties": {"OBJECTID": 385, "FID_D_Leve": 25, "SHAPE_Leng": 0.259102629301}, "geometry": {"type": "LineString", "coordinates": [[98.31295281200005, 82.78635783400006], [98.05386870400008, 82.78945581600004]]}}, {"type": "Feature", "properties": {"OBJECTID": 386, "FID_D_Leve": 41, "SHAPE_Leng": 1.12999644236}, "geometry": {"type": "LineString", "coordinates": [[93.52363648000005, 82.84362577700006], [93.50198035800008, 81.71383687100007]]}}, {"type": "Feature", "properties": {"OBJECTID": 387, "FID_D_Leve": 25, "SHAPE_Leng": 4.53055607934}, "geometry": {"type": "LineString", "coordinates": [[98.05386870400008, 82.78945581600004], [93.52363648000005, 82.84362577700006]]}}, {"type": "Feature", "properties": {"OBJECTID": 388, "FID_D_Leve": 25, "SHAPE_Leng": 2.61930654984}, "geometry": {"type": "LineString", "coordinates": [[68.55594818300005, 81.82359475000004], [67.38001314900004, 82.91627774600005], [66.38737377600006, 82.70889349300006]]}}, {"type": "Feature", "properties": {"OBJECTID": 389, "FID_D_Leve": 25, "SHAPE_Leng": 16.4410549805}, "geometry": {"type": "LineString", "coordinates": [[93.52363648000005, 82.84362577700006], [78.61433723900006, 83.02190276700009], [77.25893923300004, 82.31063077600004]]}}, {"type": "Feature", "properties": {"OBJECTID": 390, "FID_D_Leve": 43, "SHAPE_Leng": 1.82512339362}, "geometry": {"type": "LineString", "coordinates": [[68.55594818300005, 81.82359475000004], [69.70535865900007, 83.24131508900007]]}}, {"type": "Feature", "properties": {"OBJECTID": 391, "FID_D_Leve": 39, "SHAPE_Leng": 0.927616673209}, "geometry": {"type": "LineString", "coordinates": [[98.05386870400008, 82.78945581600004], [98.07607578900007, 83.71680663300003]]}}, {"type": "Feature", "properties": {"OBJECTID": 392, "FID_D_Leve": 31, "SHAPE_Leng": 1.13096151676}, "geometry": {"type": "LineString", "coordinates": [[114.55636012500008, 82.59212833100008], [114.5780427310001, 83.72288198100006]]}}, {"type": "Feature", "properties": {"OBJECTID": 393, "FID_D_Leve": 36, "SHAPE_Leng": 0.999724372481}, "geometry": {"type": "LineString", "coordinates": [[103.05887353600008, 82.72960879100003], [103.08004255000009, 83.72910901300008]]}}, {"type": "Feature", "properties": {"OBJECTID": 394, "FID_D_Leve": 7, "SHAPE_Leng": 1.20012861887}, "geometry": {"type": "LineString", "coordinates": [[124.54276104400003, 82.53287911500007], [124.55509781700005, 83.73294432400007]]}}, {"type": "Feature", "properties": {"OBJECTID": 395, "FID_D_Leve": 37, "SHAPE_Leng": 0.987101067912}, "geometry": {"type": "LineString", "coordinates": [[101.28971202000008, 82.75076342600005], [101.26796012800008, 83.73762480100004]]}}, {"type": "Feature", "properties": {"OBJECTID": 396, "FID_D_Leve": 28, "SHAPE_Leng": 1.24654613903}, "geometry": {"type": "LineString", "coordinates": [[121.8045253570001, 82.50545886000003], [121.8047189240001, 83.75200498400005]]}}, {"type": "Feature", "properties": {"OBJECTID": 397, "FID_D_Leve": 27, "SHAPE_Leng": 1.24399707021}, "geometry": {"type": "LineString", "coordinates": [[119.626071507, 82.53150758200007], [119.64754436300007, 83.77531931500005]]}}, {"type": "Feature", "properties": {"OBJECTID": 398, "FID_D_Leve": 34, "SHAPE_Leng": 1.10693968521}, "geometry": {"type": "LineString", "coordinates": [[107.65355440200005, 82.67466818900004], [107.63187314100009, 83.78139552200008]]}}, {"type": "Feature", "properties": {"OBJECTID": 399, "FID_D_Leve": 33, "SHAPE_Leng": 1.13559104554}, "geometry": {"type": "LineString", "coordinates": [[109.46533780100003, 82.65300390500005], [109.46547705900008, 83.78859494200003]]}}, {"type": "Feature", "properties": {"OBJECTID": 400, "FID_D_Leve": 30, "SHAPE_Leng": 1.22723296212}, "geometry": {"type": "LineString", "coordinates": [[116.06669544100009, 82.57406859300005], [116.08816234200003, 83.80111379000004]]}}, {"type": "Feature", "properties": {"OBJECTID": 401, "FID_D_Leve": 6, "SHAPE_Leng": 1.23615441434}, "geometry": {"type": "LineString", "coordinates": [[127.72688606700001, 82.57619248800006], [127.68954557900008, 83.81178280200004]]}}, {"type": "Feature", "properties": {"OBJECTID": 402, "FID_D_Leve": 5, "SHAPE_Leng": 1.21179368123}, "geometry": {"type": "LineString", "coordinates": [[130.81169220900006, 82.61815483600003], [130.78674729300008, 83.82969174300007]]}}, {"type": "Feature", "properties": {"OBJECTID": 0, "FID_D_Leve": 0, "SHAPE_Leng": 0.0}, "geometry": {"type": "LineString", "coordinates": [[55.95534751900004, 11.432447617000037], [56.01723385331498, 8.824607310914796]]}}]}