{"type": "FeatureCollection", "features": [{"type": "Feature", "properties": {"OBJECTID": 1, "PlaceName": "Head Rest", "PersonName": "", "Contact": "", "PlaceNode": 1, "Email": "", "Details": "", "PlaceType": "Facility,coffee"}, "geometry": {"type": "Polygon", "coordinates": [[[54.857848458000035, 38.29659290600006], [67.55421052900004, 38.270197143000075], [67.53533388800008, 29.190532881000024], [54.83897181700007, 29.216928644000063], [54.857848458000035, 38.29659290600006]]]}}, {"type": "Feature", "properties": {"OBJECTID": 2, "PlaceName": "D118", "PersonName": "", "Contact": "", "PlaceNode": 2, "Email": "", "Details": "GIS, RS", "PlaceType": "Lab"}, "geometry": {"type": "Polygon", "coordinates": [[[110.02811729800004, 52.641111763000026], [120.91553011500002, 52.641111763000026], [120.91553011500002, 42.76027107500005], [110.02811729800004, 42.76027107500005], [110.02811729800004, 52.641111763000026]]]}}, {"type": "Feature", "properties": {"OBJECTID": 3, "PlaceName": "D117", "PersonName": "", "Contact": "", "PlaceNode": 3, "Email": "", "Details": "Lab", "PlaceType": "Lab"}, "geometry": {"type": "Polygon", "coordinates": [[[123.5654853100001, 51.922131671000045], [127.13984348000008, 51.901589383000044], [127.08530535600005, 42.41195590600006], [123.51094718600007, 42.43249819400006], [123.5654853100001, 51.922131671000045]]]}}, {"type": "Feature", "properties": {"OBJECTID": 4, "PlaceName": "D107", "PersonName": "CoOp Office", "Contact": "", "PlaceNode": 4, "Email": "", "Details": "", "PlaceType": "Office"}, "geometry": {"type": "Polygon", "coordinates": [[[14.936179346000074, 26.109628522000037], [22.013679719000038, 26.146426618000078], [22.04129448300006, 20.83518708300005], [14.963794110000038, 20.798388987000067], [14.936179346000074, 26.109628522000037]]]}}, {"type": "Feature", "properties": {"OBJECTID": 5, "PlaceName": "D128", "PersonName": "", "Contact": "", "PlaceNode": 5, "Email": "", "Details": "", "PlaceType": "Classroom"}, "geometry": {"type": "Polygon", "coordinates": [[[58.359818493000034, 14.295656467000072], [67.63356283200005, 14.295656467000072], [67.63356283200005, 8.108190389000072], [58.359818493000034, 8.108190389000072], [58.359818493000034, 14.295656467000072]]]}}, {"type": "Feature", "properties": {"OBJECTID": 6, "PlaceName": "D135", "PersonName": "", "Contact": "", "PlaceNode": 6, "Email": "", "Details": "", "PlaceType": "Classroom"}, "geometry": {"type": "Polygon", "coordinates": [[[69.80054383100008, 22.560024377000047], [81.96733600900006, 22.580002689000025], [81.98101597300007, 14.248904906000064], [69.81422379500003, 14.22892659400003], [69.80054383100008, 22.560024377000047]]]}}, {"type": "Feature", "properties": {"OBJECTID": 7, "PlaceName": "D33", "PersonName": "", "Contact": "", "PlaceNode": 7, "Email": "", "Details": "", "PlaceType": "Classroom"}, "geometry": {"type": "Polygon", "coordinates": [[[95.52869164600008, 38.89382796600006], [101.84449469400005, 38.858245977000024], [101.79277998600008, 29.678885320000063], [95.47697693800006, 29.714467309000042], [95.52869164600008, 38.89382796600006]]]}}, {"type": "Feature", "properties": {"OBJECTID": 8, "PlaceName": "D110", "PersonName": "", "Contact": "", "PlaceNode": 8, "Email": "", "Details": "", "PlaceType": "Classroom"}, "geometry": {"type": "Polygon", "coordinates": [[[123.57156552200001, 76.62256989300005], [131.8199068980001, 76.62256989300005], [131.8199068980001, 70.64491619200004], [123.57156552200001, 70.64491619200004], [123.57156552200001, 76.62256989300005]]]}}, {"type": "Feature", "properties": {"OBJECTID": 9, "PlaceName": "D124", "PersonName": "", "Contact": "", "PlaceNode": 9, "Email": "", "Details": "", "PlaceType": "Classroom"}, "geometry": {"type": "Polygon", "coordinates": [[[99.04530020000004, 81.34544729000004], [110.03012499500005, 81.31289966100007], [109.99786781900008, 70.42610264300004], [99.01304302400007, 70.45865027200006], [99.04530020000004, 81.34544729000004]]]}}, {"type": "Feature", "properties": {"OBJECTID": 10, "PlaceName": "D415", "PersonName": "FCS Lab", "Contact": "", "PlaceNode": 10, "Email": "", "Details": "", "PlaceType": "Lab"}, "geometry": {"type": "Polygon", "coordinates": [[[71.33052464100007, 64.60113284700003], [82.05989526400003, 64.60113284700003], [82.05989526400003, 52.129385798000044], [71.33052464100007, 52.129385798000044], [71.33052464100007, 64.60113284700003]]]}}, {"type": "Feature", "properties": {"OBJECTID": 11, "PlaceName": "D414", "PersonName": "FCS Lab", "Contact": "", "PlaceNode": 11, "Email": "", "Details": "", "PlaceType": "Lab"}, "geometry": {"type": "Polygon", "coordinates": [[[71.39678343200006, 76.98756774900005], [82.01387394000005, 77.02689030700003], [82.05989526400003, 64.60113284700003], [71.44280475600004, 64.56181029000004], [71.39678343200006, 76.98756774900005]]]}}, {"type": "Feature", "properties": {"OBJECTID": 12, "PlaceName": "D119", "PersonName": "VLSI Lab", "Contact": "", "PlaceNode": 12, "Email": "", "Details": "", "PlaceType": "Lab"}, "geometry": {"type": "Polygon", "coordinates": [[[110.02811729800004, 52.641111763000026], [110.05577723800008, 60.662923094000064], [120.94539910200001, 60.646348327000055], [120.91553011500002, 52.641111763000026], [110.02811729800004, 52.641111763000026]]]}}, {"type": "Feature", "properties": {"OBJECTID": 13, "PlaceName": "D123", "PersonName": "Control and Instrumentation Lab", "Contact": "", "PlaceNode": 13, "Email": "", "Details": "", "PlaceType": "Lab"}, "geometry": {"type": "Polygon", "coordinates": [[[110.05577723800008, 60.662923094000064], [110.08892677200004, 67.50830183000005], [120.9951234030001, 67.50830183000005], [120.94539910200001, 60.646348327000055], [110.05577723800008, 60.662923094000064]]]}}, {"type": "Feature", "properties": {"OBJECTID": 14, "PlaceName": "", "PersonName": "", "Contact": "", "PlaceNode": 14, "Email": "", "Details": "", "PlaceType": ""}, "geometry": {"type": "Polygon", "coordinates": [[[110.08892677200004, 67.50830183000005], [110.03012499500005, 81.31289966100007], [117.13320271100008, 81.28193313700007], [117.06690364400004, 70.45861034100005], [120.97854863600003, 70.44203557400004], [120.9951234030001, 67.50830183000005], [110.08892677200004, 67.50830183000005]]]}}, {"type": "Feature", "properties": {"OBJECTID": 15, "PlaceName": "Lift1", "PersonName": "B,C,E", "Contact": "", "PlaceNode": 15, "Email": "", "Details": "", "PlaceType": ""}, "geometry": {"type": "Polygon", "coordinates": [[[117.29097927700002, 80.76218691300005], [119.9723395850001, 80.71823018700007], [119.92838285900007, 78.63028568400006], [117.35691436600007, 78.63028568400006], [117.29097927700002, 80.76218691300005]]]}}, {"type": "Feature", "properties": {"OBJECTID": 16, "PlaceName": "", "PersonName": "", "Contact": "", "PlaceNode": 16, "Email": "", "Details": "", "PlaceType": ""}, "geometry": {"type": "Polygon", "coordinates": [[[117.29097927700002, 78.45445877900005], [120.93938756500006, 78.54237223200005], [120.9833442910001, 76.93795171900007], [117.26900091400012, 76.98190844600003], [117.29097927700002, 78.45445877900005]]]}}, {"type": "Feature", "properties": {"OBJECTID": 17, "PlaceName": "D122", "PersonName": "", "Contact": "", "PlaceNode": 17, "Email": "", "Details": "", "PlaceType": ""}, "geometry": {"type": "Polygon", "coordinates": [[[117.29097927700002, 76.85003826700006], [120.89543083800004, 76.82805990400004], [120.93938756500006, 75.59727156500009], [117.29097927700002, 75.61924992900003], [117.29097927700002, 76.85003826700006]]]}}, {"type": "Feature", "properties": {"OBJECTID": 18, "PlaceName": "D121", "PersonName": "", "Contact": "", "PlaceNode": 18, "Email": "", "Details": "", "PlaceType": ""}, "geometry": {"type": "Polygon", "coordinates": [[[117.31361881700002, 75.61911354600005], [120.851474112, 75.48737975000006], [120.96136592800008, 70.58620476000004], [117.26900091400012, 70.60818312300006], [117.31361881700002, 75.61911354600005]]]}}, {"type": "Feature", "properties": {"OBJECTID": 19, "PlaceName": "Steps4", "PersonName": "B,C,E", "Contact": "", "PlaceNode": 19, "Email": "", "Details": "", "PlaceType": ""}, "geometry": {"type": "Polygon", "coordinates": [[[92.69350597700009, 81.70211985100008], [94.43677498200003, 81.72738462000007], [94.46203975000003, 81.17155971900007], [95.82633723200007, 80.38835190600008], [95.85160200000007, 76.90181389600008], [93.57777286400005, 76.90181389600008], [92.61771167200004, 78.39243521900005], [92.69350597700009, 81.70211985100008]]]}}, {"type": "Feature", "properties": {"OBJECTID": 20, "PlaceName": "D124A", "PersonName": "", "Contact": "", "PlaceNode": 20, "Email": "", "Details": "", "PlaceType": ""}, "geometry": {"type": "Polygon", "coordinates": [[[95.59895431900009, 70.63615138500006], [95.16945325900008, 70.91406383500004], [94.73995220000006, 71.89938979400006], [94.71468743200006, 76.90181389600008], [95.97792584100006, 77.02813773700007], [95.85160200000007, 81.29788356000006], [99.04500880000006, 81.24709968200006], [99.01371819100007, 70.68651929300006], [95.59895431900009, 70.63615138500006]]]}}, {"type": "Feature", "properties": {"OBJECTID": 21, "PlaceName": "D116", "PersonName": "Troy Lavigne", "Contact": "", "PlaceNode": 21, "Email": "", "Details": "", "PlaceType": "Faculty"}, "geometry": {"type": "Polygon", "coordinates": [[[123.63644952000004, 51.921723831000065], [123.63714936600002, 55.04447941900003], [127.13394616500011, 55.09667041600005], [127.00340748800011, 51.90237349800003], [123.63644952000004, 51.921723831000065]]]}}, {"type": "Feature", "properties": {"OBJECTID": 22, "PlaceName": "D115", "PersonName": "Yevgen Biletskiy", "Contact": "", "PlaceNode": 22, "Email": "", "Details": "", "PlaceType": "Faculty"}, "geometry": {"type": "Polygon", "coordinates": [[[123.67179339000006, 55.116467001000046], [123.59980580800004, 58.26592371700008], [127.0642081950001, 58.25692526900008], [127.05520974700005, 55.143462345000046], [123.67179339000006, 55.116467001000046]]]}}, {"type": "Feature", "properties": {"OBJECTID": 23, "PlaceName": "D114", "PersonName": "S. Saveh", "Contact": "", "PlaceNode": 23, "Email": "", "Details": "", "PlaceType": "Faculty"}, "geometry": {"type": "Polygon", "coordinates": [[[123.59980580800004, 58.26592371700008], [123.66279494200012, 61.34339285000004], [127.08220509000012, 61.316397506000044], [127.02814452900009, 58.25701894100007], [123.59980580800004, 58.26592371700008]]]}}, {"type": "Feature", "properties": {"OBJECTID": 24, "PlaceName": "D113", "PersonName": "M.E. Kaye", "Contact": "", "PlaceNode": 24, "Email": "", "Details": "", "PlaceType": "Faculty"}, "geometry": {"type": "Polygon", "coordinates": [[[123.66279494200012, 61.34339285000004], [123.59980580800004, 64.44785732600008], [127.0462112990001, 64.47485266900003], [127.08220509000012, 61.316397506000044], [123.66279494200012, 61.34339285000004]]]}}, {"type": "Feature", "properties": {"OBJECTID": 25, "PlaceName": "D112", "PersonName": "M. Stevenson", "Contact": "", "PlaceNode": 25, "Email": "", "Details": "", "PlaceType": "Faculty"}, "geometry": {"type": "Polygon", "coordinates": [[[123.59980580800004, 64.44785732600008], [123.65379649500005, 67.51632801100004], [127.0282144040001, 67.52532645900004], [126.97408717400003, 64.47428772800004], [123.59980580800004, 64.44785732600008]]]}}, {"type": "Feature", "properties": {"OBJECTID": 26, "PlaceName": "D111", "PersonName": "L. Chang", "Contact": "", "PlaceNode": 26, "Email": "", "Details": "", "PlaceType": "Faculty"}, "geometry": {"type": "Polygon", "coordinates": [[[123.65379649500005, 67.51632801100004], [123.65379649500005, 70.44082353200008], [127.0462112990001, 70.47681732300003], [127.0282144040001, 67.52532645900004], [123.65379649500005, 67.51632801100004]]]}}, {"type": "Feature", "properties": {"OBJECTID": 27, "PlaceName": "D109", "PersonName": "", "Contact": "", "PlaceNode": 27, "Email": "", "Details": "", "PlaceType": ""}, "geometry": {"type": "Polygon", "coordinates": [[[123.49256637000008, 81.27691095700004], [131.70463576300006, 81.33178001700009], [131.72292544900006, 76.62256989300005], [123.57156552200001, 76.62256989300005], [123.49256637000008, 81.27691095700004]]]}}, {"type": "Feature", "properties": {"OBJECTID": 28, "PlaceName": "D108", "PersonName": "FCS Lab", "Contact": "", "PlaceNode": 28, "Email": "", "Details": "", "PlaceType": "Lab"}, "geometry": {"type": "Polygon", "coordinates": [[[131.869242944, 81.20375221000006], [141.361590416, 81.29520064400003], [141.37988010200002, 77.08857267000008], [142.4223922530001, 77.03370360900004], [142.4772613130001, 72.02232941400007], [141.7639635260001, 70.65060290100007], [131.9241120050001, 70.63231321400008], [131.869242944, 81.20375221000006]]]}}, {"type": "Feature", "properties": {"OBJECTID": 29, "PlaceName": "Steps3", "PersonName": "B,C,E", "Contact": "", "PlaceNode": 29, "Email": "", "Details": "", "PlaceType": ""}, "geometry": {"type": "Polygon", "coordinates": [[[140.20934014500006, 83.70943930700008], [141.27014198100005, 83.80088774100005], [143.59293221000007, 83.91062586200007], [144.5439959260001, 82.53889934900008], [144.59886498700007, 78.77122385900003], [143.72096001800003, 77.01541392300004], [141.37988010200002, 77.08857267000008], [141.48961822400008, 81.35006970400008], [140.22762983100006, 81.38664907800006], [140.20934014500006, 83.70943930700008]]]}}, {"type": "Feature", "properties": {"OBJECTID": 30, "PlaceName": "D107", "PersonName": "Civil Engineering Transporation Research", "Contact": "", "PlaceNode": 30, "Email": "", "Details": "", "PlaceType": ""}, "geometry": {"type": "Polygon", "coordinates": [[[128.61367868600007, 87.47711479700007], [140.61171325500004, 87.47711479700007], [141.56277697100006, 85.97736047600006], [141.61600997300002, 83.81722796100007], [128.63196837300006, 83.80088774100005], [128.61367868600007, 87.47711479700007]]]}}, {"type": "Feature", "properties": {"OBJECTID": 31, "PlaceName": "D106", "PersonName": "", "Contact": "", "PlaceNode": 31, "Email": "", "Details": "", "PlaceType": ""}, "geometry": {"type": "Polygon", "coordinates": [[[125.54101129700007, 87.42224573600004], [128.6141322840001, 87.38594160000008], [128.63196837300006, 83.80088774100005], [125.4678525490001, 83.83746711500004], [125.54101129700007, 87.42224573600004]]]}}, {"type": "Feature", "properties": {"OBJECTID": 32, "PlaceName": "D102", "PersonName": "Eric Hildebrand", "Contact": "", "PlaceNode": 32, "Email": "", "Details": "", "PlaceType": "Faculty"}, "geometry": {"type": "Polygon", "coordinates": [[[122.4134748460001, 88.51962694700006], [124.93745163100004, 88.59278569400004], [125.54101129700007, 87.51369417000006], [125.4312731760001, 83.72772899400007], [122.35860578600011, 83.74601868100007], [122.4134748460001, 88.51962694700006]]]}}, {"type": "Feature", "properties": {"OBJECTID": 33, "PlaceName": "Steps1", "PersonName": "B,C,E", "Contact": "", "PlaceNode": 33, "Email": "", "Details": "", "PlaceType": ""}, "geometry": {"type": "Polygon", "coordinates": [[[119.08533912500002, 83.78139552200008], [118.91698451500008, 88.66367920500005], [119.56635229500012, 90.01051608300008], [121.9714181490001, 89.89026279100005], [122.4134748460001, 88.51962694700006], [122.35860578600011, 83.74601868100007], [119.08533912500002, 83.78139552200008]]]}}, {"type": "Feature", "properties": {"OBJECTID": 34, "PlaceName": "D-Restroom (Male) - 1", "PersonName": "", "Contact": "", "PlaceNode": 34, "Email": "", "Details": "", "PlaceType": "Facility,male"}, "geometry": {"type": "Polygon", "coordinates": [[[115.42963902700001, 83.80544618000005], [115.33343639200007, 88.37507130300008], [118.92363986400005, 88.47067409800007], [119.08533912500002, 83.78139552200008], [115.42963902700001, 83.80544618000005]]]}}, {"type": "Feature", "properties": {"OBJECTID": 35, "PlaceName": "D-Restroom (Female) - 1", "PersonName": "", "Contact": "", "PlaceNode": 35, "Email": "", "Details": "", "PlaceType": "Facility,female"}, "geometry": {"type": "Polygon", "coordinates": [[[115.23723375800012, 83.70924354600004], [111.74988827000004, 83.78139552200008], [111.72583761100009, 87.34089298500004], [112.35115473300004, 88.35102064400007], [115.11698046600009, 88.27886866800009], [115.23723375800012, 83.70924354600004]]]}}, {"type": "Feature", "properties": {"OBJECTID": 36, "PlaceName": "D129", "PersonName": "T. Hanson", "Contact": "", "PlaceNode": 36, "Email": "", "Details": "", "PlaceType": "Faculty"}, "geometry": {"type": "Polygon", "coordinates": [[[111.60558431900006, 83.80544618000005], [108.55115068400005, 83.78139552200008], [108.55115068400005, 87.36494364400005], [111.55748300200008, 87.36494364400005], [111.60558431900006, 83.80544618000005]]]}}, {"type": "Feature", "properties": {"OBJECTID": 37, "PlaceName": "D128", "PersonName": "Won Taek Oh", "Contact": "", "PlaceNode": 37, "Email": "", "Details": "", "PlaceType": "Faculty"}, "geometry": {"type": "Polygon", "coordinates": [[[105.28026112300006, 87.29279166800006], [108.55115068400005, 87.36494364400005], [108.55115068400005, 83.78139552200008], [105.32836244000003, 83.78139552200008], [105.28026112300006, 87.29279166800006]]]}}, {"type": "Feature", "properties": {"OBJECTID": 38, "PlaceName": "D127", "PersonName": "Xiomara Sanchez", "Contact": "", "PlaceNode": 38, "Email": "", "Details": "", "PlaceType": "Faculty"}, "geometry": {"type": "Polygon", "coordinates": [[[105.32836244000003, 83.78139552200008], [102.22582748800005, 83.70924354600004], [102.15367551300005, 87.31684232700007], [105.39886511600008, 87.29540793300004], [105.32836244000003, 83.78139552200008]]]}}, {"type": "Feature", "properties": {"OBJECTID": 39, "PlaceName": "D126", "PersonName": "MF Couturier", "Contact": "", "PlaceNode": 39, "Email": "", "Details": "", "PlaceType": "Faculty"}, "geometry": {"type": "Polygon", "coordinates": [[[102.22582748800005, 83.70924354600004], [98.97898858500008, 83.80544618000005], [99.05114056100007, 87.34089298500004], [102.15367551300005, 87.31684232700007], [102.22582748800005, 83.70924354600004]]]}}, {"type": "Feature", "properties": {"OBJECTID": 40, "PlaceName": "D125", "PersonName": "Katy Haralam Prides", "Contact": "", "PlaceNode": 40, "Email": "", "Details": "", "PlaceType": "Faculty"}, "geometry": {"type": "Polygon", "coordinates": [[[98.95493792700006, 83.68519288700008], [95.61189639000008, 83.80544618000005], [95.65999770700006, 85.99405610700006], [96.45366943900007, 87.34089298500004], [99.05010924600003, 87.29035856700006], [98.95493792700006, 83.68519288700008]]]}}, {"type": "Feature", "properties": {"OBJECTID": 41, "PlaceName": "D-Restroom (Male) - 2", "PersonName": "", "Contact": "", "PlaceNode": 41, "Email": "", "Details": "", "PlaceType": "Facility,male"}, "geometry": {"type": "Polygon", "coordinates": [[[80.31491724800003, 77.11358033600004], [77.50572542300006, 77.10269199600003], [77.47306040200004, 80.48896586200004], [78.87765631400003, 81.67579496700006], [80.31491724800003, 81.68668330700007], [80.31491724800003, 77.11358033600004]]]}}, {"type": "Feature", "properties": {"OBJECTID": 42, "PlaceName": "D-Restroom (Female) - 2", "PersonName": "", "Contact": "", "PlaceNode": 42, "Email": "", "Details": "", "PlaceType": "Facility,female"}, "geometry": {"type": "Polygon", "coordinates": [[[66.16718803100008, 81.69025126700006], [67.48241412500005, 81.70431785600005], [68.74840715600004, 80.59305730600005], [68.72027397800008, 77.16784282700007], [66.16718803100008, 77.19597600500003], [66.16718803100008, 81.69025126700006]]]}}, {"type": "Feature", "properties": {"OBJECTID": 43, "PlaceName": "", "PersonName": "", "Contact": "", "PlaceNode": 43, "Email": "", "Details": "", "PlaceType": ""}, "geometry": {"type": "Polygon", "coordinates": [[[71.55328505100005, 79.25082336100007], [74.00706087800006, 79.25082336100007], [74.05713793500007, 77.22270252500005], [71.55587895700006, 77.24585383400006], [71.55328505100005, 79.25082336100007]]]}}, {"type": "Feature", "properties": {"OBJECTID": 44, "PlaceName": "", "PersonName": "", "Contact": "", "PlaceNode": 44, "Email": "", "Details": "", "PlaceType": ""}, "geometry": {"type": "Polygon", "coordinates": [[[74.24263025100004, 79.27113106600007], [75.30370835200006, 79.29217147100007], [75.32628442400005, 78.57724330100007], [77.36222374300007, 78.54974455400009], [77.43828628200004, 77.08982285700006], [74.25028832200007, 77.14597154900008], [74.24263025100004, 79.27113106600007]]]}}, {"type": "Feature", "properties": {"OBJECTID": 45, "PlaceName": "", "PersonName": "", "Contact": "", "PlaceNode": 45, "Email": "", "Details": "", "PlaceType": ""}, "geometry": {"type": "Polygon", "coordinates": [[[75.52767106600004, 78.66674847500008], [75.50529477300006, 79.25972025500005], [77.39609157900003, 80.18833643800008], [77.40727972600007, 78.67793662200006], [75.52767106600004, 78.66674847500008]]]}}, {"type": "Feature", "properties": {"OBJECTID": 46, "PlaceName": "D407", "PersonName": "Computer Science Association", "Contact": "", "PlaceNode": 46, "Email": "", "Details": "", "PlaceType": ""}, "geometry": {"type": "Polygon", "coordinates": [[[66.40131828600005, 81.99772345900004], [57.447410528000034, 82.00923233800006], [57.48193716500003, 85.57698478600008], [67.37957299000004, 85.53094927100005], [67.37957299000004, 84.39157026300006], [66.35528277100008, 84.34553474800003], [66.40131828600005, 81.99772345900004]]]}}, {"type": "Feature", "properties": {"OBJECTID": 47, "PlaceName": "D405", "PersonName": "CS Common Room", "Contact": "", "PlaceNode": 47, "Email": "", "Details": "", "PlaceType": ""}, "geometry": {"type": "Polygon", "coordinates": [[[67.66330216300008, 84.37315260500003], [67.73794954400006, 89.56861037300007], [78.60660832500008, 89.59846932600004], [78.77083256500003, 84.35822312800008], [74.97874557300008, 82.22330801100009], [71.51510706000005, 82.23823748700005], [67.66330216300008, 84.37315260500003]]]}}, {"type": "Feature", "properties": {"OBJECTID": 48, "PlaceName": "D423", "PersonName": "Natalie Webber", "Contact": "", "PlaceNode": 48, "Email": "", "Details": "", "PlaceType": "Faculty"}, "geometry": {"type": "Polygon", "coordinates": [[[64.34276610400008, 76.78813481700007], [67.83882385000004, 76.85861985200006], [67.90948757500007, 73.60395808800007], [64.31457209000007, 73.64450224700005], [64.34276610400008, 76.78813481700007]]]}}, {"type": "Feature", "properties": {"OBJECTID": 49, "PlaceName": "D422", "PersonName": "Dr. Weichang Du", "Contact": "", "PlaceNode": 49, "Email": "", "Details": "", "PlaceType": "Faculty"}, "geometry": {"type": "Polygon", "coordinates": [[[64.31457209000007, 73.27798006400008], [67.90930888500003, 73.29207707100005], [67.89521187800005, 70.02157143700003], [64.30047508200005, 70.06386245800007], [64.31457209000007, 73.27798006400008]]]}}, {"type": "Feature", "properties": {"OBJECTID": 50, "PlaceName": "D421", "PersonName": "Rick Wightman", "Contact": "", "PlaceNode": 50, "Email": "", "Details": "", "PlaceType": "Faculty"}, "geometry": {"type": "Polygon", "coordinates": [[[64.30047508200005, 69.71143728200008], [67.86701786400005, 69.69734027500004], [67.86701786400005, 66.46912566300006], [64.28637807500007, 66.53961069800005], [64.30047508200005, 69.71143728200008]]]}}, {"type": "Feature", "properties": {"OBJECTID": 51, "PlaceName": "D420", "PersonName": "Dr. Michael Flemming", "Contact": "", "PlaceNode": 51, "Email": "", "Details": "", "PlaceType": "Faculty"}, "geometry": {"type": "Polygon", "coordinates": [[[64.31457209000007, 66.18718552200005], [67.86701786400005, 66.17308851500007], [67.86701786400005, 62.95897090900007], [64.25818406100007, 62.91667988800003], [64.31457209000007, 66.18718552200005]]]}}, {"type": "Feature", "properties": {"OBJECTID": 52, "PlaceName": "D419", "PersonName": "W. Song", "Contact": "", "PlaceNode": 52, "Email": "", "Details": "", "PlaceType": "Faculty"}, "geometry": {"type": "Polygon", "coordinates": [[[64.32866909700004, 62.606545733000075], [67.88111487100008, 62.57835171900007], [67.85292085700007, 59.37833112100003], [64.34276610400008, 59.39242812800006], [64.32866909700004, 62.606545733000075]]]}}, {"type": "Feature", "properties": {"OBJECTID": 53, "PlaceName": "D418", "PersonName": "Dawn Macisaac", "Contact": "", "PlaceNode": 53, "Email": "", "Details": "", "PlaceType": "Faculty"}, "geometry": {"type": "Polygon", "coordinates": [[[64.32866909700004, 58.98361492300006], [67.90930888500003, 59.025905945000034], [67.85292085700007, 55.68491527600003], [64.30047508200005, 55.75540031100007], [64.32866909700004, 58.98361492300006]]]}}, {"type": "Feature", "properties": {"OBJECTID": 54, "PlaceName": "<steps>", "PersonName": "B,C", "Contact": "", "PlaceNode": 54, "Email": "", "Details": "", "PlaceType": ""}, "geometry": {"type": "Polygon", "coordinates": [[[64.30047508200005, 55.33249010000003], [67.90930888500003, 55.33249010000003], [67.97979392000008, 52.188857529000074], [64.27228106800004, 52.23114855100005], [64.30047508200005, 55.33249010000003]]]}}, {"type": "Feature", "properties": {"OBJECTID": 55, "PlaceName": "", "PersonName": "", "Contact": "", "PlaceNode": 55, "Email": "", "Details": "", "PlaceType": ""}, "geometry": {"type": "Polygon", "coordinates": [[[101.98573205700006, 38.80583482600008], [104.38507702300006, 38.88261386500005], [104.40427178300007, 35.21641475700005], [102.06251109600004, 35.23560951700006], [101.98573205700006, 38.80583482600008]]]}}, {"type": "Feature", "properties": {"OBJECTID": 56, "PlaceName": "", "PersonName": "", "Contact": "", "PlaceNode": 56, "Email": "", "Details": "", "PlaceType": ""}, "geometry": {"type": "Polygon", "coordinates": [[[104.38507702300006, 38.88261386500005], [107.47543333900006, 38.86341910500005], [107.55221237800004, 37.23186452900006], [107.78254949500007, 37.25105928800008], [107.78254949500007, 35.293193796000025], [104.40427178300007, 35.21641475700005], [104.38507702300006, 38.88261386500005]]]}}, {"type": "Feature", "properties": {"OBJECTID": 57, "PlaceName": "D32", "PersonName": "", "Contact": "", "PlaceNode": 57, "Email": "", "Details": "", "PlaceType": ""}, "geometry": {"type": "Polygon", "coordinates": [[[102.04331633600003, 35.120440959000064], [107.78254949500007, 35.082051439000054], [107.64818617600008, 31.818942286000038], [108.05127613100007, 31.818942286000038], [108.10886041000003, 29.630739677000065], [102.04331633600003, 29.66912919600003], [102.04331633600003, 35.120440959000064]]]}}, {"type": "Feature", "properties": {"OBJECTID": 58, "PlaceName": "", "PersonName": "", "Contact": "", "PlaceNode": 58, "Email": "", "Details": "", "PlaceType": ""}, "geometry": {"type": "Polygon", "coordinates": [[[107.66738093600009, 38.786640066000075], [114.27037828200002, 38.90180862500006], [114.34715732100005, 31.818942286000038], [107.84013377400004, 31.93411084400003], [107.89771805300006, 37.36622784700006], [107.64818617600008, 37.36622784700006], [107.66738093600009, 38.786640066000075]]]}}, {"type": "Feature", "properties": {"OBJECTID": 59, "PlaceName": "D7", "PersonName": "", "Contact": "", "PlaceNode": 59, "Email": "", "Details": "", "PlaceType": ""}, "geometry": {"type": "Polygon", "coordinates": [[[114.40474160000008, 38.90180862500006], [120.9117651470001, 38.94019814400008], [120.81579134900005, 31.838137046000043], [114.55829967800003, 31.876526565000063], [114.40474160000008, 38.90180862500006]]]}}, {"type": "Feature", "properties": {"OBJECTID": 60, "PlaceName": "D31", "PersonName": "", "Contact": "", "PlaceNode": 60, "Email": "", "Details": "", "PlaceType": ""}, "geometry": {"type": "Polygon", "coordinates": [[[108.18563944900006, 31.76135800700007], [117.80221407200008, 31.68457896800004], [117.74462979200007, 29.57315539800004], [108.28161324700005, 29.592350158000045], [108.18563944900006, 31.76135800700007]]]}}, {"type": "Feature", "properties": {"OBJECTID": 61, "PlaceName": "Lift2", "PersonName": "B,C,E", "Contact": "", "PlaceNode": 61, "Email": "", "Details": "", "PlaceType": ""}, "geometry": {"type": "Polygon", "coordinates": [[[117.95577214900004, 31.569410409000056], [120.79659658900005, 31.58860516900006], [120.81579134900005, 29.64993443700007], [117.85979835100011, 29.61154491700006], [117.95577214900004, 31.569410409000056]]]}}, {"type": "Feature", "properties": {"OBJECTID": 62, "PlaceName": "Steps5", "PersonName": "B,C,E", "Contact": "", "PlaceNode": 62, "Email": "", "Details": "", "PlaceType": ""}, "geometry": {"type": "Polygon", "coordinates": [[[114.3017480850001, 26.418902595000077], [117.70591246000004, 26.387087975000043], [117.54683935900005, 20.24686625100003], [114.3017480850001, 20.437753973000042], [114.3017480850001, 26.418902595000077]]]}}, {"type": "Feature", "properties": {"OBJECTID": 63, "PlaceName": "D8", "PersonName": "UNB Mobility Center", "Contact": "", "PlaceNode": 63, "Email": "", "Details": "", "PlaceType": ""}, "geometry": {"type": "Polygon", "coordinates": [[[117.70591246000004, 26.387087975000043], [122.54173475100004, 26.355273354000076], [122.57354937100001, 24.98724468000006], [124.06883652700003, 25.08268854100004], [123.94157804500003, 20.278680871000063], [117.55106435100004, 20.40995096100005], [117.70591246000004, 26.387087975000043]]]}}, {"type": "Feature", "properties": {"OBJECTID": 64, "PlaceName": "", "PersonName": "", "Contact": "", "PlaceNode": 64, "Email": "", "Details": "", "PlaceType": ""}, "geometry": {"type": "Polygon", "coordinates": [[[114.46082118700008, 20.215051630000062], [117.54683935900005, 20.24686625100003], [117.67409784000006, 15.888263265000035], [114.42900656600011, 15.951892506000036], [114.46082118700008, 20.215051630000062]]]}}, {"type": "Feature", "properties": {"OBJECTID": 65, "PlaceName": "D9", "PersonName": "", "Contact": "", "PlaceNode": 65, "Email": "", "Details": "", "PlaceType": ""}, "geometry": {"type": "Polygon", "coordinates": [[[117.67409784000006, 15.888263265000035], [117.54683935900005, 20.24686625100003], [124.00520728600009, 20.119607769000027], [124.06883652700003, 15.856448645000057], [117.67409784000006, 15.888263265000035]]]}}, {"type": "Feature", "properties": {"OBJECTID": 66, "PlaceName": "", "PersonName": "", "Contact": "", "PlaceNode": 66, "Email": "", "Details": "", "PlaceType": ""}, "geometry": {"type": "Polygon", "coordinates": [[[114.42900656600011, 15.951892506000036], [120.85563940600002, 15.872434700000042], [121.04644759500002, 7.552832738000063], [114.42900656600011, 7.711905840000043], [114.42900656600011, 15.951892506000036]]]}}, {"type": "Feature", "properties": {"OBJECTID": 67, "PlaceName": "", "PersonName": "", "Contact": "", "PlaceNode": 67, "Email": "", "Details": "", "PlaceType": ""}, "geometry": {"type": "Polygon", "coordinates": [[[121.04644759500002, 7.552832738000063], [120.85563940600002, 15.872434700000042], [124.06883652700003, 15.856448645000057], [124.10065114700001, 7.58464735900003], [121.04644759500002, 7.552832738000063]]]}}, {"type": "Feature", "properties": {"OBJECTID": 68, "PlaceName": "D14", "PersonName": "", "Contact": "", "PlaceNode": 68, "Email": "", "Details": "", "PlaceType": ""}, "geometry": {"type": "Polygon", "coordinates": [[[124.0841336740001, 11.879190483000059], [127.15485469900011, 11.847806483000056], [127.15485469900011, 7.711905840000043], [124.09967413300001, 7.838671108000028], [124.0841336740001, 11.879190483000059]]]}}, {"type": "Feature", "properties": {"OBJECTID": 69, "PlaceName": "D15", "PersonName": "", "Contact": "", "PlaceNode": 69, "Email": "", "Details": "", "PlaceType": ""}, "geometry": {"type": "Polygon", "coordinates": [[[127.34574242100007, 11.847806483000056], [130.43176059300004, 11.815991863000022], [130.463575213, 7.807349701000021], [127.15485469900011, 7.839164321000055], [127.34574242100007, 11.847806483000056]]]}}, {"type": "Feature", "properties": {"OBJECTID": 70, "PlaceName": "D16", "PersonName": "", "Contact": "", "PlaceNode": 70, "Email": "", "Details": "", "PlaceType": ""}, "geometry": {"type": "Polygon", "coordinates": [[[130.463575213, 7.807349701000021], [130.43176059300004, 11.815991863000022], [133.51777876500012, 11.943250344000035], [133.51777876500012, 7.807349701000021], [130.463575213, 7.807349701000021]]]}}, {"type": "Feature", "properties": {"OBJECTID": 71, "PlaceName": "D17", "PersonName": "", "Contact": "", "PlaceNode": 71, "Email": "", "Details": "", "PlaceType": ""}, "geometry": {"type": "Polygon", "coordinates": [[[133.51777876500012, 7.807349701000021], [133.6768518670001, 11.879621104000023], [136.73105541900009, 11.943250344000035], [136.73105541900009, 7.648276599000042], [133.51777876500012, 7.807349701000021]]]}}, {"type": "Feature", "properties": {"OBJECTID": 72, "PlaceName": "", "PersonName": "", "Contact": "", "PlaceNode": 72, "Email": "", "Details": "", "PlaceType": ""}, "geometry": {"type": "Polygon", "coordinates": [[[136.73105541900009, 7.807349701000021], [136.73105541900009, 11.943250344000035], [139.9125174520001, 11.815991863000022], [139.94433207200007, 7.711905840000043], [136.73105541900009, 7.807349701000021]]]}}, {"type": "Feature", "properties": {"OBJECTID": 73, "PlaceName": "", "PersonName": "", "Contact": "", "PlaceNode": 73, "Email": "", "Details": "", "PlaceType": ""}, "geometry": {"type": "Polygon", "coordinates": [[[139.9125174520001, 11.815991863000022], [143.12579410500007, 11.847806483000056], [143.12579410500007, 7.775535081000044], [139.94433207200007, 7.711905840000043], [139.9125174520001, 11.815991863000022]]]}}, {"type": "Feature", "properties": {"OBJECTID": 74, "PlaceName": "", "PersonName": "", "Contact": "", "PlaceNode": 74, "Email": "", "Details": "", "PlaceType": ""}, "geometry": {"type": "Polygon", "coordinates": [[[143.12579410500007, 7.775535081000044], [143.12579410500007, 11.847806483000056], [146.2754415180001, 11.847806483000056], [146.21181227700004, 7.743720460000077], [143.12579410500007, 7.775535081000044]]]}}, {"type": "Feature", "properties": {"OBJECTID": 75, "PlaceName": "", "PersonName": "", "Contact": "", "PlaceNode": 75, "Email": "", "Details": "", "PlaceType": ""}, "geometry": {"type": "Polygon", "coordinates": [[[146.21181227700004, 7.743720460000077], [146.4026999990001, 11.943250344000035], [149.42508893100012, 11.879621104000023], [149.42508893100012, 7.680091220000065], [146.21181227700004, 7.743720460000077]]]}}, {"type": "Feature", "properties": {"OBJECTID": 76, "PlaceName": "", "PersonName": "", "Contact": "", "PlaceNode": 76, "Email": "", "Details": "", "PlaceType": ""}, "geometry": {"type": "Polygon", "coordinates": [[[149.42508893100012, 7.680091220000065], [149.42508893100012, 11.879621104000023], [152.57473634300004, 11.847806483000056], [152.6383655840001, 7.775535081000044], [149.42508893100012, 7.680091220000065]]]}}, {"type": "Feature", "properties": {"OBJECTID": 77, "PlaceName": "", "PersonName": "", "Contact": "", "PlaceNode": 77, "Email": "", "Details": "", "PlaceType": ""}, "geometry": {"type": "Polygon", "coordinates": [[[152.6383655840001, 7.775535081000044], [152.57473634300004, 11.847806483000056], [155.75619837700003, 11.975064965000058], [155.72438375600007, 7.711905840000043], [152.6383655840001, 7.775535081000044]]]}}, {"type": "Feature", "properties": {"OBJECTID": 78, "PlaceName": "", "PersonName": "", "Contact": "", "PlaceNode": 78, "Email": "", "Details": "", "PlaceType": ""}, "geometry": {"type": "Polygon", "coordinates": [[[155.9470860990001, 7.870978942000022], [155.91527147800002, 11.911435724000057], [158.90584578900007, 11.879621104000023], [158.8422165490001, 7.807349701000021], [155.9470860990001, 7.870978942000022]]]}}, {"type": "Feature", "properties": {"OBJECTID": 79, "PlaceName": "", "PersonName": "", "Contact": "", "PlaceNode": 79, "Email": "", "Details": "", "PlaceType": ""}, "geometry": {"type": "Polygon", "coordinates": [[[159.09673351100002, 7.870978942000022], [159.19217737200006, 11.911435724000057], [161.00561073100005, 11.879621104000023], [161.037425352, 11.434216419000052], [165.3642137170001, 11.593289521000031], [165.30058447600004, 7.934608182000034], [159.09673351100002, 7.870978942000022]]]}}, {"type": "Feature", "properties": {"OBJECTID": 80, "PlaceName": "", "PersonName": "", "Contact": "", "PlaceNode": 80, "Email": "", "Details": "", "PlaceType": ""}, "geometry": {"type": "Polygon", "coordinates": [[[161.19649845300012, 11.688733382000066], [161.10105459200008, 14.106644527000071], [165.2369552350001, 14.04301528600007], [165.14298005900002, 11.585155931000031], [161.19649845300012, 11.688733382000066]]]}}, {"type": "Feature", "properties": {"OBJECTID": 81, "PlaceName": "", "PersonName": "", "Contact": "", "PlaceNode": 81, "Email": "", "Details": "", "PlaceType": ""}, "geometry": {"type": "Polygon", "coordinates": [[[161.10105459200008, 14.106644527000071], [161.0692399720001, 17.03358959700006], [165.30058447600004, 17.129033458000038], [165.23450853600002, 14.043052928000066], [161.10105459200008, 14.106644527000071]]]}}, {"type": "Feature", "properties": {"OBJECTID": 82, "PlaceName": "", "PersonName": "", "Contact": "", "PlaceNode": 82, "Email": "", "Details": "", "PlaceType": ""}, "geometry": {"type": "Polygon", "coordinates": [[[161.0692399720001, 17.25629194000004], [161.10105459200008, 20.24686625100003], [165.3642137170001, 20.24686625100003], [165.30058447600004, 17.129033458000038], [161.0692399720001, 17.25629194000004]]]}}, {"type": "Feature", "properties": {"OBJECTID": 83, "PlaceName": "", "PersonName": "", "Contact": "", "PlaceNode": 83, "Email": "", "Details": "", "PlaceType": ""}, "geometry": {"type": "Polygon", "coordinates": [[[161.10105459200008, 20.24686625100003], [161.13286921300005, 23.110182080000072], [165.26876985600006, 23.237440562000074], [165.3642137170001, 20.24686625100003], [161.10105459200008, 20.24686625100003]]]}}, {"type": "Feature", "properties": {"OBJECTID": 84, "PlaceName": "", "PersonName": "", "Contact": "", "PlaceNode": 84, "Email": "", "Details": "", "PlaceType": ""}, "geometry": {"type": "Polygon", "coordinates": [[[173.01631158300006, 26.331875016000026], [177.8684698830001, 26.348048877000053], [177.90081760500004, 23.113276677000044], [174.0514386870001, 23.080928955000047], [173.03248544400003, 24.261620808000032], [173.01631158300006, 26.331875016000026]]]}}, {"type": "Feature", "properties": {"OBJECTID": 85, "PlaceName": "", "PersonName": "", "Contact": "", "PlaceNode": 85, "Email": "", "Details": "", "PlaceType": ""}, "geometry": {"type": "Polygon", "coordinates": [[[173.25891949800007, 20.250503279000043], [173.22657177600001, 22.175192738000078], [174.0514386870001, 23.080928955000047], [177.85161992300004, 23.11286325100008], [177.96551304900004, 20.234329418000073], [173.25891949800007, 20.250503279000043]]]}}, {"type": "Feature", "properties": {"OBJECTID": 86, "PlaceName": "", "PersonName": "", "Contact": "", "PlaceNode": 86, "Email": "", "Details": "", "PlaceType": ""}, "geometry": {"type": "Polygon", "coordinates": [[[173.25891949800007, 20.250503279000043], [168.27737031000004, 20.26667714000007], [168.3097180320001, 23.242667565000033], [172.1267492280001, 23.25884142600006], [173.22657177600001, 22.175192738000078], [173.25891949800007, 20.250503279000043]]]}}, {"type": "Feature", "properties": {"OBJECTID": 87, "PlaceName": "", "PersonName": "", "Contact": "", "PlaceNode": 87, "Email": "", "Details": "", "PlaceType": ""}, "geometry": {"type": "Polygon", "coordinates": [[[168.3097180320001, 23.242667565000033], [168.228848727, 27.981608838000056], [169.65214849500012, 27.981608838000056], [169.6613120610001, 26.341793351000035], [173.01631158300006, 26.331875016000026], [173.0001377220001, 24.116056059000073], [173.3074410810001, 23.72788339500005], [173.27509335900004, 23.307363009000028], [168.3097180320001, 23.242667565000033]]]}}, {"type": "Feature", "properties": {"OBJECTID": 88, "PlaceName": "Steps6", "PersonName": "B,C,E", "Contact": "", "PlaceNode": 88, "Email": "", "Details": "", "PlaceType": ""}, "geometry": {"type": "Polygon", "coordinates": [[[165.29416371700006, 26.39416267100006], [168.25609374400005, 26.385050867000075], [168.27737031000004, 20.26667714000007], [165.3612453400001, 20.339875405000043], [165.29416371700006, 26.39416267100006]]]}}, {"type": "Feature", "properties": {"OBJECTID": 89, "PlaceName": "", "PersonName": "", "Contact": "", "PlaceNode": 89, "Email": "", "Details": "", "PlaceType": ""}, "geometry": {"type": "Polygon", "coordinates": [[[161.14648425300004, 26.129583109000066], [162.43695140900002, 26.147260741000025], [162.4217541260001, 23.149840078000068], [161.13286921300005, 23.110182080000072], [161.14648425300004, 26.129583109000066]]]}}, {"type": "Feature", "properties": {"OBJECTID": 90, "PlaceName": "", "PersonName": "", "Contact": "", "PlaceNode": 90, "Email": "", "Details": "", "PlaceType": ""}, "geometry": {"type": "Polygon", "coordinates": [[[162.59605010000007, 26.377069961000075], [165.17698441200002, 26.35939232900006], [165.23255617900008, 23.236326295000026], [162.54483709600004, 23.153627246000042], [162.59605010000007, 26.377069961000075]]]}}, {"type": "Feature", "properties": {"OBJECTID": 91, "PlaceName": "", "PersonName": "", "Contact": "", "PlaceNode": 91, "Email": "", "Details": "", "PlaceType": ""}, "geometry": {"type": "Polygon", "coordinates": [[[168.27057006000007, 29.541366138000058], [177.8989548950001, 29.51692408300005], [177.8684698830001, 26.348048877000053], [169.70472942700007, 26.34541146500004], [169.70834754100008, 28.05316119500003], [168.23106154100003, 28.064335180000057], [168.27057006000007, 29.541366138000058]]]}}, {"type": "Feature", "properties": {"OBJECTID": 92, "PlaceName": "", "PersonName": "", "Contact": "", "PlaceNode": 92, "Email": "", "Details": "", "PlaceType": ""}, "geometry": {"type": "Polygon", "coordinates": [[[173.74661811700003, 29.520894930000054], [173.713961368, 32.77516156300004], [177.9621094270001, 32.791563679000035], [177.8989548950001, 29.51692408300005], [173.74661811700003, 29.520894930000054]]]}}, {"type": "Feature", "properties": {"OBJECTID": 93, "PlaceName": "", "PersonName": "", "Contact": "", "PlaceNode": 93, "Email": "", "Details": "", "PlaceType": ""}, "geometry": {"type": "Polygon", "coordinates": [[[173.713961368, 32.77516156300004], [173.69160640300004, 35.79499709700008], [177.9660474220001, 35.833332890000065], [177.9621094270001, 32.791563679000035], [173.713961368, 32.77516156300004]]]}}, {"type": "Feature", "properties": {"OBJECTID": 94, "PlaceName": "", "PersonName": "", "Contact": "", "PlaceNode": 94, "Email": "", "Details": "", "PlaceType": ""}, "geometry": {"type": "Polygon", "coordinates": [[[177.9660474220001, 35.833332890000065], [173.69160640300004, 35.79499709700008], [173.71077430000003, 38.90019640200006], [177.9468795250001, 38.91936429900005], [177.9660474220001, 35.833332890000065]]]}}, {"type": "Feature", "properties": {"OBJECTID": 95, "PlaceName": "", "PersonName": "", "Contact": "", "PlaceNode": 95, "Email": "", "Details": "", "PlaceType": ""}, "geometry": {"type": "Polygon", "coordinates": [[[168.48558520900008, 38.89056459100004], [173.71020217500006, 38.80751212500007], [173.74661811700003, 29.520894930000054], [168.44401107800002, 29.540925851000054], [168.48558520900008, 38.89056459100004]]]}}, {"type": "Feature", "properties": {"OBJECTID": 96, "PlaceName": "", "PersonName": "", "Contact": "", "PlaceNode": 96, "Email": "", "Details": "", "PlaceType": ""}, "geometry": {"type": "Polygon", "coordinates": [[[165.34251447100007, 38.91124268800007], [168.4855831650001, 38.89010486400008], [168.46002273300007, 33.14179951500006], [165.301158277, 33.12137554100008], [165.34251447100007, 38.91124268800007]]]}}, {"type": "Feature", "properties": {"OBJECTID": 97, "PlaceName": "D51", "PersonName": "", "Contact": "", "PlaceNode": 97, "Email": "", "Details": "", "PlaceType": ""}, "geometry": {"type": "Polygon", "coordinates": [[[171.52526546100012, 42.38516297700005], [176.48800873100004, 42.42651917100005], [176.63274556600004, 38.913417991000074], [171.54451317000007, 38.84193872800006], [171.52526546100012, 42.38516297700005]]]}}, {"type": "Feature", "properties": {"OBJECTID": 98, "PlaceName": "D52", "PersonName": "", "Contact": "", "PlaceNode": 98, "Email": "", "Details": "", "PlaceType": ""}, "geometry": {"type": "Polygon", "coordinates": [[[171.52526546100012, 45.466199423000035], [176.19851537300008, 45.486877520000064], [176.28175903600004, 42.42480042400007], [171.52526546100012, 42.38516297700005], [171.52526546100012, 45.466199423000035]]]}}, {"type": "Feature", "properties": {"OBJECTID": 99, "PlaceName": "D53", "PersonName": "", "Contact": "", "PlaceNode": 99, "Email": "", "Details": "", "PlaceType": ""}, "geometry": {"type": "Polygon", "coordinates": [[[171.50458736400003, 51.69030660700008], [176.4466525370001, 51.62827231600005], [176.38461824600006, 45.50755561700004], [171.5459435580001, 45.61094610200007], [171.50458736400003, 51.69030660700008]]]}}, {"type": "Feature", "properties": {"OBJECTID": 100, "PlaceName": "D54", "PersonName": "", "Contact": "", "PlaceNode": 100, "Email": "", "Details": "", "PlaceType": ""}, "geometry": {"type": "Polygon", "coordinates": [[[168.42355091800005, 51.545559929000035], [171.50458736400003, 51.69030660700008], [171.40119687900005, 47.63739960400005], [168.48558520900008, 47.61672150700008], [168.42355091800005, 51.545559929000035]]]}}, {"type": "Feature", "properties": {"OBJECTID": 101, "PlaceName": "D55", "PersonName": "", "Contact": "", "PlaceNode": 101, "Email": "", "Details": "", "PlaceType": ""}, "geometry": {"type": "Polygon", "coordinates": [[[165.46658305300002, 51.64895041300008], [168.32016043300007, 51.60759421900008], [168.2994823360001, 47.61672150700008], [165.44590495600005, 47.61672150700008], [165.46658305300002, 51.64895041300008]]]}}, {"type": "Feature", "properties": {"OBJECTID": 102, "PlaceName": "", "PersonName": "", "Contact": "", "PlaceNode": 102, "Email": "", "Details": "", "PlaceType": ""}, "geometry": {"type": "Polygon", "coordinates": [[[165.35381849800012, 45.964679414000045], [169.92643500400004, 45.876177159000065], [169.89479875300003, 38.86816320500003], [165.34251447100007, 38.91124268800007], [165.35381849800012, 45.964679414000045]]]}}, {"type": "Feature", "properties": {"OBJECTID": 103, "PlaceName": "D60", "PersonName": "", "Contact": "", "PlaceNode": 103, "Email": "", "Details": "", "PlaceType": ""}, "geometry": {"type": "Polygon", "coordinates": [[[158.98165614000004, 51.864829746000055], [165.17681398800005, 51.805828242000075], [165.29481699400003, 48.56074556000004], [158.89315388500006, 48.64924781500008], [158.98165614000004, 51.864829746000055]]]}}, {"type": "Feature", "properties": {"OBJECTID": 104, "PlaceName": "D59", "PersonName": "", "Contact": "", "PlaceNode": 104, "Email": "", "Details": "", "PlaceType": ""}, "geometry": {"type": "Polygon", "coordinates": [[[158.93194130200004, 48.53941576200003], [162.83746016700002, 48.50948841400003], [162.83746016700002, 45.531717326000035], [158.90201395500003, 45.531717326000035], [158.93194130200004, 48.53941576200003]]]}}, {"type": "Feature", "properties": {"OBJECTID": 105, "PlaceName": "D58", "PersonName": "", "Contact": "", "PlaceNode": 105, "Email": "", "Details": "", "PlaceType": ""}, "geometry": {"type": "Polygon", "coordinates": [[[158.99179599700005, 45.531717326000035], [162.83746016700002, 45.531717326000035], [162.82249649300002, 42.41927317300008], [158.90201395500003, 42.479127868000035], [158.99179599700005, 45.531717326000035]]]}}, {"type": "Feature", "properties": {"OBJECTID": 106, "PlaceName": "D57", "PersonName": "", "Contact": "", "PlaceNode": 106, "Email": "", "Details": "", "PlaceType": ""}, "geometry": {"type": "Polygon", "coordinates": [[[158.90201395500003, 42.479127868000035], [162.74838075800005, 42.42040471100006], [162.82249649300002, 39.15719228200004], [158.99179599700005, 39.20208330400004], [158.90201395500003, 42.479127868000035]]]}}, {"type": "Feature", "properties": {"OBJECTID": 107, "PlaceName": "", "PersonName": "", "Contact": "", "PlaceNode": 107, "Email": "", "Details": "", "PlaceType": ""}, "geometry": {"type": "Polygon", "coordinates": [[[126.31299183800002, 26.373567025000057], [139.61805152700003, 26.58276607600004], [139.65989133800008, 14.072662783000055], [126.27115202700008, 14.072662783000055], [126.31299183800002, 26.373567025000057]]]}}, {"type": "Feature", "properties": {"OBJECTID": 108, "PlaceName": "", "PersonName": "", "Contact": "", "PlaceNode": 108, "Email": "", "Details": "", "PlaceType": ""}, "geometry": {"type": "Polygon", "coordinates": [[[139.65989133800008, 14.072662783000055], [139.6249081420001, 24.532638301000077], [143.06983588100002, 24.57445518000003], [143.15351550200012, 14.009903068000028], [139.65989133800008, 14.072662783000055]]]}}, {"type": "Feature", "properties": {"OBJECTID": 109, "PlaceName": "", "PersonName": "", "Contact": "", "PlaceNode": 109, "Email": "", "Details": "", "PlaceType": ""}, "geometry": {"type": "Polygon", "coordinates": [[[143.11408347300005, 18.98819676100004], [149.34580743300012, 19.009760404000076], [149.38764724300006, 14.093582688000026], [143.15351550200012, 14.009903068000028], [143.11408347300005, 18.98819676100004]]]}}, {"type": "Feature", "properties": {"OBJECTID": 110, "PlaceName": "", "PersonName": "", "Contact": "", "PlaceNode": 110, "Email": "", "Details": "", "PlaceType": ""}, "geometry": {"type": "Polygon", "coordinates": [[[149.3248875270001, 26.331727214000068], [158.96896381200008, 26.35264711900004], [159.01080362200003, 14.009903068000028], [149.38764724300006, 14.093582688000026], [149.3248875270001, 26.331727214000068]]]}}, {"type": "Feature", "properties": {"OBJECTID": 111, "PlaceName": "D69", "PersonName": "", "Contact": "", "PlaceNode": 111, "Email": "", "Details": "", "PlaceType": ""}, "geometry": {"type": "Polygon", "coordinates": [[[123.71432209300008, 39.02014167700003], [130.41751168500002, 38.97422941900004], [130.4863800720001, 34.86508237500004], [123.57658532100004, 34.91099463200004], [123.71432209300008, 39.02014167700003]]]}}, {"type": "Feature", "properties": {"OBJECTID": 112, "PlaceName": "D68", "PersonName": "", "Contact": "", "PlaceNode": 112, "Email": "", "Details": "", "PlaceType": ""}, "geometry": {"type": "Polygon", "coordinates": [[[130.4198452600001, 38.83499279900008], [133.5625013230001, 38.85944877600008], [133.5625013230001, 34.91099463200004], [130.4863800720001, 34.86508237500004], [130.4198452600001, 38.83499279900008]]]}}, {"type": "Feature", "properties": {"OBJECTID": 113, "PlaceName": "D67", "PersonName": "", "Contact": "", "PlaceNode": 113, "Email": "", "Details": "", "PlaceType": ""}, "geometry": {"type": "Polygon", "coordinates": [[[133.5625013230001, 38.74466813200007], [136.68453483200005, 38.813536518000035], [136.7304470890001, 34.819170117000056], [133.5625013230001, 34.91099463200004], [133.5625013230001, 38.74466813200007]]]}}, {"type": "Feature", "properties": {"OBJECTID": 114, "PlaceName": "D66", "PersonName": "", "Contact": "", "PlaceNode": 114, "Email": "", "Details": "", "PlaceType": ""}, "geometry": {"type": "Polygon", "coordinates": [[[136.72913704300004, 34.933144112000036], [136.68507765200002, 38.76631118200004], [139.8983928550001, 38.79058038900007], [139.94430511300004, 34.888038503000075], [136.72913704300004, 34.933144112000036]]]}}, {"type": "Feature", "properties": {"OBJECTID": 115, "PlaceName": "D65", "PersonName": "", "Contact": "", "PlaceNode": 115, "Email": "", "Details": "", "PlaceType": ""}, "geometry": {"type": "Polygon", "coordinates": [[[139.94430511300004, 34.888038503000075], [139.8983928550001, 38.79058038900007], [143.04338249300008, 38.85944877600008], [143.08929475000002, 34.888038503000075], [139.94430511300004, 34.888038503000075]]]}}, {"type": "Feature", "properties": {"OBJECTID": 116, "PlaceName": "D64", "PersonName": "", "Contact": "", "PlaceNode": 116, "Email": "", "Details": "", "PlaceType": ""}, "geometry": {"type": "Polygon", "coordinates": [[[143.04338249300008, 38.85944877600008], [146.21132825900008, 38.76762426100004], [146.21132825900008, 34.77325786000006], [143.08929475000002, 34.888038503000075], [143.04338249300008, 38.85944877600008]]]}}, {"type": "Feature", "properties": {"OBJECTID": 117, "PlaceName": "D63", "PersonName": "", "Contact": "", "PlaceNode": 117, "Email": "", "Details": "", "PlaceType": ""}, "geometry": {"type": "Polygon", "coordinates": [[[146.21132825900008, 34.86508237500004], [146.21132825900008, 38.76762426100004], [149.3792740250001, 38.79058038900007], [149.44814241200004, 34.91099463200004], [146.21132825900008, 34.86508237500004]]]}}, {"type": "Feature", "properties": {"OBJECTID": 118, "PlaceName": "D62", "PersonName": "", "Contact": "", "PlaceNode": 118, "Email": "", "Details": "", "PlaceType": ""}, "geometry": {"type": "Polygon", "coordinates": [[[149.44814241200004, 34.91099463200004], [149.38012493600002, 38.74264571100008], [156.54158619300006, 38.76762426100004], [156.5645423210001, 34.819170117000056], [149.44814241200004, 34.91099463200004]]]}}, {"type": "Feature", "properties": {"OBJECTID": 119, "PlaceName": "D61", "PersonName": "", "Contact": "", "PlaceNode": 119, "Email": "", "Details": "", "PlaceType": ""}, "geometry": {"type": "Polygon", "coordinates": [[[156.5418569950001, 38.72104624800005], [158.95197971000005, 38.69875587400003], [158.9060674530001, 34.888038503000075], [156.5645423210001, 34.819170117000056], [156.5418569950001, 38.72104624800005]]]}}, {"type": "Feature", "properties": {"OBJECTID": 120, "PlaceName": "", "PersonName": "", "Contact": "", "PlaceNode": 120, "Email": "", "Details": "", "PlaceType": ""}, "geometry": {"type": "Polygon", "coordinates": [[[165.34749157500005, 33.12167511400003], [168.3415474950001, 33.06572031500008], [168.3415474950001, 31.695495462000054], [165.33626441400008, 31.718524451000064], [165.34749157500005, 33.12167511400003]]]}}, {"type": "Feature", "properties": {"OBJECTID": 121, "PlaceName": "", "PersonName": "", "Contact": "", "PlaceNode": 121, "Email": "", "Details": "", "PlaceType": ""}, "geometry": {"type": "Polygon", "coordinates": [[[165.3823223920001, 31.603379506000067], [166.93677915800004, 31.61489400000005], [166.94829365200007, 29.565313968000055], [165.3823223920001, 29.599857452000037], [165.3823223920001, 31.603379506000067]]]}}, {"type": "Feature", "properties": {"OBJECTID": 122, "PlaceName": "", "PersonName": "", "Contact": "", "PlaceNode": 122, "Email": "", "Details": "", "PlaceType": ""}, "geometry": {"type": "Polygon", "coordinates": [[[166.94803636100005, 29.61111174800004], [166.93677915800004, 31.61489400000005], [168.45297680700003, 31.557235649000063], [168.44401107800002, 29.540925851000054], [166.94803636100005, 29.61111174800004]]]}}, {"type": "Feature", "properties": {"OBJECTID": 123, "PlaceName": "", "PersonName": "", "Contact": "", "PlaceNode": 123, "Email": "", "Details": "", "PlaceType": ""}, "geometry": {"type": "Polygon", "coordinates": [[[137.4281008900001, 32.76779423100004], [141.62454933300012, 32.737494964000064], [141.62454933300012, 29.60152085800007], [137.50384905700002, 29.70756829100003], [137.4281008900001, 32.76779423100004]]]}}, {"type": "Feature", "properties": {"OBJECTID": 124, "PlaceName": "", "PersonName": "", "Contact": "", "PlaceNode": 124, "Email": "", "Details": "", "PlaceType": ""}, "geometry": {"type": "Polygon", "coordinates": [[[141.62454933300012, 32.737494964000064], [145.6998007090001, 32.737494964000064], [145.82099777500002, 29.510623057000032], [141.66999823300011, 29.525772691000043], [141.62454933300012, 32.737494964000064]]]}}, {"type": "Feature", "properties": {"OBJECTID": 125, "PlaceName": "", "PersonName": "", "Contact": "", "PlaceNode": 125, "Email": "", "Details": "", "PlaceType": ""}, "geometry": {"type": "Polygon", "coordinates": [[[146.12399044300003, 29.60152085800007], [146.15428971000006, 30.35900252600004], [145.8815963090001, 30.37415215900006], [145.92704520900008, 32.55569936400008], [149.92654841800004, 32.57084899700004], [149.9871469510001, 29.64696975800007], [146.12399044300003, 29.60152085800007]]]}}, {"type": "Feature", "properties": {"OBJECTID": 126, "PlaceName": "", "PersonName": "", "Contact": "", "PlaceNode": 126, "Email": "", "Details": "", "PlaceType": ""}, "geometry": {"type": "Polygon", "coordinates": [[[156.69947663900007, 28.92846460800007], [158.89189113600003, 28.894604924000078], [158.9511455810001, 27.040787261000048], [156.7248714010001, 27.07464694400005], [156.69947663900007, 28.92846460800007]]]}}, {"type": "Feature", "properties": {"OBJECTID": 127, "PlaceName": "", "PersonName": "", "Contact": "", "PlaceNode": 127, "Email": "", "Details": "", "PlaceType": ""}, "geometry": {"type": "Polygon", "coordinates": [[[162.5979959240001, 29.49134564600007], [168.27057006000007, 29.541366138000058], [168.25609374400005, 26.385050867000075], [162.57411460800006, 26.45045804600005], [162.5979959240001, 29.49134564600007]]]}}, {"type": "Feature", "properties": {"OBJECTID": 128, "PlaceName": "", "PersonName": "", "Contact": "", "PlaceNode": 128, "Email": "", "Details": "", "PlaceType": ""}, "geometry": {"type": "Polygon", "coordinates": [[[162.8288290900001, 30.331859333000068], [165.23900050600002, 30.27427844600004], [165.2883555520001, 29.61621116500004], [162.8288290900001, 29.583307801000046], [162.8288290900001, 30.331859333000068]]]}}, {"type": "Feature", "properties": {"OBJECTID": 129, "PlaceName": "D45", "PersonName": "", "Contact": "", "PlaceNode": 129, "Email": "", "Details": "", "PlaceType": ""}, "geometry": {"type": "Polygon", "coordinates": [[[108.24734391200008, 26.40173505100006], [114.3017480850001, 26.418902595000077], [114.3017480850001, 23.341978029000074], [108.22797836200004, 23.283881376000068], [108.24734391200008, 26.40173505100006]]]}}, {"type": "Feature", "properties": {"OBJECTID": 130, "PlaceName": "", "PersonName": "", "Contact": "", "PlaceNode": 130, "Email": "", "Details": "", "PlaceType": ""}, "geometry": {"type": "Polygon", "coordinates": [[[108.22797836200004, 23.283881376000068], [114.3017480850001, 23.341978029000074], [114.17320244900009, 20.088565499000026], [108.20861281100008, 20.146662151000044], [108.22797836200004, 23.283881376000068]]]}}, {"type": "Feature", "properties": {"OBJECTID": 131, "PlaceName": "D41", "PersonName": "James Taylor", "Contact": "", "PlaceNode": 131, "Email": "", "Details": "", "PlaceType": ""}, "geometry": {"type": "Polygon", "coordinates": [[[99.59094271600009, 26.304907297000057], [108.24734391200008, 26.40173505100006], [108.20920827700007, 20.243127608000066], [105.01329693300005, 20.34031765900005], [105.01329693300005, 23.65182684100006], [99.66840491900007, 23.748654595000062], [99.59094271600009, 26.304907297000057]]]}}, {"type": "Feature", "properties": {"OBJECTID": 132, "PlaceName": "", "PersonName": "", "Contact": "", "PlaceNode": 132, "Email": "", "Details": "", "PlaceType": ""}, "geometry": {"type": "Polygon", "coordinates": [[[101.91480880900008, 23.535633536000034], [105.01329693300005, 23.51626798600006], [105.01329693300005, 20.34031765900005], [101.87607770700004, 20.41777986200003], [101.91480880900008, 23.535633536000034]]]}}, {"type": "Feature", "properties": {"OBJECTID": 134, "PlaceName": "D34", "PersonName": "", "Contact": "", "PlaceNode": 134, "Email": "", "Details": "", "PlaceType": ""}, "geometry": {"type": "Polygon", "coordinates": [[[83.50724734600004, 38.84023721800003], [95.40953744500007, 38.84023721800003], [95.47697693800006, 29.714467309000042], [83.55479311200008, 29.69560154900006], [83.50724734600004, 38.84023721800003]]]}}, {"type": "Feature", "properties": {"OBJECTID": 135, "PlaceName": "D-Restroom (Male) - 3", "PersonName": "", "Contact": "", "PlaceNode": 135, "Email": "", "Details": "", "PlaceType": "Facility,male"}, "geometry": {"type": "Polygon", "coordinates": [[[78.39729561500008, 26.257347671000048], [82.84668613300005, 26.323509612000066], [82.79706467700004, 23.296600821000027], [78.34767415900006, 23.313141306000034], [78.39729561500008, 26.257347671000048]]]}}, {"type": "Feature", "properties": {"OBJECTID": 136, "PlaceName": "", "PersonName": "", "Contact": "", "PlaceNode": 136, "Email": "", "Details": "", "PlaceType": ""}, "geometry": {"type": "Polygon", "coordinates": [[[82.92938855900007, 23.346222277000038], [89.21477293300006, 23.313141306000034], [89.21477293300006, 20.137368149000054], [82.96246952900003, 20.253151545000037], [82.92938855900007, 23.346222277000038]]]}}, {"type": "Feature", "properties": {"OBJECTID": 137, "PlaceName": "D38", "PersonName": "Conference Room", "Contact": "", "PlaceNode": 137, "Email": "", "Details": "", "PlaceType": ""}, "geometry": {"type": "Polygon", "coordinates": [[[82.97901001400004, 26.389671553000028], [89.23131341900006, 26.389671553000028], [89.28093487400008, 23.495086643000036], [83.01209098500004, 23.44546518800007], [82.97901001400004, 26.389671553000028]]]}}, {"type": "Feature", "properties": {"OBJECTID": 138, "PlaceName": "", "PersonName": "", "Contact": "", "PlaceNode": 138, "Email": "", "Details": "", "PlaceType": ""}, "geometry": {"type": "Polygon", "coordinates": [[[92.40708657600004, 23.677031981000027], [95.36783342600006, 23.627410525000073], [95.38870417000004, 20.303409651000038], [92.40141975800003, 20.350315396000042], [92.40708657600004, 23.677031981000027]]]}}, {"type": "Feature", "properties": {"OBJECTID": 139, "PlaceName": "", "PersonName": "", "Contact": "", "PlaceNode": 139, "Email": "", "Details": "", "PlaceType": ""}, "geometry": {"type": "Polygon", "coordinates": [[[96.02945283400004, 26.30696912700006], [97.74966329500006, 26.373131068000077], [97.71800227600005, 23.75217193900005], [96.06125272900005, 23.759707223000078], [96.02945283400004, 26.30696912700006]]]}}, {"type": "Feature", "properties": {"OBJECTID": 140, "PlaceName": "", "PersonName": "", "Contact": "", "PlaceNode": 140, "Email": "", "Details": "", "PlaceType": ""}, "geometry": {"type": "Polygon", "coordinates": [[[95.99637186400008, 26.389671553000028], [95.97491891000004, 23.704869304000056], [92.30783649900008, 23.736149468000065], [92.30750354300005, 20.334822022000026], [89.21477293300006, 20.30277300000006], [89.23131341900006, 26.389671553000028], [95.99637186400008, 26.389671553000028]]]}}, {"type": "Feature", "properties": {"OBJECTID": 141, "PlaceName": "", "PersonName": "", "Contact": "", "PlaceNode": 141, "Email": "", "Details": "", "PlaceType": ""}, "geometry": {"type": "Polygon", "coordinates": [[[70.64274903200004, 38.890106942000045], [73.77331183100006, 38.87540946400003], [73.81740426500005, 35.68605675300006], [70.62805155400008, 35.67135927500004], [70.64274903200004, 38.890106942000045]]]}}, {"type": "Feature", "properties": {"OBJECTID": 142, "PlaceName": "", "PersonName": "", "Contact": "", "PlaceNode": 142, "Email": "", "Details": "", "PlaceType": ""}, "geometry": {"type": "Polygon", "coordinates": [[[79.66700048200005, 38.53736747200003], [83.15030275300006, 38.53736747200003], [83.16500023000003, 33.58431740800006], [79.76988282800005, 33.59901488600008], [79.66700048200005, 38.53736747200003]]]}}, {"type": "Feature", "properties": {"OBJECTID": 143, "PlaceName": "D35", "PersonName": "", "Contact": "", "PlaceNode": 143, "Email": "", "Details": "", "PlaceType": ""}, "geometry": {"type": "Polygon", "coordinates": [[[79.76988282800005, 33.59901488600008], [83.26788257600003, 33.52552749700004], [83.34136996600006, 29.615998366000042], [79.76988282800005, 29.63069584400006], [79.76988282800005, 33.59901488600008]]]}}, {"type": "Feature", "properties": {"OBJECTID": 144, "PlaceName": "D36", "PersonName": "Electrical and Computer Office", "Contact": "", "PlaceNode": 144, "Email": "", "Details": "", "PlaceType": "Office"}, "geometry": {"type": "Polygon", "coordinates": [[[70.53986668600004, 29.645393322000075], [70.62805155400008, 35.67135927500004], [73.81740426500005, 35.68605675300006], [73.77331183100006, 38.87540946400003], [79.66700048200005, 38.86071198600007], [79.76988282800005, 29.63069584400006], [70.53986668600004, 29.645393322000075]]]}}, {"type": "Feature", "properties": {"OBJECTID": 145, "PlaceName": "", "PersonName": "", "Contact": "", "PlaceNode": 145, "Email": "", "Details": "", "PlaceType": ""}, "geometry": {"type": "Polygon", "coordinates": [[[76.52102481800006, 26.273513422000065], [78.39729561500008, 26.257347671000048], [78.34767415900006, 23.313141306000034], [76.47093701700004, 23.31833314100004], [76.52102481800006, 26.273513422000065]]]}}, {"type": "Feature", "properties": {"OBJECTID": 146, "PlaceName": "<steps>", "PersonName": "B,C,E", "Contact": "", "PlaceNode": 146, "Email": "", "Details": "", "PlaceType": ""}, "geometry": {"type": "Polygon", "coordinates": [[[68.35671319400006, 26.373689025000033], [76.45841506600004, 26.361167075000026], [76.47093701700004, 23.31833314100004], [68.30662539300005, 23.193113638000057], [68.35671319400006, 26.373689025000033]]]}}, {"type": "Feature", "properties": {"OBJECTID": 147, "PlaceName": "D130", "PersonName": "Kejay Macquarrie", "Contact": "", "PlaceNode": 147, "Email": "", "Details": "", "PlaceType": "Faculty"}, "geometry": {"type": "Polygon", "coordinates": [[[68.15733004400005, 12.865864414000043], [70.93394003200007, 12.880030791000024], [71.03310467400007, 9.083441625000034], [68.15733004400005, 9.026776115000075], [68.15733004400005, 12.865864414000043]]]}}, {"type": "Feature", "properties": {"OBJECTID": 148, "PlaceName": "D131", "PersonName": "Julian Meng", "Contact": "", "PlaceNode": 148, "Email": "", "Details": "", "PlaceType": "Faculty"}, "geometry": {"type": "Polygon", "coordinates": [[[70.93545772400006, 12.821924853000041], [73.79554828400006, 12.823365281000065], [73.83804741600005, 9.069275248000054], [70.96202124500007, 9.082040966000022], [70.93545772400006, 12.821924853000041]]]}}, {"type": "Feature", "properties": {"OBJECTID": 149, "PlaceName": "D132", "PersonName": "Dominic Blakely", "Contact": "", "PlaceNode": 149, "Email": "", "Details": "", "PlaceType": "Faculty"}, "geometry": {"type": "Polygon", "coordinates": [[[73.92304568100008, 12.780866149000076], [76.09050143600007, 12.766699771000049], [76.06216868100006, 8.92761147300007], [73.90887930400004, 8.998443360000067], [73.92304568100008, 12.780866149000076]]]}}, {"type": "Feature", "properties": {"OBJECTID": 150, "PlaceName": "D133", "PersonName": "Erik Scheme", "Contact": "", "PlaceNode": 150, "Email": "", "Details": "", "PlaceType": "Faculty"}, "geometry": {"type": "Polygon", "coordinates": [[[76.14716694600008, 9.012609738000037], [76.09050143600007, 12.766699771000049], [78.55545111900005, 12.766699771000049], [78.55545111900005, 8.998443360000067], [76.14716694600008, 9.012609738000037]]]}}, {"type": "Feature", "properties": {"OBJECTID": 151, "PlaceName": "D134", "PersonName": "L.M. Waugh", "Contact": "", "PlaceNode": 151, "Email": "", "Details": "", "PlaceType": "Faculty"}, "geometry": {"type": "Polygon", "coordinates": [[[78.64044938400008, 9.026776115000075], [78.61211662900007, 14.12667201000005], [81.92704896000004, 14.14083838700003], [82.01204722500006, 9.069275248000054], [78.64044938400008, 9.026776115000075]]]}}, {"type": "Feature", "properties": {"OBJECTID": 152, "PlaceName": "", "PersonName": "", "Contact": "", "PlaceNode": 152, "Email": "", "Details": "", "PlaceType": ""}, "geometry": {"type": "Polygon", "coordinates": [[[42.18622759700003, 14.006502823000062], [44.82019607700005, 14.034228807000034], [44.87564804500005, 10.485302855000043], [46.12331732500007, 10.485302855000043], [46.261947245000044, 8.15632019900005], [42.158501613000055, 8.04541626300005], [42.18622759700003, 14.006502823000062]]]}}, {"type": "Feature", "properties": {"OBJECTID": 153, "PlaceName": "", "PersonName": "", "Contact": "", "PlaceNode": 153, "Email": "", "Details": "", "PlaceType": ""}, "geometry": {"type": "Polygon", "coordinates": [[[46.261947245000044, 8.15632019900005], [46.12331732500007, 10.485302855000043], [48.70183383700004, 10.568480807000071], [48.70183383700004, 8.073142247000021], [46.261947245000044, 8.15632019900005]]]}}, {"type": "Feature", "properties": {"OBJECTID": 154, "PlaceName": "", "PersonName": "Geological Engineering Program", "Contact": "", "PlaceNode": 154, "Email": "", "Details": "", "PlaceType": ""}, "geometry": {"type": "Polygon", "coordinates": [[[42.07532366100003, 22.989721639000038], [48.70183383700004, 23.045173607000038], [48.50775194900007, 14.172858727000062], [42.23415435600003, 14.23776889800007], [42.07532366100003, 22.989721639000038]]]}}, {"type": "Feature", "properties": {"OBJECTID": 155, "PlaceName": "", "PersonName": "", "Contact": "", "PlaceNode": 155, "Email": "", "Details": "", "PlaceType": ""}, "geometry": {"type": "Polygon", "coordinates": [[[44.82019607700005, 14.034228807000034], [48.674107853000066, 14.089680775000033], [48.70183383700004, 10.568480807000071], [44.87564804500005, 10.485302855000043], [44.82019607700005, 14.034228807000034]]]}}, {"type": "Feature", "properties": {"OBJECTID": 156, "PlaceName": "D126", "PersonName": "Civil Office", "Contact": "", "PlaceNode": 156, "Email": "", "Details": "", "PlaceType": "Office"}, "geometry": {"type": "Polygon", "coordinates": [[[48.860695398000075, 10.40024360700005], [53.383330768000064, 10.392718424000066], [53.360755217000076, 8.81242985800003], [53.84989215400003, 8.782329124000057], [53.864942521000046, 7.164414640000075], [51.43430820400005, 7.14936427300006], [51.42678302100006, 8.105062596000039], [48.830594664000046, 8.08248704500005], [48.860695398000075, 10.40024360700005]]]}}, {"type": "Feature", "properties": {"OBJECTID": 157, "PlaceName": "D129", "PersonName": "Reconfigurable Computing Lab", "Contact": "", "PlaceNode": 157, "Email": "", "Details": "", "PlaceType": "Lab"}, "geometry": {"type": "Polygon", "coordinates": [[[58.192980883000075, 23.23952582900006], [67.63043154000007, 23.20980157500003], [67.66015579400005, 15.986807844000055], [58.28215364500005, 15.942221463000067], [58.192980883000075, 23.23952582900006]]]}}, {"type": "Feature", "properties": {"OBJECTID": 158, "PlaceName": "D125-I", "PersonName": "GGE Equipment Room", "Contact": "", "PlaceNode": 158, "Email": "", "Details": "", "PlaceType": "Lab"}, "geometry": {"type": "Polygon", "coordinates": [[[51.356610481000075, 23.280382902000042], [58.03340313400008, 23.29452864900003], [58.04754888100007, 15.740699672000062], [51.34246473300004, 15.740699672000062], [51.356610481000075, 23.280382902000042]]]}}, {"type": "Feature", "properties": {"OBJECTID": 159, "PlaceName": "<steps>", "PersonName": "", "Contact": "", "PlaceNode": 159, "Email": "", "Details": "", "PlaceType": ""}, "geometry": {"type": "Polygon", "coordinates": [[[50.079815343000064, 15.714388582000026], [54.477445216000035, 15.56274617300005], [54.477445216000035, 12.984825213000022], [49.97872040300007, 12.959551478000037], [50.079815343000064, 15.714388582000026]]]}}, {"type": "Feature", "properties": {"OBJECTID": 160, "PlaceName": "", "PersonName": "", "Contact": "", "PlaceNode": 160, "Email": "", "Details": "", "PlaceType": ""}, "geometry": {"type": "Polygon", "coordinates": [[[51.13639473600006, 25.955320251000046], [57.39777860500004, 25.976226374000078], [57.43959085100005, 23.78108344800006], [53.91690910900007, 23.76017732500003], [53.88554992400003, 23.457038540000042], [52.95522744600004, 23.59292834100006], [52.95522744600004, 24.314189588000033], [52.54755804600006, 24.335095711000065], [52.58937029200007, 23.79153651000007], [51.16775392100004, 23.854254879000052], [51.13639473600006, 25.955320251000046]]]}}, {"type": "Feature", "properties": {"OBJECTID": 161, "PlaceName": "", "PersonName": "", "Contact": "", "PlaceNode": 161, "Email": "", "Details": "", "PlaceType": ""}, "geometry": {"type": "Polygon", "coordinates": [[[57.62740511000004, 26.468943333000027], [67.72858242200004, 26.43556939900003], [67.76195635600004, 23.721156112000074], [57.67190368900003, 23.821277914000063], [57.62740511000004, 26.468943333000027]]]}}, {"type": "Feature", "properties": {"OBJECTID": 162, "PlaceName": "", "PersonName": "", "Contact": "", "PlaceNode": 162, "Email": "", "Details": "", "PlaceType": ""}, "geometry": {"type": "Polygon", "coordinates": [[[41.76048913300008, 38.43307870900003], [54.72337349000003, 38.34179079100005], [54.83897181700007, 29.216928644000063], [41.80613309200004, 29.327108887000065], [41.76048913300008, 38.43307870900003]]]}}, {"type": "Feature", "properties": {"OBJECTID": 163, "PlaceName": "D114-I", "PersonName": "", "Contact": "", "PlaceNode": 163, "Email": "", "Details": "", "PlaceType": ""}, "geometry": {"type": "Polygon", "coordinates": [[[21.55938575500005, 38.593441151000036], [41.76048913300008, 38.43307870900003], [41.80613309200004, 29.327108887000065], [21.55938575500005, 29.278117704000067], [21.55938575500005, 38.593441151000036]]]}}, {"type": "Feature", "properties": {"OBJECTID": 164, "PlaceName": "<steps>", "PersonName": "", "Contact": "", "PlaceNode": 164, "Email": "", "Details": "", "PlaceType": ""}, "geometry": {"type": "Polygon", "coordinates": [[[18.208690141000034, 35.66848148400004], [21.373771220000037, 35.641078185000026], [21.455981118000068, 29.13279458200003], [18.290900040000054, 29.160197882000034], [18.208690141000034, 35.66848148400004]]]}}, {"type": "Feature", "properties": {"OBJECTID": 165, "PlaceName": "D113", "PersonName": "", "Contact": "", "PlaceNode": 165, "Email": "", "Details": "", "PlaceType": ""}, "geometry": {"type": "Polygon", "coordinates": [[[14.920294216000059, 35.75069138200007], [18.085375294000073, 35.73698973200004], [18.290900040000054, 29.160197882000034], [14.892890917000045, 29.173899531000075], [14.920294216000059, 35.75069138200007]]]}}, {"type": "Feature", "properties": {"OBJECTID": 166, "PlaceName": "D111", "PersonName": "", "Contact": "", "PlaceNode": 166, "Email": "", "Details": "", "PlaceType": ""}, "geometry": {"type": "Polygon", "coordinates": [[[11.426373545000047, 35.66848148400004], [14.824382668000055, 35.68218313400007], [14.893289828000036, 29.269638146000034], [11.426373545000047, 29.21500448000006], [11.426373545000047, 35.66848148400004]]]}}, {"type": "Feature", "properties": {"OBJECTID": 167, "PlaceName": "D110", "PersonName": "", "Contact": "", "PlaceNode": 167, "Email": "", "Details": "", "PlaceType": ""}, "geometry": {"type": "Polygon", "coordinates": [[[1.9670078540000304, 35.80988245800006], [11.344948914000042, 35.728098088000024], [11.426373545000047, 29.335286523000036], [2.0079000390000488, 29.308025066000027], [1.9670078540000304, 35.80988245800006]]]}}, {"type": "Feature", "properties": {"OBJECTID": 168, "PlaceName": "D106", "PersonName": "Student Development Studio - ECE", "Contact": "", "PlaceNode": 168, "Email": "", "Details": "", "PlaceType": "Lab"}, "geometry": {"type": "Polygon", "coordinates": [[[1.3923516130000735, 28.948377922000077], [9.355587029000048, 28.997685881000052], [9.355587029000048, 20.566024852000055], [1.3183896740000591, 20.664640770000062], [1.3923516130000735, 28.948377922000077]]]}}, {"type": "Feature", "properties": {"OBJECTID": 169, "PlaceName": "D105", "PersonName": "", "Contact": "", "PlaceNode": 169, "Email": "", "Details": "", "PlaceType": ""}, "geometry": {"type": "Polygon", "coordinates": [[[1.4668962000000647, 20.66281860400005], [9.355587029000048, 20.566024852000055], [9.429548968000063, 14.969571479000024], [1.3183896740000591, 15.043533417000049], [1.4668962000000647, 20.66281860400005]]]}}, {"type": "Feature", "properties": {"OBJECTID": 170, "PlaceName": "", "PersonName": "", "Contact": "", "PlaceNode": 170, "Email": "", "Details": "", "PlaceType": ""}, "geometry": {"type": "Polygon", "coordinates": [[[1.4181213420000631, 15.042624010000054], [4.745907084000066, 15.01227945900007], [4.597368963000065, 11.86317004700004], [1.3676976330000343, 11.86317004700004], [1.4181213420000631, 15.042624010000054]]]}}, {"type": "Feature", "properties": {"OBJECTID": 171, "PlaceName": "D104", "PersonName": "", "Contact": "", "PlaceNode": 171, "Email": "", "Details": "", "PlaceType": ""}, "geometry": {"type": "Polygon", "coordinates": [[[4.769946821000076, 11.887824026000033], [4.740633734000028, 14.90048084700004], [9.429548968000063, 14.969571479000024], [9.330933050000056, 11.86317004700004], [4.769946821000076, 11.887824026000033]]]}}, {"type": "Feature", "properties": {"OBJECTID": 172, "PlaceName": "D102", "PersonName": "", "Contact": "", "PlaceNode": 172, "Email": "", "Details": "", "PlaceType": "Classroom"}, "geometry": {"type": "Polygon", "coordinates": [[[14.240532767000047, 20.627970238000046], [22.03186458500005, 20.68402298500007], [22.14397007900004, 11.603477988000066], [14.072374526000033, 11.57545161400003], [14.240532767000047, 20.627970238000046]]]}}, {"type": "Feature", "properties": {"OBJECTID": 173, "PlaceName": "", "PersonName": "", "Contact": "", "PlaceNode": 173, "Email": "", "Details": "", "PlaceType": ""}, "geometry": {"type": "Polygon", "coordinates": [[[11.325789928000063, 24.859952629000077], [14.773033862000034, 24.803899882000053], [14.801060236000069, 20.79612847900006], [11.409869049000065, 20.768102105000025], [11.325789928000063, 24.859952629000077]]]}}, {"type": "Feature", "properties": {"OBJECTID": 174, "PlaceName": "", "PersonName": "", "Contact": "", "PlaceNode": 174, "Email": "", "Details": "", "PlaceType": ""}, "geometry": {"type": "Polygon", "coordinates": [[[11.409869049000065, 20.768102105000025], [14.062616978000051, 20.636777950000067], [14.016321779000066, 16.956515316000036], [11.38184267500003, 17.01256806300006], [11.409869049000065, 20.768102105000025]]]}}, {"type": "Feature", "properties": {"OBJECTID": 175, "PlaceName": "", "PersonName": "", "Contact": "", "PlaceNode": 175, "Email": "", "Details": "", "PlaceType": ""}, "geometry": {"type": "Polygon", "coordinates": [[[11.38184267500003, 17.01256806300006], [14.016321779000066, 16.956515316000036], [14.072374526000033, 11.57545161400003], [11.437895422000054, 11.715583482000056], [11.38184267500003, 17.01256806300006]]]}}, {"type": "Feature", "properties": {"OBJECTID": 176, "PlaceName": "", "PersonName": "", "Contact": "", "PlaceNode": 176, "Email": "", "Details": "", "PlaceType": ""}, "geometry": {"type": "Polygon", "coordinates": [[[11.38184267500003, 26.205218554000055], [12.979345962000025, 26.233244927000044], [12.978453296000055, 24.83308005400005], [11.325789928000063, 24.859952629000077], [11.38184267500003, 26.205218554000055]]]}}, {"type": "Feature", "properties": {"OBJECTID": 177, "PlaceName": "", "PersonName": "", "Contact": "", "PlaceNode": 177, "Email": "", "Details": "", "PlaceType": ""}, "geometry": {"type": "Polygon", "coordinates": [[[13.203556949000074, 26.121139434000042], [14.548822875000042, 26.093113060000064], [14.60264210500003, 24.806670480000037], [13.258642950000024, 24.828524125000058], [13.203556949000074, 26.121139434000042]]]}}, {"type": "Feature", "properties": {"OBJECTID": 178, "PlaceName": "<steps>", "PersonName": "", "Contact": "", "PlaceNode": 178, "Email": "", "Details": "", "PlaceType": ""}, "geometry": {"type": "Polygon", "coordinates": [[[43.53858555700003, 29.15195065100005], [47.78379093800004, 29.15195065100005], [47.85525904200006, 26.59339252600006], [43.58146642000003, 26.664860630000078], [43.53858555700003, 29.15195065100005]]]}}, {"type": "Feature", "properties": {"OBJECTID": 179, "PlaceName": "", "PersonName": "", "Contact": "", "PlaceNode": 179, "Email": "", "Details": "", "PlaceType": ""}, "geometry": {"type": "Polygon", "coordinates": [[[123.81391092500007, 32.63304303500007], [135.90371726, 32.60777126800008], [135.99948395500007, 31.027620797000054], [137.29233434100001, 31.051562471000068], [137.34021768800005, 29.99812882300006], [135.76006721700003, 30.04601217000004], [135.76006721700003, 29.375645304000045], [136.57408412600012, 29.35170363000003], [136.7177341690001, 26.766002858000036], [124.50851504100001, 26.499836472000027], [124.4198421750001, 29.514713915000073], [124.3016116870001, 29.544271537000043], [124.31639049800003, 30.63790355100008], [123.82868973600011, 30.682239984000034], [123.81391092500007, 32.63304303500007]]]}}, {"type": "Feature", "properties": {"OBJECTID": 180, "PlaceName": "", "PersonName": "", "Contact": "", "PlaceNode": 180, "Email": "", "Details": "", "PlaceType": ""}, "geometry": {"type": "Polygon", "coordinates": [[[136.9092675600001, 29.375645304000045], [141.8173106910001, 29.375645304000045], [150.34054656900003, 29.375645304000045], [150.3644882430001, 32.60777126800008], [158.95954914200001, 32.631712942000036], [158.8398407730001, 29.016520196000045], [156.69947663900007, 28.92846460800007], [156.63720678200002, 26.957536249000043], [158.9511455810001, 27.040787261000048], [158.9116657940001, 26.478702772000076], [149.2392295730001, 26.55052779400006], [149.2392295730001, 19.15255058500003], [143.32563614200012, 19.22437560700007], [143.22986944600007, 24.754902258000072], [139.92591846000005, 24.802785605000054], [139.79580083000008, 26.686144296000066], [136.95173015800003, 26.540842784000063], [136.9092675600001, 29.375645304000045]]]}}, {"type": "Feature", "properties": {"OBJECTID": 181, "PlaceName": "D-40C", "PersonName": "Brent Deterson", "Contact": "", "PlaceNode": 181, "Email": "", "Details": "", "PlaceType": ""}, "geometry": {"type": "Polygon", "coordinates": [[[95.60104622400007, 20.420369039000036], [95.53807966400007, 23.547708154000077], [98.62344107200005, 23.568697007000026], [98.70739648500006, 20.33641362700007], [95.60104622400007, 20.420369039000036]]]}}, {"type": "Feature", "properties": {"OBJECTID": 182, "PlaceName": "D-40B", "PersonName": "Casillo Guerra", "Contact": "", "PlaceNode": 182, "Email": "", "Details": "", "PlaceType": ""}, "geometry": {"type": "Polygon", "coordinates": [[[98.81234075000003, 20.357402480000076], [98.62454481800006, 23.526202804000036], [101.87671330500007, 23.463752741000064], [101.81374674600005, 20.357402480000076], [98.81234075000003, 20.357402480000076]]]}}, {"type": "Feature", "properties": {"OBJECTID": 183, "PlaceName": "", "PersonName": "", "Contact": "", "PlaceNode": 183, "Email": "", "Details": "", "PlaceType": ""}, "geometry": {"type": "Polygon", "coordinates": [[[9.560721558000068, 9.551431426000022], [10.685967843000071, 9.551431426000022], [10.770892091000064, 7.831715404000022], [9.581952620000038, 7.831715404000022], [9.560721558000068, 9.551431426000022]]]}}, {"type": "Feature", "properties": {"OBJECTID": 184, "PlaceName": "D102-A", "PersonName": "", "Contact": "", "PlaceNode": 184, "Email": "", "Details": "", "PlaceType": ""}, "geometry": {"type": "Polygon", "coordinates": [[[17.989453168000068, 11.483458067000072], [22.171972380000057, 11.525920191000068], [22.12951025600006, 7.789253280000025], [18.031915292000065, 7.7680222180000555], [17.989453168000068, 11.483458067000072]]]}}, {"type": "Feature", "properties": {"OBJECTID": 185, "PlaceName": "Dineen Dr (Eng)", "PersonName": "", "Contact": "", "PlaceNode": 186, "Email": "", "Details": "", "PlaceType": ""}, "geometry": {"type": "Polygon", "coordinates": [[[53.84989215400003, 8.782329124000114], [58.06795262680993, 8.864610542358491], [58.170012645590646, 7.191683107496658], [53.86494252100016, 7.164414640000075], [53.84989215400003, 8.782329124000114]]]}}, {"type": "Feature", "properties": {"OBJECTID": 186, "PlaceName": "Dineen Dr (other)", "PersonName": "", "Contact": "", "PlaceNode": 185, "Email": "", "Details": "", "PlaceType": ""}, "geometry": {"type": "Polygon", "coordinates": [[[13.406860378286638, 7.766702938438073], [17.837618466577226, 7.801590797400934], [17.924838113984435, 7.435268278290323], [18.343492421539565, 7.382936489845974], [18.41326813946523, 4.975674221404688], [13.406860378286638, 4.836122785552959], [13.406860378286638, 7.766702938438073]]]}}]}