{"type": "FeatureCollection", "features": [{"type": "Feature", "properties": {"OBJECTID": 1, "PlaceNode": 29}, "geometry": {"type": "Point", "coordinates": [140.2169255450001, 82.74609340000006]}}, {"type": "Feature", "properties": {"OBJECTID": 2, "PlaceNode": 28}, "geometry": {"type": "Point", "coordinates": [132.57291760200008, 81.21053134900006]}}, {"type": "Feature", "properties": {"OBJECTID": 3, "PlaceNode": 27}, "geometry": {"type": "Point", "coordinates": [131.0597796820001, 81.25674378600007]}}, {"type": "Feature", "properties": {"OBJECTID": 4, "PlaceNode": 30}, "geometry": {"type": "Point", "coordinates": [130.78674729300008, 83.82969174300007]}}, {"type": "Feature", "properties": {"OBJECTID": 5, "PlaceNode": 31}, "geometry": {"type": "Point", "coordinates": [127.68954557900008, 83.81178280200004]}}, {"type": "Feature", "properties": {"OBJECTID": 6, "PlaceNode": 32}, "geometry": {"type": "Point", "coordinates": [124.55509781700005, 83.73294432400007]}}, {"type": "Feature", "properties": {"OBJECTID": 7, "PlaceNode": 33}, "geometry": {"type": "Point", "coordinates": [121.8047189240001, 83.75200498400005]}}, {"type": "Feature", "properties": {"OBJECTID": 8, "PlaceNode": 33}, "geometry": {"type": "Point", "coordinates": [119.64754436300007, 83.77531931500005]}}, {"type": "Feature", "properties": {"OBJECTID": 9, "PlaceNode": 15}, "geometry": {"type": "Point", "coordinates": [118.52563949900002, 80.74194658200008]}}, {"type": "Feature", "properties": {"OBJECTID": 10, "PlaceNode": 16}, "geometry": {"type": "Point", "coordinates": [120.96610172600003, 77.56730534800005]}}, {"type": "Feature", "properties": {"OBJECTID": 11, "PlaceNode": 17}, "geometry": {"type": "Point", "coordinates": [120.91402032000008, 76.30755440700005]}}, {"type": "Feature", "properties": {"OBJECTID": 12, "PlaceNode": 8}, "geometry": {"type": "Point", "coordinates": [123.57156552200001, 75.91661605800005]}}, {"type": "Feature", "properties": {"OBJECTID": 13, "PlaceNode": 18}, "geometry": {"type": "Point", "coordinates": [120.89477917200009, 73.55597405600008]}}, {"type": "Feature", "properties": {"OBJECTID": 14, "PlaceNode": 26}, "geometry": {"type": "Point", "coordinates": [123.65379649500005, 69.70402450600005]}}, {"type": "Feature", "properties": {"OBJECTID": 15, "PlaceNode": 34}, "geometry": {"type": "Point", "coordinates": [116.08816234200003, 83.80111379000004]}}, {"type": "Feature", "properties": {"OBJECTID": 16, "PlaceNode": 35}, "geometry": {"type": "Point", "coordinates": [114.5780427310001, 83.72288198100006]}}, {"type": "Feature", "properties": {"OBJECTID": 17, "PlaceNode": 36}, "geometry": {"type": "Point", "coordinates": [109.46547705900008, 83.78859494200003]}}, {"type": "Feature", "properties": {"OBJECTID": 18, "PlaceNode": 37}, "geometry": {"type": "Point", "coordinates": [107.63187314100009, 83.78139552200008]}}, {"type": "Feature", "properties": {"OBJECTID": 19, "PlaceNode": 9}, "geometry": {"type": "Point", "coordinates": [109.14193529500005, 81.31553133400007]}}, {"type": "Feature", "properties": {"OBJECTID": 20, "PlaceNode": 14}, "geometry": {"type": "Point", "coordinates": [110.84600967200004, 81.30934273600008]}}, {"type": "Feature", "properties": {"OBJECTID": 21, "PlaceNode": 38}, "geometry": {"type": "Point", "coordinates": [103.08004255000009, 83.72910901300008]}}, {"type": "Feature", "properties": {"OBJECTID": 22, "PlaceNode": 39}, "geometry": {"type": "Point", "coordinates": [101.26796012800008, 83.73762480100004]}}, {"type": "Feature", "properties": {"OBJECTID": 23, "PlaceNode": 40}, "geometry": {"type": "Point", "coordinates": [98.07607578900007, 83.71680663300003]}}, {"type": "Feature", "properties": {"OBJECTID": 24, "PlaceNode": 9}, "geometry": {"type": "Point", "coordinates": [99.95230820600005, 81.34275985900007]}}, {"type": "Feature", "properties": {"OBJECTID": 25, "PlaceNode": 20}, "geometry": {"type": "Point", "coordinates": [98.31306743000005, 81.25873954600007]}}, {"type": "Feature", "properties": {"OBJECTID": 26, "PlaceNode": 19}, "geometry": {"type": "Point", "coordinates": [93.50198035800008, 81.71383687100007]}}, {"type": "Feature", "properties": {"OBJECTID": 27, "PlaceNode": 47}, "geometry": {"type": "Point", "coordinates": [69.70535865900007, 83.24131508900007]}}, {"type": "Feature", "properties": {"OBJECTID": 28, "PlaceNode": 46}, "geometry": {"type": "Point", "coordinates": [66.38737377600006, 82.70889349300006]}}, {"type": "Feature", "properties": {"OBJECTID": 29, "PlaceNode": 42}, "geometry": {"type": "Point", "coordinates": [68.24109062100007, 81.03836848700007]}}, {"type": "Feature", "properties": {"OBJECTID": 30, "PlaceNode": 43}, "geometry": {"type": "Point", "coordinates": [73.35020360700008, 79.25082336100007]}}, {"type": "Feature", "properties": {"OBJECTID": 31, "PlaceNode": 44}, "geometry": {"type": "Point", "coordinates": [74.62416546100008, 79.27869663100006]}}, {"type": "Feature", "properties": {"OBJECTID": 32, "PlaceNode": 45}, "geometry": {"type": "Point", "coordinates": [76.98944447700006, 79.98862218100004]}}, {"type": "Feature", "properties": {"OBJECTID": 33, "PlaceNode": 41}, "geometry": {"type": "Point", "coordinates": [78.21068187200007, 81.11222741500006]}}, {"type": "Feature", "properties": {"OBJECTID": 34, "PlaceNode": 11}, "geometry": {"type": "Point", "coordinates": [71.39969642600005, 76.20105943300007]}}, {"type": "Feature", "properties": {"OBJECTID": 35, "PlaceNode": 48}, "geometry": {"type": "Point", "coordinates": [67.89337807900006, 74.34593653600007]}}, {"type": "Feature", "properties": {"OBJECTID": 36, "PlaceNode": 49}, "geometry": {"type": "Point", "coordinates": [67.90614052100005, 72.55701657500003]}}, {"type": "Feature", "properties": {"OBJECTID": 37, "PlaceNode": 50}, "geometry": {"type": "Point", "coordinates": [67.86701786400005, 67.23647062700007]}}, {"type": "Feature", "properties": {"OBJECTID": 38, "PlaceNode": 51}, "geometry": {"type": "Point", "coordinates": [67.86701786400005, 65.53745808600007]}}, {"type": "Feature", "properties": {"OBJECTID": 39, "PlaceNode": 10}, "geometry": {"type": "Point", "coordinates": [71.33052464100007, 63.77137926100005]}}, {"type": "Feature", "properties": {"OBJECTID": 40, "PlaceNode": 52}, "geometry": {"type": "Point", "coordinates": [67.85932508200005, 60.10521061600008]}}, {"type": "Feature", "properties": {"OBJECTID": 41, "PlaceNode": 53}, "geometry": {"type": "Point", "coordinates": [67.89621264000004, 58.24995343200004]}}, {"type": "Feature", "properties": {"OBJECTID": 42, "PlaceNode": 54}, "geometry": {"type": "Point", "coordinates": [67.94665461200003, 53.666870678000066]}}, {"type": "Feature", "properties": {"OBJECTID": 43, "PlaceNode": 141}, "geometry": {"type": "Point", "coordinates": [73.01115928000007, 35.77087787800008]}}, {"type": "Feature", "properties": {"OBJECTID": 44, "PlaceNode": 144}, "geometry": {"type": "Point", "coordinates": [70.61691861100007, 34.910608178000075]}}, {"type": "Feature", "properties": {"OBJECTID": 45, "PlaceNode": 142}, "geometry": {"type": "Point", "coordinates": [79.74357884800008, 34.861605920000045]}}, {"type": "Feature", "properties": {"OBJECTID": 46, "PlaceNode": 144}, "geometry": {"type": "Point", "coordinates": [78.18202353700008, 29.63322428200007]}}, {"type": "Feature", "properties": {"OBJECTID": 47, "PlaceNode": 143}, "geometry": {"type": "Point", "coordinates": [81.88218663600009, 29.62200323600007]}}, {"type": "Feature", "properties": {"OBJECTID": 48, "PlaceNode": 1}, "geometry": {"type": "Point", "coordinates": [61.02018161600006, 29.204077896000058]}}, {"type": "Feature", "properties": {"OBJECTID": 49, "PlaceNode": 161}, "geometry": {"type": "Point", "coordinates": [61.73459916200005, 26.455373309000038]}}, {"type": "Feature", "properties": {"OBJECTID": 50, "PlaceNode": 146}, "geometry": {"type": "Point", "coordinates": [69.05683712000007, 26.37260691700004]}}, {"type": "Feature", "properties": {"OBJECTID": 51, "PlaceNode": 145}, "geometry": {"type": "Point", "coordinates": [77.29737674000006, 26.26682445600005]}}, {"type": "Feature", "properties": {"OBJECTID": 52, "PlaceNode": 135}, "geometry": {"type": "Point", "coordinates": [81.58657535900005, 26.304771905000052]}}, {"type": "Feature", "properties": {"OBJECTID": 53, "PlaceNode": 134}, "geometry": {"type": "Point", "coordinates": [87.63189527900005, 29.702053188000036]}}, {"type": "Feature", "properties": {"OBJECTID": 54, "PlaceNode": 134}, "geometry": {"type": "Point", "coordinates": [94.56079116300003, 29.71301752900007]}}, {"type": "Feature", "properties": {"OBJECTID": 55, "PlaceNode": 137}, "geometry": {"type": "Point", "coordinates": [84.08600488000008, 26.389671553000028]}}, {"type": "Feature", "properties": {"OBJECTID": 56, "PlaceNode": 140}, "geometry": {"type": "Point", "coordinates": [89.22510386500005, 24.10455581000008]}}, {"type": "Feature", "properties": {"OBJECTID": 57, "PlaceNode": 136}, "geometry": {"type": "Point", "coordinates": [84.06342470700008, 23.340253666000024]}}, {"type": "Feature", "properties": {"OBJECTID": 58, "PlaceNode": 140}, "geometry": {"type": "Point", "coordinates": [89.21477293300006, 22.54333045900006]}}, {"type": "Feature", "properties": {"OBJECTID": 59, "PlaceNode": 140}, "geometry": {"type": "Point", "coordinates": [94.85399532900004, 26.389671553000028]}}, {"type": "Feature", "properties": {"OBJECTID": 60, "PlaceNode": 139}, "geometry": {"type": "Point", "coordinates": [96.04633369500004, 24.95476421500007]}}, {"type": "Feature", "properties": {"OBJECTID": 61, "PlaceNode": 138}, "geometry": {"type": "Point", "coordinates": [94.89909649000003, 23.635266451000064]}}, {"type": "Feature", "properties": {"OBJECTID": 62, "PlaceNode": 181}, "geometry": {"type": "Point", "coordinates": [98.12800243800007, 23.56532667600004]}}, {"type": "Feature", "properties": {"OBJECTID": 63, "PlaceNode": 182}, "geometry": {"type": "Point", "coordinates": [99.26184408100005, 23.513965007000024]}}, {"type": "Feature", "properties": {"OBJECTID": 64, "PlaceNode": 132}, "geometry": {"type": "Point", "coordinates": [102.64801765800007, 23.531050981000078]}}, {"type": "Feature", "properties": {"OBJECTID": 65, "PlaceNode": 131}, "geometry": {"type": "Point", "coordinates": [101.04171163200004, 26.321135137000056]}}, {"type": "Feature", "properties": {"OBJECTID": 66, "PlaceNode": 130}, "geometry": {"type": "Point", "coordinates": [108.28477818600004, 22.50122100300007]}}, {"type": "Feature", "properties": {"OBJECTID": 67, "PlaceNode": 129}, "geometry": {"type": "Point", "coordinates": [108.23374739400003, 24.21269558000006]}}, {"type": "Feature", "properties": {"OBJECTID": 68, "PlaceNode": 129}, "geometry": {"type": "Point", "coordinates": [109.08724295400003, 26.40411662400004]}}, {"type": "Feature", "properties": {"OBJECTID": 69, "PlaceNode": 57}, "geometry": {"type": "Point", "coordinates": [105.70739703200007, 29.645938812000054]}}, {"type": "Feature", "properties": {"OBJECTID": 70, "PlaceNode": 55}, "geometry": {"type": "Point", "coordinates": [103.91933915300007, 35.220389615000045]}}, {"type": "Feature", "properties": {"OBJECTID": 71, "PlaceNode": 56}, "geometry": {"type": "Point", "coordinates": [105.23334227100008, 35.09910299300003]}}, {"type": "Feature", "properties": {"OBJECTID": 72, "PlaceNode": 57}, "geometry": {"type": "Point", "coordinates": [107.84745265000004, 32.624524860000065]}}, {"type": "Feature", "properties": {"OBJECTID": 73, "PlaceNode": 58}, "geometry": {"type": "Point", "coordinates": [114.25687719100006, 36.94797075400004]}}, {"type": "Feature", "properties": {"OBJECTID": 74, "PlaceNode": 59}, "geometry": {"type": "Point", "coordinates": [120.87007144300003, 35.85486401000003]}}, {"type": "Feature", "properties": {"OBJECTID": 75, "PlaceNode": 60}, "geometry": {"type": "Point", "coordinates": [109.70801634100008, 29.58945684500003]}}, {"type": "Feature", "properties": {"OBJECTID": 76, "PlaceNode": 61}, "geometry": {"type": "Point", "coordinates": [119.43820373100004, 29.632043688000067]}}, {"type": "Feature", "properties": {"OBJECTID": 77, "PlaceNode": 62}, "geometry": {"type": "Point", "coordinates": [116.03752287500004, 26.402680401000055]}}, {"type": "Feature", "properties": {"OBJECTID": 78, "PlaceNode": 63}, "geometry": {"type": "Point", "coordinates": [118.37210901000003, 26.382705103000035]}}, {"type": "Feature", "properties": {"OBJECTID": 79, "PlaceNode": 65}, "geometry": {"type": "Point", "coordinates": [118.43475079300003, 20.391798805000064]}}, {"type": "Feature", "properties": {"OBJECTID": 80, "PlaceNode": 64}, "geometry": {"type": "Point", "coordinates": [117.6101526970001, 18.07838441900003]}}, {"type": "Feature", "properties": {"OBJECTID": 81, "PlaceNode": 66}, "geometry": {"type": "Point", "coordinates": [115.97239459100001, 15.93281031600003]}}, {"type": "Feature", "properties": {"OBJECTID": 82, "PlaceNode": 66}, "geometry": {"type": "Point", "coordinates": [118.40666423200003, 15.90271341700003]}}, {"type": "Feature", "properties": {"OBJECTID": 83, "PlaceNode": 65}, "geometry": {"type": "Point", "coordinates": [124.05993366900009, 16.452940156000068]}}, {"type": "Feature", "properties": {"OBJECTID": 84, "PlaceNode": 107}, "geometry": {"type": "Point", "coordinates": [126.2750891600001, 15.230179861000067]}}, {"type": "Feature", "properties": {"OBJECTID": 85, "PlaceNode": 67}, "geometry": {"type": "Point", "coordinates": [123.97388940400003, 12.98814629900005]}}, {"type": "Feature", "properties": {"OBJECTID": 86, "PlaceNode": 68}, "geometry": {"type": "Point", "coordinates": [124.99312876300007, 11.869900189000077]}}, {"type": "Feature", "properties": {"OBJECTID": 87, "PlaceNode": 69}, "geometry": {"type": "Point", "coordinates": [127.99178993200007, 11.841146199000036]}}, {"type": "Feature", "properties": {"OBJECTID": 88, "PlaceNode": 70}, "geometry": {"type": "Point", "coordinates": [131.13644466800008, 11.707038854000075]}}, {"type": "Feature", "properties": {"OBJECTID": 89, "PlaceNode": 71}, "geometry": {"type": "Point", "coordinates": [134.31009720300005, 11.82350316700007]}}, {"type": "Feature", "properties": {"OBJECTID": 90, "PlaceNode": 72}, "geometry": {"type": "Point", "coordinates": [137.4255175820001, 11.794387089000054]}}, {"type": "Feature", "properties": {"OBJECTID": 91, "PlaceNode": 73}, "geometry": {"type": "Point", "coordinates": [140.57005404000006, 11.707038854000075]}}, {"type": "Feature", "properties": {"OBJECTID": 92, "PlaceNode": 74}, "geometry": {"type": "Point", "coordinates": [143.8892869670001, 11.847806483000056]}}, {"type": "Feature", "properties": {"OBJECTID": 93, "PlaceNode": 75}, "geometry": {"type": "Point", "coordinates": [146.91781288900006, 11.932405862000053]}}, {"type": "Feature", "properties": {"OBJECTID": 94, "PlaceNode": 76}, "geometry": {"type": "Point", "coordinates": [150.1785557510001, 11.872010328000044]}}, {"type": "Feature", "properties": {"OBJECTID": 95, "PlaceNode": 77}, "geometry": {"type": "Point", "coordinates": [153.29378026000006, 11.82350316700007]}}, {"type": "Feature", "properties": {"OBJECTID": 96, "PlaceNode": 78}, "geometry": {"type": "Point", "coordinates": [156.49679902200012, 11.905249261000051]}}, {"type": "Feature", "properties": {"OBJECTID": 97, "PlaceNode": 79}, "geometry": {"type": "Point", "coordinates": [160.10694258400008, 11.794387089000054]}}, {"type": "Feature", "properties": {"OBJECTID": 98, "PlaceNode": 80}, "geometry": {"type": "Point", "coordinates": [161.13030336300005, 13.365675658000043]}}, {"type": "Feature", "properties": {"OBJECTID": 99, "PlaceNode": 81}, "geometry": {"type": "Point", "coordinates": [161.0765030130001, 16.365389793000077]}}, {"type": "Feature", "properties": {"OBJECTID": 100, "PlaceNode": 82}, "geometry": {"type": "Point", "coordinates": [161.09352728800002, 19.53929968400007]}}, {"type": "Feature", "properties": {"OBJECTID": 101, "PlaceNode": 83}, "geometry": {"type": "Point", "coordinates": [161.1077526370001, 20.849690250000037]}}, {"type": "Feature", "properties": {"OBJECTID": 102, "PlaceNode": 126}, "geometry": {"type": "Point", "coordinates": [158.97141553000006, 27.866462314000046]}}, {"type": "Feature", "properties": {"OBJECTID": 103, "PlaceNode": 120}, "geometry": {"type": "Point", "coordinates": [165.34201908600005, 32.43773315800007]}}, {"type": "Feature", "properties": {"OBJECTID": 104, "PlaceNode": 128}, "geometry": {"type": "Point", "coordinates": [162.8288290900001, 29.93752071600005]}}, {"type": "Feature", "properties": {"OBJECTID": 105, "PlaceNode": 127}, "geometry": {"type": "Point", "coordinates": [162.58660852200012, 28.041349754000066]}}, {"type": "Feature", "properties": {"OBJECTID": 106, "PlaceNode": 89}, "geometry": {"type": "Point", "coordinates": [161.13981489000003, 24.65052158700007]}}, {"type": "Feature", "properties": {"OBJECTID": 107, "PlaceNode": 96}, "geometry": {"type": "Point", "coordinates": [165.30729957800008, 33.98115772600005]}}, {"type": "Feature", "properties": {"OBJECTID": 108, "PlaceNode": 121}, "geometry": {"type": "Point", "coordinates": [166.10141169000008, 29.522238601000026]}}, {"type": "Feature", "properties": {"OBJECTID": 109, "PlaceNode": 122}, "geometry": {"type": "Point", "coordinates": [167.6108206450001, 29.535548499000072]}}, {"type": "Feature", "properties": {"OBJECTID": 110, "PlaceNode": 88}, "geometry": {"type": "Point", "coordinates": [166.69241328900011, 26.346998150000047]}}, {"type": "Feature", "properties": {"OBJECTID": 111, "PlaceNode": 87}, "geometry": {"type": "Point", "coordinates": [168.46729574000005, 27.251183550000064]}}, {"type": "Feature", "properties": {"OBJECTID": 112, "PlaceNode": 86}, "geometry": {"type": "Point", "coordinates": [172.70577868100008, 22.688327112000024]}}, {"type": "Feature", "properties": {"OBJECTID": 113, "PlaceNode": 85}, "geometry": {"type": "Point", "coordinates": [173.66390804700006, 22.655405114000075]}}, {"type": "Feature", "properties": {"OBJECTID": 114, "PlaceNode": 84}, "geometry": {"type": "Point", "coordinates": [173.62212906700006, 23.578382959000066]}}, {"type": "Feature", "properties": {"OBJECTID": 115, "PlaceNode": 91}, "geometry": {"type": "Point", "coordinates": [168.2515527280001, 28.83040077100003]}}, {"type": "Feature", "properties": {"OBJECTID": 116, "PlaceNode": 95}, "geometry": {"type": "Point", "coordinates": [173.05676125200011, 29.523500906000038]}}, {"type": "Feature", "properties": {"OBJECTID": 117, "PlaceNode": 92}, "geometry": {"type": "Point", "coordinates": [173.72033769600012, 32.13975624600005]}}, {"type": "Feature", "properties": {"OBJECTID": 118, "PlaceNode": 93}, "geometry": {"type": "Point", "coordinates": [173.69583417400008, 35.22388575100007]}}, {"type": "Feature", "properties": {"OBJECTID": 119, "PlaceNode": 94}, "geometry": {"type": "Point", "coordinates": [173.84752987800005, 36.52868918900003]}}, {"type": "Feature", "properties": {"OBJECTID": 120, "PlaceNode": 95}, "geometry": {"type": "Point", "coordinates": [170.7144116290001, 38.69394392000004]}}, {"type": "Feature", "properties": {"OBJECTID": 121, "PlaceNode": 97}, "geometry": {"type": "Point", "coordinates": [171.52914202500006, 41.67154370600008]}}, {"type": "Feature", "properties": {"OBJECTID": 122, "PlaceNode": 98}, "geometry": {"type": "Point", "coordinates": [171.52526546100012, 44.762639913000044]}}, {"type": "Feature", "properties": {"OBJECTID": 123, "PlaceNode": 99}, "geometry": {"type": "Point", "coordinates": [171.54232308600012, 46.143155480000075]}}, {"type": "Feature", "properties": {"OBJECTID": 124, "PlaceNode": 100}, "geometry": {"type": "Point", "coordinates": [169.19539427400002, 47.62175561400005]}}, {"type": "Feature", "properties": {"OBJECTID": 125, "PlaceNode": 101}, "geometry": {"type": "Point", "coordinates": [167.6046943760001, 47.61672150700008]}}, {"type": "Feature", "properties": {"OBJECTID": 126, "PlaceNode": 104}, "geometry": {"type": "Point", "coordinates": [162.83746016700002, 47.88370892300003]}}, {"type": "Feature", "properties": {"OBJECTID": 127, "PlaceNode": 103}, "geometry": {"type": "Point", "coordinates": [164.45293984500006, 48.572384415000045]}}, {"type": "Feature", "properties": {"OBJECTID": 128, "PlaceNode": 105}, "geometry": {"type": "Point", "coordinates": [162.83318624900005, 44.642742471000076]}}, {"type": "Feature", "properties": {"OBJECTID": 129, "PlaceNode": 106}, "geometry": {"type": "Point", "coordinates": [162.76742066100007, 41.58210433700003]}}, {"type": "Feature", "properties": {"OBJECTID": 130, "PlaceNode": 102}, "geometry": {"type": "Point", "coordinates": [165.34920326600002, 43.08488734100007]}}, {"type": "Feature", "properties": {"OBJECTID": 131, "PlaceNode": 102}, "geometry": {"type": "Point", "coordinates": [165.3443162970001, 40.03553815500004]}}, {"type": "Feature", "properties": {"OBJECTID": 132, "PlaceNode": 119}, "geometry": {"type": "Point", "coordinates": [157.1908818700001, 34.83759186800006]}}, {"type": "Feature", "properties": {"OBJECTID": 133, "PlaceNode": 118}, "geometry": {"type": "Point", "coordinates": [155.7206345180001, 34.83005925000003]}}, {"type": "Feature", "properties": {"OBJECTID": 134, "PlaceNode": 117}, "geometry": {"type": "Point", "coordinates": [146.9878194360001, 34.87609643400003]}}, {"type": "Feature", "properties": {"OBJECTID": 135, "PlaceNode": 116}, "geometry": {"type": "Point", "coordinates": [145.4571731090001, 34.80098415200007]}}, {"type": "Feature", "properties": {"OBJECTID": 136, "PlaceNode": 115}, "geometry": {"type": "Point", "coordinates": [140.68547416800004, 34.888038503000075]}}, {"type": "Feature", "properties": {"OBJECTID": 137, "PlaceNode": 114}, "geometry": {"type": "Point", "coordinates": [139.124662854, 34.899537268000074]}}, {"type": "Feature", "properties": {"OBJECTID": 138, "PlaceNode": 113}, "geometry": {"type": "Point", "coordinates": [134.26331572200002, 34.89068117100004]}}, {"type": "Feature", "properties": {"OBJECTID": 139, "PlaceNode": 112}, "geometry": {"type": "Point", "coordinates": [132.82306929600009, 34.89995833300003]}}, {"type": "Feature", "properties": {"OBJECTID": 140, "PlaceNode": 111}, "geometry": {"type": "Point", "coordinates": [129.28146073100004, 34.87308848300006]}}, {"type": "Feature", "properties": {"OBJECTID": 141, "PlaceNode": 179}, "geometry": {"type": "Point", "coordinates": [124.92880005000006, 26.508998871000074]}}, {"type": "Feature", "properties": {"OBJECTID": 142, "PlaceNode": 107}, "geometry": {"type": "Point", "coordinates": [138.4736964010001, 14.072662783000055]}}, {"type": "Feature", "properties": {"OBJECTID": 143, "PlaceNode": 108}, "geometry": {"type": "Point", "coordinates": [140.803266462, 14.052123110000025]}}, {"type": "Feature", "properties": {"OBJECTID": 144, "PlaceNode": 109}, "geometry": {"type": "Point", "coordinates": [148.63794733100008, 14.083519602000024]}}, {"type": "Feature", "properties": {"OBJECTID": 145, "PlaceNode": 151}, "geometry": {"type": "Point", "coordinates": [78.61550094700004, 13.517494854000063]}}, {"type": "Feature", "properties": {"OBJECTID": 146, "PlaceNode": 150}, "geometry": {"type": "Point", "coordinates": [77.25400578500006, 12.766699771000049]}}, {"type": "Feature", "properties": {"OBJECTID": 147, "PlaceNode": 149}, "geometry": {"type": "Point", "coordinates": [74.99270038800006, 12.773874942000077]}}, {"type": "Feature", "properties": {"OBJECTID": 148, "PlaceNode": 148}, "geometry": {"type": "Point", "coordinates": [71.73873851700006, 12.822329409000076]}}, {"type": "Feature", "properties": {"OBJECTID": 149, "PlaceNode": 147}, "geometry": {"type": "Point", "coordinates": [68.89941490700005, 12.869650561000071]}}, {"type": "Feature", "properties": {"OBJECTID": 150, "PlaceNode": 6}, "geometry": {"type": "Point", "coordinates": [69.81263049900008, 15.199244111000041]}}, {"type": "Feature", "properties": {"OBJECTID": 151, "PlaceNode": 5}, "geometry": {"type": "Point", "coordinates": [65.74607831100008, 14.295656467000072]}}, {"type": "Feature", "properties": {"OBJECTID": 152, "PlaceNode": 157}, "geometry": {"type": "Point", "coordinates": [65.90945866800007, 15.978484403000039]}}, {"type": "Feature", "properties": {"OBJECTID": 153, "PlaceNode": 146}, "geometry": {"type": "Point", "coordinates": [68.85539235300007, 23.201530309000077]}}, {"type": "Feature", "properties": {"OBJECTID": 154, "PlaceNode": 144}, "geometry": {"type": "Point", "coordinates": [71.71580900500004, 29.64352080200007]}}, {"type": "Feature", "properties": {"OBJECTID": 155, "PlaceNode": 157}, "geometry": {"type": "Point", "coordinates": [59.250912999000036, 15.946827292000023]}}, {"type": "Feature", "properties": {"OBJECTID": 156, "PlaceNode": 158}, "geometry": {"type": "Point", "coordinates": [56.39902804900004, 15.740699672000062]}}, {"type": "Feature", "properties": {"OBJECTID": 157, "PlaceNode": 5}, "geometry": {"type": "Point", "coordinates": [58.359818493000034, 12.12748115100004]}}, {"type": "Feature", "properties": {"OBJECTID": 158, "PlaceNode": 156}, "geometry": {"type": "Point", "coordinates": [53.37246032500008, 9.631787393000025]}}, {"type": "Feature", "properties": {"OBJECTID": 159, "PlaceNode": 153}, "geometry": {"type": "Point", "coordinates": [47.73892144200005, 10.547547929000075]}}, {"type": "Feature", "properties": {"OBJECTID": 162, "PlaceNode": 152}, "geometry": {"type": "Point", "coordinates": [45.55221424700005, 10.500010816000042]}}, {"type": "Feature", "properties": {"OBJECTID": 163, "PlaceNode": 155}, "geometry": {"type": "Point", "coordinates": [48.686768080000036, 12.481831932000034]}}, {"type": "Feature", "properties": {"OBJECTID": 164, "PlaceNode": 154}, "geometry": {"type": "Point", "coordinates": [48.68437520600003, 22.24706477500007]}}, {"type": "Feature", "properties": {"OBJECTID": 165, "PlaceNode": 160}, "geometry": {"type": "Point", "coordinates": [51.15633546200007, 24.61929159300007]}}, {"type": "Feature", "properties": {"OBJECTID": 166, "PlaceNode": 158}, "geometry": {"type": "Point", "coordinates": [51.34400885200006, 16.563715209000065]}}, {"type": "Feature", "properties": {"OBJECTID": 167, "PlaceNode": 159}, "geometry": {"type": "Point", "coordinates": [54.477445216000035, 14.410256612000069]}}, {"type": "Feature", "properties": {"OBJECTID": 168, "PlaceNode": 178}, "geometry": {"type": "Point", "coordinates": [47.82400110700007, 27.712426616000073]}}, {"type": "Feature", "properties": {"OBJECTID": 169, "PlaceNode": 162}, "geometry": {"type": "Point", "coordinates": [49.51361795300005, 29.26194944100007]}}, {"type": "Feature", "properties": {"OBJECTID": 170, "PlaceNode": 163}, "geometry": {"type": "Point", "coordinates": [39.25151258100004, 29.32092745600005]}}, {"type": "Feature", "properties": {"OBJECTID": 171, "PlaceNode": 163}, "geometry": {"type": "Point", "coordinates": [27.847203549000028, 29.29333237700007]}}, {"type": "Feature", "properties": {"OBJECTID": 172, "PlaceNode": 164}, "geometry": {"type": "Point", "coordinates": [19.952256324000075, 30.373940493000077]}}, {"type": "Feature", "properties": {"OBJECTID": 173, "PlaceNode": 165}, "geometry": {"type": "Point", "coordinates": [18.25350112700005, 30.35696309900004]}}, {"type": "Feature", "properties": {"OBJECTID": 174, "PlaceNode": 163}, "geometry": {"type": "Point", "coordinates": [21.547506628000065, 30.39118644200005]}}, {"type": "Feature", "properties": {"OBJECTID": 175, "PlaceNode": 4}, "geometry": {"type": "Point", "coordinates": [15.741635838000036, 26.11381633700006]}}, {"type": "Feature", "properties": {"OBJECTID": 176, "PlaceNode": 166}, "geometry": {"type": "Point", "coordinates": [12.27117441200005, 29.228317339000057]}}, {"type": "Feature", "properties": {"OBJECTID": 177, "PlaceNode": 167}, "geometry": {"type": "Point", "coordinates": [10.210791280000024, 29.331768061000048]}}, {"type": "Feature", "properties": {"OBJECTID": 178, "PlaceNode": 168}, "geometry": {"type": "Point", "coordinates": [9.355587029000048, 27.55796642000007]}}, {"type": "Feature", "properties": {"OBJECTID": 179, "PlaceNode": 176}, "geometry": {"type": "Point", "coordinates": [11.356122953000067, 25.587945228000024]}}, {"type": "Feature", "properties": {"OBJECTID": 180, "PlaceNode": 177}, "geometry": {"type": "Point", "coordinates": [14.061688838000066, 24.815466468000068]}}, {"type": "Feature", "properties": {"OBJECTID": 181, "PlaceNode": 173}, "geometry": {"type": "Point", "coordinates": [14.74110068300007, 21.546981450000033]}}, {"type": "Feature", "properties": {"OBJECTID": 182, "PlaceNode": 168}, "geometry": {"type": "Point", "coordinates": [9.355587029000048, 21.653136760000052]}}, {"type": "Feature", "properties": {"OBJECTID": 183, "PlaceNode": 173}, "geometry": {"type": "Point", "coordinates": [11.394742711000049, 21.50425053300006]}}, {"type": "Feature", "properties": {"OBJECTID": 184, "PlaceNode": 174}, "geometry": {"type": "Point", "coordinates": [12.851382585000067, 20.780015440000057]}}, {"type": "Feature", "properties": {"OBJECTID": 185, "PlaceNode": 169}, "geometry": {"type": "Point", "coordinates": [9.38190284500007, 18.574794809000025]}}, {"type": "Feature", "properties": {"OBJECTID": 186, "PlaceNode": 171}, "geometry": {"type": "Point", "coordinates": [9.409871217000045, 14.349722321000058]}}, {"type": "Feature", "properties": {"OBJECTID": 187, "PlaceNode": 175}, "geometry": {"type": "Point", "coordinates": [13.297697691000053, 11.616657829000076]}}, {"type": "Feature", "properties": {"OBJECTID": 188, "PlaceNode": 183}, "geometry": {"type": "Point", "coordinates": [10.176422356000046, 9.551431426000022]}}, {"type": "Feature", "properties": {"OBJECTID": 189, "PlaceNode": 184}, "geometry": {"type": "Point", "coordinates": [18.009835098000053, 9.70003915500007]}}, {"type": "Feature", "properties": {"OBJECTID": 190, "PlaceNode": 172}, "geometry": {"type": "Point", "coordinates": [15.229376614000046, 11.579468982000037]}}, {"type": "Feature", "properties": {"OBJECTID": 191, "PlaceNode": 170}, "geometry": {"type": "Point", "coordinates": [2.066156675000059, 14.98658329500006]}}, {"type": "Feature", "properties": {"OBJECTID": 192, "PlaceNode": 2}, "geometry": {"type": "Point", "coordinates": [120.91553011500002, 44.79557095000007]}}, {"type": "Feature", "properties": {"OBJECTID": 193, "PlaceNode": 3}, "geometry": {"type": "Point", "coordinates": [123.52394635000007, 44.69435271800006]}}, {"type": "Feature", "properties": {"OBJECTID": 194, "PlaceNode": 2}, "geometry": {"type": "Point", "coordinates": [120.91553011500002, 50.081503403000056]}}, {"type": "Feature", "properties": {"OBJECTID": 195, "PlaceNode": 21}, "geometry": {"type": "Point", "coordinates": [123.6366602380001, 52.86196109000008]}}, {"type": "Feature", "properties": {"OBJECTID": 196, "PlaceNode": 22}, "geometry": {"type": "Point", "coordinates": [123.61971423300008, 57.39493010900003]}}, {"type": "Feature", "properties": {"OBJECTID": 197, "PlaceNode": 23}, "geometry": {"type": "Point", "coordinates": [123.61724874100003, 59.11813558000006]}}, {"type": "Feature", "properties": {"OBJECTID": 198, "PlaceNode": 12}, "geometry": {"type": "Point", "coordinates": [120.94245209000007, 59.856514668000045]}}, {"type": "Feature", "properties": {"OBJECTID": 199, "PlaceNode": 13}, "geometry": {"type": "Point", "coordinates": [120.95174360400006, 61.52188955000008]}}, {"type": "Feature", "properties": {"OBJECTID": 200, "PlaceNode": 24}, "geometry": {"type": "Point", "coordinates": [123.61773893500003, 63.564010359000065]}}, {"type": "Feature", "properties": {"OBJECTID": 201, "PlaceNode": 25}, "geometry": {"type": "Point", "coordinates": [123.61406678700007, 65.25835629400007]}}, {"type": "Feature", "properties": {"OBJECTID": 202, "PlaceNode": 14}, "geometry": {"type": "Point", "coordinates": [120.99114522200011, 68.21243981000003]}}, {"type": "Feature", "properties": {"OBJECTID": 203, "PlaceNode": 13}, "geometry": {"type": "Point", "coordinates": [111.36571294200007, 67.50830183000005]}}, {"type": "Feature", "properties": {"OBJECTID": 204, "PlaceNode": 12}, "geometry": {"type": "Point", "coordinates": [111.36531796800006, 60.66092988100007]}}, {"type": "Feature", "properties": {"OBJECTID": 205, "PlaceNode": 7}, "geometry": {"type": "Point", "coordinates": [96.42383373900003, 29.709132904000057]}}, {"type": "Feature", "properties": {"OBJECTID": 206, "PlaceNode": 180}, "geometry": {"type": "Point", "coordinates": [138.52939653400006, 26.565648859000078]}}, {"type": "Feature", "properties": {"OBJECTID": 207, "PlaceNode": 123}, "geometry": {"type": "Point", "coordinates": [140.7766401230001, 29.623342051000066]}}, {"type": "Feature", "properties": {"OBJECTID": 208, "PlaceNode": 124}, "geometry": {"type": "Point", "coordinates": [142.310372905, 29.523435557000028]}}, {"type": "Feature", "properties": {"OBJECTID": 209, "PlaceNode": 125}, "geometry": {"type": "Point", "coordinates": [147.2543220870001, 29.61481887700006]}}, {"type": "Feature", "properties": {"OBJECTID": 210, "PlaceNode": 108}, "geometry": {"type": "Point", "coordinates": [143.24688805200003, 23.77207777800004]}}, {"type": "Feature", "properties": {"OBJECTID": 211, "PlaceNode": 110}, "geometry": {"type": "Point", "coordinates": [154.10538125000005, 26.342097048000028]}}, {"type": "Feature", "properties": {"OBJECTID": 212, "PlaceNode": 109}, "geometry": {"type": "Point", "coordinates": [149.37451454200004, 15.636675015000037]}}, {"type": "Feature", "properties": {"OBJECTID": 0, "PlaceNode": 185}, "geometry": {"type": "Point", "coordinates": [16.04045573919702, 7.7874399097837905]}}, {"type": "Feature", "properties": {"OBJECTID": 0, "PlaceNode": 186}, "geometry": {"type": "Point", "coordinates": [56.01723385331498, 8.824607310914796]}}]}