{"type": "FeatureCollection", "features": [{"type": "Feature", "properties": {"OBJECTID": 1, "PlaceNode": 1, "PlaceName": "E11", "PersonName": "", "Contact": "", "Email": "", "Details": "David E Wells Multimedia Room", "PlaceType": "Classroom"}, "geometry": {"type": "Polygon", "coordinates": [[[114.41363485200009, 14.690921184000047], [123.85534744000006, 14.636502091000068], [123.81649484500008, 7.895576987000027], [114.3747822580001, 7.949996080000062], [114.41363485200009, 14.690921184000047]]]}}, {"type": "Feature", "properties": {"OBJECTID": 2, "PlaceNode": 2, "PlaceName": "", "PersonName": "", "Contact": "", "Email": "", "Details": "", "PlaceType": ""}, "geometry": {"type": "Polygon", "coordinates": [[[120.8258038030001, 6.031013792000067], [123.61737105700001, 6.031013792000067], [123.61737105700001, 1.355138643000032], [120.8258038030001, 1.355138643000032], [120.8258038030001, 6.031013792000067]]]}}, {"type": "Feature", "properties": {"OBJECTID": 3, "PlaceNode": 3, "PlaceName": "E21", "PersonName": "Dr. E. Biden", "Contact": "506-458-7762", "Email": "biden@unb.ca", "Details": "Mechanical Engineering", "PlaceType": "Faculty"}, "geometry": {"type": "Polygon", "coordinates": [[[124.03610614500008, 5.891435429000069], [126.86256798800002, 5.856540838000058], [126.80656222400012, 1.3200738860000456], [123.98010038000007, 1.3549684770000567], [124.03610614500008, 5.891435429000069]]]}}, {"type": "Feature", "properties": {"OBJECTID": 4, "PlaceNode": 4, "PlaceName": "E22", "PersonName": "Dr. G. Holloway", "Contact": "506-447-3108", "Email": "holloway@unb.ca", "Details": "Mechanical Engineering", "PlaceType": "Faculty"}, "geometry": {"type": "Polygon", "coordinates": [[[127.14172471400002, 5.856540838000058], [129.89839737600005, 5.856540838000058], [129.89839737600005, 1.459822415000076], [127.14172471400002, 1.459822415000076], [127.14172471400002, 5.856540838000058]]]}}, {"type": "Feature", "properties": {"OBJECTID": 5, "PlaceNode": 5, "PlaceName": "E23", "PersonName": "Dr. R. Dubay", "Contact": "506-458-7770", "Email": "dubayr@unb.ca", "Details": "Mechanical Engineering", "PlaceType": "Faculty"}, "geometry": {"type": "Polygon", "coordinates": [[[130.21244869200007, 5.786751657000025], [132.96912135500008, 5.786751657000025], [132.96912135500008, 1.424927824000065], [130.21244869200007, 1.424927824000065], [130.21244869200007, 5.786751657000025]]]}}, {"type": "Feature", "properties": {"OBJECTID": 6, "PlaceNode": 6, "PlaceName": "E24", "PersonName": "Dr. C. Aranas Jr", "Contact": "506-453-4944", "Email": "clod.aranas@unb.ca", "Details": "Mechanical Engineering", "PlaceType": "Faculty"}, "geometry": {"type": "Polygon", "coordinates": [[[133.08077240000011, 5.775301263000074], [136.18706406500007, 5.794595000000072], [136.2138463430001, 1.4826483070000336], [133.10755467800004, 1.4633545700000354], [133.08077240000011, 5.775301263000074]]]}}, {"type": "Feature", "properties": {"OBJECTID": 7, "PlaceNode": 7, "PlaceName": "E25", "PersonName": "Dr. G. Saha", "Contact": "506-458-7784", "Email": "g.saha@unb.ca", "Details": "Mechanical Engineering", "PlaceType": "Faculty"}, "geometry": {"type": "Polygon", "coordinates": [[[136.38879124000005, 5.786751657000025], [139.14546390200007, 5.821646248000036], [139.20107051800005, 1.4287236310000253], [136.44439785500003, 1.393829040000071], [136.38879124000005, 5.786751657000025]]]}}, {"type": "Feature", "properties": {"OBJECTID": 8, "PlaceNode": 8, "PlaceName": "E26", "PersonName": "Dr. D. Lyon", "Contact": "506-453-5155", "Email": "lyon@unb.ca", "Details": "Mechanical Engineering", "PlaceType": "Faculty"}, "geometry": {"type": "Polygon", "coordinates": [[[139.38972603700006, 5.716962476000049], [142.28597706200003, 5.716962476000049], [142.28597706200003, 1.3900332330000538], [139.38972603700006, 1.3900332330000538], [139.38972603700006, 5.716962476000049]]]}}, {"type": "Feature", "properties": {"OBJECTID": 10, "PlaceNode": 9, "PlaceName": "E27", "PersonName": "Dr. J. Carretero", "Contact": "506-458-7454", "Email": "juan.carretero@unb.ca", "Details": "Mechanical Engineering", "PlaceType": "Faculty"}, "geometry": {"type": "Polygon", "coordinates": [[[142.36741071200004, 5.704270005000069], [145.338043222, 5.692910034000022], [145.32158570600006, 1.3892697280000448], [142.3509531960001, 1.4006297000000245], [142.36741071200004, 5.704270005000069]]]}}, {"type": "Feature", "properties": {"OBJECTID": 11, "PlaceNode": 10, "PlaceName": "E28", "PersonName": "Ian Church", "Contact": "506-447-8116", "Email": "ian.church@unb.ca", "Details": "Geodesy and Geomatics", "PlaceType": "Faculty"}, "geometry": {"type": "Polygon", "coordinates": [[[145.395593565, 5.696041247000039], [148.53121145600005, 5.67815749500005], [148.50652518300012, 1.3498309160000304], [145.37090729200008, 1.3677146690000654], [145.395593565, 5.696041247000039]]]}}, {"type": "Feature", "properties": {"OBJECTID": 12, "PlaceNode": 11, "PlaceName": "E29", "PersonName": "John McLaughlin", "Contact": "506-453-4567", "Email": "jdm@unb.ca", "Details": "Geodesy and Geomatics", "PlaceType": "Faculty"}, "geometry": {"type": "Polygon", "coordinates": [[[148.57334961700008, 5.665416295000057], [151.59989930200004, 5.62793580400006], [151.54688109800009, 1.3467158100000347], [148.52033141300012, 1.3841963020000208], [148.57334961700008, 5.665416295000057]]]}}, {"type": "Feature", "properties": {"OBJECTID": 13, "PlaceNode": 12, "PlaceName": "E30", "PersonName": "Petr Vanicek", "Contact": "", "Email": "petr.vanicek@unb.ca", "Details": "Geodesy and Geomatics", "PlaceType": "Faculty"}, "geometry": {"type": "Polygon", "coordinates": [[[151.66192844700004, 5.638866907000022], [154.67085911300012, 5.6211673150000365], [154.64576912500002, 1.3558693670000252], [151.63683845900005, 1.373568960000057], [151.66192844700004, 5.638866907000022]]]}}, {"type": "Feature", "properties": {"OBJECTID": 14, "PlaceNode": 13, "PlaceName": "E31", "PersonName": "Shabnam Jabari", "Contact": "506-447-3124", "Email": "sh.jabari@unb.ca", "Details": "Geodesy and Geomatics", "PlaceType": "Faculty"}, "geometry": {"type": "Polygon", "coordinates": [[[154.7505072770001, 5.612317519000044], [157.6977873520001, 5.630566931000033], [157.72403875800012, 1.3909647910000444], [154.77675868400001, 1.3727153790000557], [154.7505072770001, 5.612317519000044]]]}}, {"type": "Feature", "properties": {"OBJECTID": 16, "PlaceNode": 14, "PlaceName": "E32", "PersonName": "Robert Kingdon", "Contact": "506-453-5143", "Email": "robert.kingdon@unb.ca", "Details": "Geodesy and Geomatics, Director of UG Studies", "PlaceType": "Faculty"}, "geometry": {"type": "Polygon", "coordinates": [[[157.76384974500002, 1.3972119970000563], [157.77741093500003, 5.555976953000027], [163.76845488800006, 5.536440940000034], [163.75489369800005, 1.3776759840000636], [157.76384974500002, 1.3972119970000563]]]}}, {"type": "Feature", "properties": {"OBJECTID": 17, "PlaceNode": 15, "PlaceName": "E33", "PersonName": "David Coleman", "Contact": "", "Email": "", "Details": "Geodesy and Geomatics", "PlaceType": "Faculty"}, "geometry": {"type": "Polygon", "coordinates": [[[159.86626092900008, 7.942679610000027], [163.99846231800007, 7.978098479000039], [164.01930125, 5.54688980100002], [159.88709986100002, 5.511470932000066], [159.86626092900008, 7.942679610000027]]]}}, {"type": "Feature", "properties": {"OBJECTID": 18, "PlaceNode": 16, "PlaceName": "E34", "PersonName": "Monica Wachowicz", "Contact": "506-447-8113", "Email": "monicaw@unb.ca", "Details": "Geodesy and Geomatics, People in Motion, Director of Grad Studies", "PlaceType": "Faculty"}, "geometry": {"type": "Polygon", "coordinates": [[[159.85445464000009, 11.390116198000044], [164.0085017560001, 11.377934241000048], [163.99846231800007, 7.954485900000066], [159.84441520200005, 7.966667856000072], [159.85445464000009, 11.390116198000044]]]}}, {"type": "Feature", "properties": {"OBJECTID": 19, "PlaceNode": 17, "PlaceName": "E35", "PersonName": "Marcelo Santos", "Contact": "506-453-4671", "Email": "msantos@unb.ca", "Details": "Geodesy and Geomatics", "PlaceType": "Faculty"}, "geometry": {"type": "Polygon", "coordinates": [[[159.83084206000012, 14.695877309000025], [164.05509701800008, 14.683633092000036], [164.04568747700011, 11.437341356000047], [159.82143251900004, 11.449585574000025], [159.83084206000012, 14.695877309000025]]]}}, {"type": "Feature", "properties": {"OBJECTID": 20, "PlaceNode": 18, "PlaceName": "E36", "PersonName": "Grad Lounge", "Contact": "", "Email": "", "Details": "", "PlaceType": "Facility,utensils"}, "geometry": {"type": "Polygon", "coordinates": [[[159.8632605030001, 14.817548938000073], [159.88353377500005, 17.868676401000073], [163.96628848000012, 17.841548463000038], [163.94601520700007, 14.790421000000038], [159.8632605030001, 14.817548938000073]]]}}, {"type": "Feature", "properties": {"OBJECTID": 21, "PlaceNode": 19, "PlaceName": "E13", "PersonName": "", "Contact": "", "Email": "", "Details": "Geographical Engineering Lab", "PlaceType": "Lab"}, "geometry": {"type": "Polygon", "coordinates": [[[125.86733721300004, 21.06670406300003], [128.81899978, 21.095928444000037], [128.88266496100005, 14.66574515800005], [125.93100239400007, 14.636520776000054], [125.86733721300004, 21.06670406300003]]]}}, {"type": "Feature", "properties": {"OBJECTID": 22, "PlaceNode": 20, "PlaceName": "E14", "PersonName": "", "Contact": "", "Email": "", "Details": "CanLab Inspire", "PlaceType": ""}, "geometry": {"type": "Polygon", "coordinates": [[[125.94668794300003, 14.63929491500005], [136.02423068100006, 14.63929491500005], [136.02423068100006, 8.132535037000025], [125.94668794300003, 8.132535037000025], [125.94668794300003, 14.63929491500005]]]}}, {"type": "Feature", "properties": {"OBJECTID": 23, "PlaceNode": 21, "PlaceName": "", "PersonName": "", "Contact": "", "Email": "", "Details": "", "PlaceType": ""}, "geometry": {"type": "Polygon", "coordinates": [[[136.10358141100005, 21.06670406300003], [139.19825988900004, 21.11960454900003], [139.24710002300003, 18.262456713000063], [136.15242154500004, 18.209556226000075], [136.10358141100005, 21.06670406300003]]]}}, {"type": "Feature", "properties": {"OBJECTID": 24, "PlaceNode": 22, "PlaceName": "", "PersonName": "", "Contact": "", "Email": "", "Details": "", "PlaceType": ""}, "geometry": {"type": "Polygon", "coordinates": [[[136.12104581900007, 18.162685258000067], [139.2206410760001, 18.140545291000024], [139.2649210080001, 14.653500628000074], [136.14245503000006, 14.697530542000038], [136.12104581900007, 18.162685258000067]]]}}, {"type": "Feature", "properties": {"OBJECTID": 25, "PlaceNode": 23, "PlaceName": "E15", "PersonName": "Storage Room", "Contact": "", "Email": "", "Details": "", "PlaceType": ""}, "geometry": {"type": "Polygon", "coordinates": [[[128.80331423100006, 21.06670406300003], [136.04355593800005, 21.040880853000033], [135.99927600600006, 14.62029067900005], [128.75608445700004, 14.667069741000034], [128.80331423100006, 21.06670406300003]]]}}, {"type": "Feature", "properties": {"OBJECTID": 26, "PlaceNode": 24, "PlaceName": "E16", "PersonName": "Ocean Mapping Group", "Contact": "", "Email": "", "Details": "", "PlaceType": ""}, "geometry": {"type": "Polygon", "coordinates": [[[142.29293836800002, 21.013803576000043], [154.59275317700008, 20.961685716000034], [154.5663029330001, 14.719428273000062], [142.26648812400003, 14.771546132000026], [142.29293836800002, 21.013803576000043]]]}}, {"type": "Feature", "properties": {"OBJECTID": 27, "PlaceNode": 25, "PlaceName": "E17", "PersonName": "", "Contact": "", "Email": "", "Details": "", "PlaceType": ""}, "geometry": {"type": "Polygon", "coordinates": [[[154.75100301200007, 21.013803576000043], [157.34312686600003, 21.040253819000043], [157.4076346170001, 14.718494186000044], [154.81551076300002, 14.692043943000044], [154.75100301200007, 21.013803576000043]]]}}, {"type": "Feature", "properties": {"OBJECTID": 28, "PlaceNode": 26, "PlaceName": "E18", "PersonName": "GGE Grad Room", "Contact": "", "Email": "", "Details": "", "PlaceType": ""}, "geometry": {"type": "Polygon", "coordinates": [[[142.26648812400003, 14.66574515800005], [146.7630295030001, 14.63929491500005], [146.7246075070001, 8.10755552300003], [142.22806612800002, 8.13400576600003], [142.26648812400003, 14.66574515800005]]]}}, {"type": "Feature", "properties": {"OBJECTID": 29, "PlaceNode": 27, "PlaceName": "E19", "PersonName": "Geodesy and GPS Research", "Contact": "", "Email": "", "Details": "", "PlaceType": ""}, "geometry": {"type": "Polygon", "coordinates": [[[146.92173096400006, 14.586394428000062], [153.21688889400002, 14.586394428000062], [153.21688889400002, 8.106084794000026], [146.92173096400006, 8.106084794000026], [146.92173096400006, 14.586394428000062]]]}}, {"type": "Feature", "properties": {"OBJECTID": 30, "PlaceNode": 28, "PlaceName": "E20", "PersonName": "Remote Sensing Research", "Contact": "", "Email": "", "Details": "", "PlaceType": ""}, "geometry": {"type": "Polygon", "coordinates": [[[153.269789381, 14.586394428000062], [157.5811790560001, 14.48059345400003], [157.42292929400003, 8.031915665000042], [153.11153961900004, 8.137716638000029], [153.269789381, 14.586394428000062]]]}}, {"type": "Feature", "properties": {"OBJECTID": 31, "PlaceNode": 29, "PlaceName": "", "PersonName": "", "Contact": "", "Email": "", "Details": "", "PlaceType": ""}, "geometry": {"type": "Polygon", "coordinates": [[[136.18293214100004, 8.264786254000057], [136.288733115, 14.63929491500005], [139.35696135000012, 14.586394428000062], [139.30406086300002, 20.987353332000055], [142.18713739400005, 21.040253819000043], [142.26648812400003, 8.21188576700007], [136.18293214100004, 8.264786254000057]]]}}, {"type": "Feature", "properties": {"OBJECTID": 32, "PlaceNode": 30, "PlaceName": "E12", "PersonName": "Nanocomposites and Mechanics Lab", "Contact": "", "Email": "", "Details": "", "PlaceType": "Lab"}, "geometry": {"type": "Polygon", "coordinates": [[[120.8199311190001, 1.4011016720000384], [114.45057599000006, 1.3748903340000425], [114.3850476450001, 7.9408304990000715], [123.84734065600003, 7.875302154000053], [123.85172865000004, 6.098004333000063], [120.75440277400003, 6.079825502000062], [120.8199311190001, 1.4011016720000384]]]}}, {"type": "Feature", "properties": {"OBJECTID": 33, "PlaceNode": 31, "PlaceName": "E8", "PersonName": "", "Contact": "", "Email": "", "Details": "", "PlaceType": ""}, "geometry": {"type": "Polygon", "coordinates": [[[123.24549587600006, 34.50865076600007], [129.84140438800011, 34.559258759000045], [129.91777383300007, 24.60577439700006], [123.32186532100002, 24.555166403000044], [123.24549587600006, 34.50865076600007]]]}}, {"type": "Feature", "properties": {"OBJECTID": 34, "PlaceNode": 32, "PlaceName": "", "PersonName": "", "Contact": "", "Email": "", "Details": "", "PlaceType": ""}, "geometry": {"type": "Polygon", "coordinates": [[[129.9257510440001, 34.525520097000026], [133.04657732200008, 34.474912103000065], [132.98450070600006, 30.64685411800008], [129.86367442800008, 30.69746211200004], [129.9257510440001, 34.525520097000026]]]}}, {"type": "Feature", "properties": {"OBJECTID": 35, "PlaceNode": 33, "PlaceName": "", "PersonName": "", "Contact": "", "Email": "", "Details": "", "PlaceType": ""}, "geometry": {"type": "Polygon", "coordinates": [[[133.147793309, 34.458042772000056], [136.03244895000012, 34.458042772000056], [136.03244895000012, 30.67931257600003], [133.147793309, 30.67931257600003], [133.147793309, 34.458042772000056]]]}}, {"type": "Feature", "properties": {"OBJECTID": 36, "PlaceNode": 34, "PlaceName": "E7", "PersonName": "Candian Centre for Geodetic Engineering", "Contact": "", "Email": "", "Details": "", "PlaceType": "Lab"}, "geometry": {"type": "Polygon", "coordinates": [[[129.9257510440001, 30.61183525100006], [136.066187613, 30.645573913000078], [136.09918682600005, 24.639717177000023], [129.95875025700002, 24.60597851400007], [129.9257510440001, 30.61183525100006]]]}}, {"type": "Feature", "properties": {"OBJECTID": 37, "PlaceNode": 35, "PlaceName": "E6", "PersonName": "", "Contact": "", "Email": "", "Details": "", "PlaceType": ""}, "geometry": {"type": "Polygon", "coordinates": [[[136.1167956060001, 34.42430410900005], [142.29097083800002, 34.40743477800004], [142.2641925040001, 24.606564770000034], [136.09001727300006, 24.623434101000043], [136.1167956060001, 34.42430410900005]]]}}, {"type": "Feature", "properties": {"OBJECTID": 38, "PlaceNode": 36, "PlaceName": "E5", "PersonName": "", "Contact": "", "Email": "", "Details": "", "PlaceType": ""}, "geometry": {"type": "Polygon", "coordinates": [[[142.33130186200003, 34.27737592500006], [148.40017994100003, 34.29486548700004], [148.42810354300002, 24.605375691000063], [142.35922546400002, 24.587886129000026], [142.33130186200003, 34.27737592500006]]]}}, {"type": "Feature", "properties": {"OBJECTID": 39, "PlaceNode": 37, "PlaceName": "E4", "PersonName": "", "Contact": "", "Email": "", "Details": "", "PlaceType": "Classroom"}, "geometry": {"type": "Polygon", "coordinates": [[[148.47013819000006, 34.312355049000075], [154.46905802000003, 34.36482373600006], [154.55425174100003, 24.624341642000047], [148.55533191100005, 24.57187295500006], [148.47013819000006, 34.312355049000075]]]}}, {"type": "Feature", "properties": {"OBJECTID": 40, "PlaceNode": 38, "PlaceName": "", "PersonName": "", "Contact": "", "Email": "", "Details": "", "PlaceType": ""}, "geometry": {"type": "Polygon", "coordinates": [[[154.60897451800008, 34.36482373600006], [161.49986202000002, 34.38231329800004], [161.50967310600004, 30.51674544800005], [154.6187856040001, 30.49925588600007], [154.60897451800008, 34.36482373600006]]]}}, {"type": "Feature", "properties": {"OBJECTID": 41, "PlaceNode": 39, "PlaceName": "E3", "PersonName": "", "Contact": "", "Email": "", "Details": "", "PlaceType": ""}, "geometry": {"type": "Polygon", "coordinates": [[[154.62646408000012, 30.412182681000047], [157.44228359200008, 30.37720355700003], [157.3699520250001, 24.55451240000008], [154.554132513, 24.589491525000028], [154.62646408000012, 30.412182681000047]]]}}, {"type": "Feature", "properties": {"OBJECTID": 42, "PlaceNode": 40, "PlaceName": "E3A", "PersonName": "Ocean Mapping Visualization Room", "Contact": "", "Email": "", "Details": "", "PlaceType": ""}, "geometry": {"type": "Polygon", "coordinates": [[[157.5122418410001, 30.37720355700003], [161.56982026900005, 30.37720355700003], [161.56982026900005, 24.57066891100004], [157.5122418410001, 24.57066891100004], [157.5122418410001, 30.37720355700003]]]}}, {"type": "Feature", "properties": {"OBJECTID": 43, "PlaceNode": 41, "PlaceName": "E55", "PersonName": "Dr. Richard Langley", "Contact": "", "Email": "", "Details": "", "PlaceType": "Faculty"}, "geometry": {"type": "Polygon", "coordinates": [[[157.629042539, 34.841221406000045], [157.629042539, 38.30003952800007], [161.55184845700012, 38.30003952800007], [161.55184845700012, 34.841221406000045], [157.629042539, 34.841221406000045]]]}}, {"type": "Feature", "properties": {"OBJECTID": 44, "PlaceNode": 42, "PlaceName": "E56", "PersonName": "Dr. Yun Zhang", "Contact": "", "Email": "", "Details": "", "PlaceType": "Faculty"}, "geometry": {"type": "Polygon", "coordinates": [[[161.59402916600004, 38.34222023700005], [157.67246989500006, 38.29027905400005], [157.63028918600003, 41.47492256900006], [161.55184845700012, 41.526863751000064], [161.59402916600004, 38.34222023700005]]]}}, {"type": "Feature", "properties": {"OBJECTID": 45, "PlaceNode": 43, "PlaceName": "E57", "PersonName": "Michael Sheng", "Contact": "", "Email": "", "Details": "", "PlaceType": "Faculty"}, "geometry": {"type": "Polygon", "coordinates": [[[157.6501328930001, 41.590134815000056], [157.61647949400003, 44.75355432600003], [161.58146612200005, 44.795735034000074], [161.6151195210001, 41.632315523000045], [157.6501328930001, 41.590134815000056]]]}}, {"type": "Feature", "properties": {"OBJECTID": 46, "PlaceNode": 44, "PlaceName": "E58", "PersonName": "GGE Faculty Lounge", "Contact": "", "Email": "", "Details": "", "PlaceType": "Facility,utensils"}, "geometry": {"type": "Polygon", "coordinates": [[[157.73449431100005, 44.88023010100005], [157.7134039560001, 48.12814468000005], [163.76580656600004, 48.16744599500004], [163.78689692000012, 44.91953141700003], [157.73449431100005, 44.88023010100005]]]}}, {"type": "Feature", "properties": {"OBJECTID": 47, "PlaceNode": 45, "PlaceName": "", "PersonName": "", "Contact": "", "Email": "", "Details": "", "PlaceType": ""}, "geometry": {"type": "Polygon", "coordinates": [[[163.8928777960001, 48.21250609700007], [167.0136615890001, 48.227729433000036], [167.03475194300006, 43.90420678000004], [163.91396815100006, 43.888983445000065], [163.8928777960001, 48.21250609700007]]]}}, {"type": "Feature", "properties": {"OBJECTID": 48, "PlaceNode": 46, "PlaceName": "E52", "PersonName": "New Brunswick Surveyers Room", "Contact": "", "Email": "", "Details": "", "PlaceType": ""}, "geometry": {"type": "Polygon", "coordinates": [[[163.97723921400006, 38.76402732500003], [174.4380549980001, 38.74293697000007], [174.42993397200007, 34.71490825700005], [163.96911818800004, 34.73599861100007], [163.97723921400006, 38.76402732500003]]]}}, {"type": "Feature", "properties": {"OBJECTID": 49, "PlaceNode": 47, "PlaceName": "", "PersonName": "", "Contact": "", "Email": "", "Details": "", "PlaceType": ""}, "geometry": {"type": "Polygon", "coordinates": [[[170.68397191400004, 48.14923503400007], [174.47815331300012, 48.21194877600004], [174.52033402200004, 45.660015893000036], [170.72615262300008, 45.597302151000065], [170.68397191400004, 48.14923503400007]]]}}, {"type": "Feature", "properties": {"OBJECTID": 50, "PlaceNode": 48, "PlaceName": "", "PersonName": "", "Contact": "", "Email": "", "Details": "", "PlaceType": ""}, "geometry": {"type": "Polygon", "coordinates": [[[170.72615262300008, 41.67449623200008], [170.77068942400012, 45.63827153600005], [174.52477250800007, 45.59609082700007], [174.48023570600003, 41.632315523000045], [170.72615262300008, 41.67449623200008]]]}}, {"type": "Feature", "properties": {"OBJECTID": 51, "PlaceNode": 49, "PlaceName": "", "PersonName": "", "Contact": "", "Email": "", "Details": "", "PlaceType": ""}, "geometry": {"type": "Polygon", "coordinates": [[[174.45914535200006, 38.78511767900005], [170.72860679100006, 38.84164099100008], [170.7707874990001, 41.62556777200007], [174.5013260610001, 41.56904446000004], [174.45914535200006, 38.78511767900005]]]}}, {"type": "Feature", "properties": {"OBJECTID": 52, "PlaceNode": 50, "PlaceName": "GGE Office", "PersonName": "", "Contact": "", "Email": "", "Details": "", "PlaceType": "Office"}, "geometry": {"type": "Polygon", "coordinates": [[[163.99832956800003, 38.78511767900005], [163.9561488590001, 43.82571238100007], [167.07752131100005, 43.82571238100007], [167.0564309570001, 48.12814468000005], [170.66288155900008, 48.107054325000036], [170.72615262300008, 38.76402732500003], [163.99832956800003, 38.78511767900005]]]}}, {"type": "Feature", "properties": {"OBJECTID": 53, "PlaceNode": 51, "PlaceName": "E2B", "PersonName": "", "Contact": "", "Email": "", "Details": "", "PlaceType": ""}, "geometry": {"type": "Polygon", "coordinates": [[[163.85251883500007, 34.388972856000066], [166.95259566800007, 34.364753506000056], [166.90472753000006, 28.237631862000057], [163.80465069800005, 28.261851213000057], [163.85251883500007, 34.388972856000066]]]}}, {"type": "Feature", "properties": {"OBJECTID": 54, "PlaceNode": 52, "PlaceName": "E-Restroom (Male) - 1", "PersonName": "", "Contact": "", "Email": "", "Details": "", "PlaceType": "Facility,male"}, "geometry": {"type": "Polygon", "coordinates": [[[163.85251883500007, 26.75987752700007], [165.42677660200002, 26.711438827000052], [165.35954199000003, 24.526313953000056], [163.78528422400007, 24.574752654000065], [163.85251883500007, 26.75987752700007]]]}}, {"type": "Feature", "properties": {"OBJECTID": 55, "PlaceNode": 53, "PlaceName": "E-Restroom (Female) - 1", "PersonName": "", "Contact": "", "Email": "", "Details": "", "PlaceType": "Facility,female"}, "geometry": {"type": "Polygon", "coordinates": [[[165.5478733530001, 26.663000126000043], [166.8314989160001, 26.687219476000053], [166.87164615200004, 24.55941596300005], [165.58802058900005, 24.53519661200005], [165.5478733530001, 26.663000126000043]]]}}, {"type": "Feature", "properties": {"OBJECTID": 56, "PlaceNode": 54, "PlaceName": "E2A", "PersonName": "", "Contact": "", "Email": "", "Details": "", "PlaceType": ""}, "geometry": {"type": "Polygon", "coordinates": [[[163.85251883500007, 28.21303854200005], [166.8799376170001, 28.21303854200005], [166.8799376170001, 26.832535578000034], [163.85251883500007, 26.832535578000034], [163.85251883500007, 28.21303854200005]]]}}, {"type": "Feature", "properties": {"OBJECTID": 57, "PlaceNode": 55, "PlaceName": "E51", "PersonName": "GGE UG Lab", "Contact": "", "Email": "", "Details": "", "PlaceType": "Lab"}, "geometry": {"type": "Polygon", "coordinates": [[[167.0494730690001, 34.34053415600005], [172.45038817500006, 34.31631480600004], [172.4067290580001, 24.580331785000055], [167.00581395200004, 24.604551136000055], [167.0494730690001, 34.34053415600005]]]}}, {"type": "Feature", "properties": {"OBJECTID": 58, "PlaceNode": 56, "PlaceName": "", "PersonName": "", "Contact": "", "Email": "", "Details": "", "PlaceType": ""}, "geometry": {"type": "Polygon", "coordinates": [[[172.49882687500008, 24.604355355000052], [172.52137715700007, 27.874146180000025], [176.03318294300004, 27.849926829000026], [176.01063266200003, 24.580136004000053], [172.49882687500008, 24.604355355000052]]]}}, {"type": "Feature", "properties": {"OBJECTID": 59, "PlaceNode": 57, "PlaceName": "", "PersonName": "", "Contact": "", "Email": "", "Details": "", "PlaceType": ""}, "geometry": {"type": "Polygon", "coordinates": [[[176.05907136200005, 27.873967639000057], [172.4261920990001, 27.901282520000052], [172.45041144900006, 31.122456104000037], [176.08329071200012, 31.095141222000052], [176.05907136200005, 27.873967639000057]]]}}, {"type": "Feature", "properties": {"OBJECTID": 60, "PlaceNode": 58, "PlaceName": "", "PersonName": "", "Contact": "", "Email": "", "Details": "", "PlaceType": ""}, "geometry": {"type": "Polygon", "coordinates": [[[172.45038817500006, 31.240457324000033], [172.45033049300002, 34.30345162400005], [176.21320048100006, 34.31121119200003], [176.10751006300006, 31.119360572000062], [172.45038817500006, 31.240457324000033]]]}}, {"type": "Feature", "properties": {"OBJECTID": 61, "PlaceNode": 59, "PlaceName": "E10 A", "PersonName": "I Love Geodesy", "Contact": "", "Email": "", "Details": "", "PlaceType": ""}, "geometry": {"type": "Polygon", "coordinates": [[[117.59916057900011, 14.859699781000074], [117.697870437, 21.233536280000067], [123.67382773500003, 21.140988269000047], [123.57511787800001, 14.767151770000055], [117.59916057900011, 14.859699781000074]]]}}, {"type": "Feature", "properties": {"OBJECTID": 62, "PlaceNode": 60, "PlaceName": "E50", "PersonName": "People in Motion Lab", "Contact": "", "Email": "", "Details": "", "PlaceType": "Lab"}, "geometry": {"type": "Polygon", "coordinates": [[[166.76406316300006, 21.098907148000023], [176.0866435680001, 21.21015512400004], [176.1641984790001, 14.711053519000075], [166.84161807500004, 14.599805543000059], [166.76406316300006, 21.098907148000023]]]}}, {"type": "Feature", "properties": {"OBJECTID": 63, "PlaceNode": 61, "PlaceName": "", "PersonName": "People in Motion Lab space", "Contact": "", "Email": "", "Details": "", "PlaceType": ""}, "geometry": {"type": "Polygon", "coordinates": [[[169.9890210200001, 24.502331342000048], [176.03629003600008, 24.488102474000073], [176.02859030100012, 21.21571524600006], [169.98132128500004, 21.229944114000034], [169.9890210200001, 24.502331342000048]]]}}, {"type": "Feature", "properties": {"OBJECTID": 64, "PlaceNode": 62, "PlaceName": "E44", "PersonName": "Design Lab", "Contact": "", "Email": "", "Details": "", "PlaceType": "Lab"}, "geometry": {"type": "Polygon", "coordinates": [[[83.78801201300007, 21.07570934900008], [89.77664014800007, 21.045915179000076], [89.74507390200006, 14.701099890000023], [83.75644576800005, 14.730894060000026], [83.78801201300007, 21.07570934900008]]]}}, {"type": "Feature", "properties": {"OBJECTID": 65, "PlaceNode": 63, "PlaceName": "", "PersonName": "", "Contact": "", "Email": "", "Details": "", "PlaceType": ""}, "geometry": {"type": "Polygon", "coordinates": [[[89.77664014800007, 21.045915179000076], [92.90502797900007, 21.045915179000076], [92.90502797900007, 14.669962836000025], [89.77664014800007, 14.669962836000025], [89.77664014800007, 21.045915179000076]]]}}, {"type": "Feature", "properties": {"OBJECTID": 66, "PlaceNode": 64, "PlaceName": "", "PersonName": "", "Contact": "", "Email": "", "Details": "", "PlaceType": ""}, "geometry": {"type": "Polygon", "coordinates": [[[92.90502797900007, 21.045915179000076], [97.85086017000003, 21.07570934900008], [97.86575671400004, 18.602882992000048], [92.91992452300008, 18.573088822000045], [92.90502797900007, 21.045915179000076]]]}}, {"type": "Feature", "properties": {"OBJECTID": 67, "PlaceNode": 65, "PlaceName": "", "PersonName": "", "Contact": "", "Email": "", "Details": "", "PlaceType": ""}, "geometry": {"type": "Polygon", "coordinates": [[[92.91992452300008, 18.573088822000045], [96.06201851700007, 18.59201709900003], [96.08492663000004, 14.78927033900004], [92.94283263600005, 14.770342062000054], [92.91992452300008, 18.573088822000045]]]}}, {"type": "Feature", "properties": {"OBJECTID": 68, "PlaceNode": 66, "PlaceName": "", "PersonName": "", "Contact": "", "Email": "", "Details": "", "PlaceType": ""}, "geometry": {"type": "Polygon", "coordinates": [[[96.08492663000004, 14.78927033900004], [96.06201851700007, 18.59201709900003], [99.11962822400005, 18.561800823000056], [99.16092234000007, 14.780458671000076], [96.08492663000004, 14.78927033900004]]]}}, {"type": "Feature", "properties": {"OBJECTID": 69, "PlaceNode": 67, "PlaceName": "E45-C, E45-D", "PersonName": "Dr. J. Hall", "Contact": "", "Email": "", "Details": "", "PlaceType": "Faculty"}, "geometry": {"type": "Polygon", "coordinates": [[[100.41315877500006, 21.07570934900008], [105.18022594700005, 21.105503519000024], [105.19532029400006, 18.690407967000056], [100.42825312200006, 18.660613797000053], [100.41315877500006, 21.07570934900008]]]}}, {"type": "Feature", "properties": {"OBJECTID": 70, "PlaceNode": 68, "PlaceName": "E44-B, E45-A, E45-B", "PersonName": "", "Contact": "", "Email": "", "Details": "", "PlaceType": ""}, "geometry": {"type": "Polygon", "coordinates": [[[97.85086017000003, 21.07570934900008], [100.42825312200006, 21.07570934900008], [100.42825312200006, 18.660613797000053], [97.85086017000003, 18.660613797000053], [97.85086017000003, 21.07570934900008]]]}}, {"type": "Feature", "properties": {"OBJECTID": 71, "PlaceNode": 69, "PlaceName": "", "PersonName": "", "Contact": "", "Email": "", "Details": "", "PlaceType": ""}, "geometry": {"type": "Polygon", "coordinates": [[[99.23912266200006, 18.54953493200003], [102.32356492100007, 18.565641680000056], [102.34732642100005, 14.813787798000021], [99.27616959900007, 14.810014719000037], [99.23912266200006, 18.54953493200003]]]}}, {"type": "Feature", "properties": {"OBJECTID": 72, "PlaceNode": 70, "PlaceName": "", "PersonName": "", "Contact": "", "Email": "", "Details": "", "PlaceType": ""}, "geometry": {"type": "Polygon", "coordinates": [[[102.32390357600008, 18.51216925800003], [105.32673671400005, 18.533894744000065], [105.35376470600005, 14.798164609000025], [102.35093156800008, 14.776439124000035], [102.32390357600008, 18.51216925800003]]]}}, {"type": "Feature", "properties": {"OBJECTID": 73, "PlaceNode": 71, "PlaceName": "", "PersonName": "", "Contact": "", "Email": "", "Details": "", "PlaceType": ""}, "geometry": {"type": "Polygon", "coordinates": [[[105.35376470600005, 14.798164609000025], [105.41921680700005, 18.39803017500003], [108.74904570400008, 18.337487832000022], [108.68359360300008, 14.737622265000027], [105.35376470600005, 14.798164609000025]]]}}, {"type": "Feature", "properties": {"OBJECTID": 74, "PlaceNode": 72, "PlaceName": "E46-A", "PersonName": "Dr. M. Afzal", "Contact": "", "Email": "", "Details": "", "PlaceType": "Faculty"}, "geometry": {"type": "Polygon", "coordinates": [[[105.34337556800006, 21.10406413900006], [108.77318673100007, 21.073804792000033], [108.74967865500008, 18.409231044000023], [105.38528697800007, 18.45859745300004], [105.34337556800006, 21.10406413900006]]]}}, {"type": "Feature", "properties": {"OBJECTID": 75, "PlaceNode": 73, "PlaceName": "", "PersonName": "", "Contact": "", "Email": "", "Details": "", "PlaceType": ""}, "geometry": {"type": "Polygon", "coordinates": [[[110.99623092700006, 18.306382573000064], [114.0993825170001, 18.31999288700007], [114.1147841510001, 14.808420345000059], [111.01163256100006, 14.794810031000054], [110.99623092700006, 18.306382573000064]]]}}, {"type": "Feature", "properties": {"OBJECTID": 76, "PlaceNode": 74, "PlaceName": "E46-B", "PersonName": "H.Xiao", "Contact": "", "Email": "", "Details": "Chemical Engineering", "PlaceType": "Faculty"}, "geometry": {"type": "Polygon", "coordinates": [[[108.68359360300008, 14.737622265000027], [108.77318673100007, 21.073804792000033], [114.04494126100008, 21.028445371000032], [114.07216188900009, 18.42887539900005], [110.94178967100004, 18.40165477100004], [111.01163256100006, 14.794810031000054], [108.68359360300008, 14.737622265000027]]]}}, {"type": "Feature", "properties": {"OBJECTID": 77, "PlaceNode": 75, "PlaceName": "E40", "PersonName": "Robotics and Mechanics Lab", "Contact": "", "Email": "", "Details": "", "PlaceType": "Lab"}, "geometry": {"type": "Polygon", "coordinates": [[[96.09678433900007, 34.40854668000003], [102.15769618700006, 34.42909214400004], [102.19133582500007, 24.50539888900005], [96.13042397700008, 24.48485342500004], [96.09678433900007, 34.40854668000003]]]}}, {"type": "Feature", "properties": {"OBJECTID": 78, "PlaceNode": 76, "PlaceName": "", "PersonName": "", "Contact": "", "Email": "", "Details": "", "PlaceType": ""}, "geometry": {"type": "Polygon", "coordinates": [[[104.96035799300006, 30.282496467000044], [102.42478721700007, 30.27890843800003], [102.32850863900006, 34.322608753000054], [104.91849014400009, 34.33161682200006], [104.96035799300006, 30.282496467000044]]]}}, {"type": "Feature", "properties": {"OBJECTID": 79, "PlaceNode": 77, "PlaceName": "", "PersonName": "", "Contact": "", "Email": "", "Details": "", "PlaceType": ""}, "geometry": {"type": "Polygon", "coordinates": [[[104.96906524800005, 34.28783351000004], [107.84878968500004, 34.32636482500004], [107.89470274000007, 30.273789212000054], [105.03001602900008, 30.282496467000044], [104.96906524800005, 34.28783351000004]]]}}, {"type": "Feature", "properties": {"OBJECTID": 80, "PlaceNode": 78, "PlaceName": "E9", "PersonName": "", "Contact": "", "Email": "", "Details": "", "PlaceType": ""}, "geometry": {"type": "Polygon", "coordinates": [[[117.60164521700005, 34.28946903800005], [120.64671255300004, 34.33938817400008], [120.54687428000011, 28.62364702700006], [117.62660478600003, 28.67356616400008], [117.60164521700005, 34.28946903800005]]]}}, {"type": "Feature", "properties": {"OBJECTID": 81, "PlaceNode": 79, "PlaceName": "E38", "PersonName": "", "Contact": "", "Email": "", "Details": "", "PlaceType": ""}, "geometry": {"type": "Polygon", "coordinates": [[[108.44148364100005, 24.55523739000006], [108.39156450500008, 26.926396381000075], [117.70148349100009, 26.85151767600007], [117.77636219600004, 24.704994800000065], [108.44148364100005, 24.55523739000006]]]}}, {"type": "Feature", "properties": {"OBJECTID": 82, "PlaceNode": 80, "PlaceName": "", "PersonName": "", "Contact": "", "Email": "", "Details": "", "PlaceType": ""}, "geometry": {"type": "Polygon", "coordinates": [[[80.72989527800007, 34.40367117000005], [84.03018473700007, 34.35341295500007], [84.01375282400005, 29.58815840300008], [80.71314254000004, 29.545377044000077], [80.72989527800007, 34.40367117000005]]]}}, {"type": "Feature", "properties": {"OBJECTID": 83, "PlaceNode": 81, "PlaceName": "", "PersonName": "", "Contact": "", "Email": "", "Details": "", "PlaceType": ""}, "geometry": {"type": "Polygon", "coordinates": [[[84.03018473700007, 34.35341295500007], [87.01217216600008, 34.370165694000036], [86.98895681900007, 30.58418062800007], [84.01724464500006, 30.600786414000027], [84.03018473700007, 34.35341295500007]]]}}, {"type": "Feature", "properties": {"OBJECTID": 84, "PlaceNode": 82, "PlaceName": "", "PersonName": "", "Contact": "", "Email": "", "Details": "", "PlaceType": ""}, "geometry": {"type": "Polygon", "coordinates": [[[87.01217216600008, 34.370165694000036], [90.01091233400007, 34.33666021700003], [90.01091233400007, 30.567294084000025], [86.98895681900007, 30.58418062800007], [87.01217216600008, 34.370165694000036]]]}}, {"type": "Feature", "properties": {"OBJECTID": 85, "PlaceNode": 83, "PlaceName": "E41-A", "PersonName": "", "Contact": "", "Email": "", "Details": "", "PlaceType": ""}, "geometry": {"type": "Polygon", "coordinates": [[[89.74286852000006, 24.63682470200007], [89.70936304400004, 27.93711416000008], [92.52382308900008, 30.95260706700003], [95.95813445500005, 30.86884337500004], [95.90787624000006, 24.56981374800006], [89.74286852000006, 24.63682470200007]]]}}, {"type": "Feature", "properties": {"OBJECTID": 86, "PlaceNode": 84, "PlaceName": "E41", "PersonName": "UNB Department of Mechanical Engineering", "Contact": "", "Email": "", "Details": "", "PlaceType": "Office"}, "geometry": {"type": "Polygon", "coordinates": [[[80.78015349300006, 24.65357744000005], [80.76466439600006, 29.54459244700007], [84.01375282400005, 29.58815840300008], [84.01724464500006, 30.600786414000027], [90.01091233400007, 30.567294084000025], [90.01091233400007, 34.33666021700003], [95.85761802500008, 34.33666021700003], [95.95813445500005, 30.86884337500004], [92.52382308900008, 30.95260706700003], [89.70936304400004, 27.93711416000008], [89.74286852000006, 24.63682470200007], [80.78015349300006, 24.65357744000005]]]}}, {"type": "Feature", "properties": {"OBJECTID": 87, "PlaceNode": 85, "PlaceName": "E43", "PersonName": "Mechanical Engineering Students Space", "Contact": "", "Email": "", "Details": "", "PlaceType": ""}, "geometry": {"type": "Polygon", "coordinates": [[[69.50820597600006, 34.342151786000045], [75.07044606900007, 34.414154894000035], [75.14244917700006, 24.567729874000065], [69.58020908400005, 24.585730651000063], [69.50820597600006, 34.342151786000045]]]}}, {"type": "Feature", "properties": {"OBJECTID": 88, "PlaceNode": 86, "PlaceName": "E42", "PersonName": "Mechatronics Lab", "Contact": "", "Email": "", "Details": "", "PlaceType": "Lab"}, "geometry": {"type": "Polygon", "coordinates": [[[75.14244917700006, 24.567729874000065], [75.17845073100005, 34.414154894000035], [80.59668460900008, 34.45015644800003], [80.70468927100006, 24.549729097000068], [75.14244917700006, 24.567729874000065]]]}}, {"type": "Feature", "properties": {"OBJECTID": 89, "PlaceNode": 87, "PlaceName": "E39", "PersonName": "", "Contact": "", "Email": "", "Details": "", "PlaceType": ""}, "geometry": {"type": "Polygon", "coordinates": [[[102.19133582500007, 24.50539888900005], [102.17195224900007, 30.223553856000024], [107.89470274000007, 30.273789212000054], [107.96099157900005, 28.937978515000054], [105.77743525700004, 28.913716778000037], [105.87448220500005, 24.570865871000024], [102.19133582500007, 24.50539888900005]]]}}, {"type": "Feature", "properties": {"OBJECTID": 90, "PlaceNode": 88, "PlaceName": "", "PersonName": "", "Contact": "", "Email": "", "Details": "", "PlaceType": ""}, "geometry": {"type": "Polygon", "coordinates": [[[105.87448220500005, 24.570865871000024], [105.78016893100005, 28.79138485800007], [107.96099157900005, 28.937978515000054], [107.86394463100004, 34.51817800500004], [117.47159244800002, 34.421131057000025], [117.62660478600003, 28.67356616400008], [120.54687428000011, 28.62364702700006], [120.62561824600004, 26.827207404000035], [108.39156450500008, 26.926396381000075], [108.44148364100005, 24.55523739000006], [105.87448220500005, 24.570865871000024]]]}}, {"type": "Feature", "properties": {"OBJECTID": 92, "PlaceNode": 90, "PlaceName": "E231", "PersonName": "Centre for Advanced Atlantic Studies", "Contact": "", "Email": "", "Details": "", "PlaceType": ""}, "geometry": {"type": "Polygon", "coordinates": [[[52.38878570900005, 34.051541314000076], [56.29477835200004, 34.09669729800004], [56.29477835200004, 24.297848701000078], [52.501675670000054, 24.230114724000032], [52.38878570900005, 34.051541314000076]]]}}, {"type": "Feature", "properties": {"OBJECTID": 94, "PlaceNode": 92, "PlaceName": "E211", "PersonName": "", "Contact": "", "Email": "", "Details": "", "PlaceType": "Classroom"}, "geometry": {"type": "Polygon", "coordinates": [[[30.436994081000023, 34.08025503600004], [43.58829178500008, 34.007995159000075], [43.80507141800007, 24.162586850000025], [30.49118898900008, 24.216781758000025], [30.436994081000023, 34.08025503600004]]]}}, {"type": "Feature", "properties": {"OBJECTID": 95, "PlaceNode": 93, "PlaceName": "E210", "PersonName": "Wireless TeleCommunications Lab", "Contact": "", "Email": "", "Details": "", "PlaceType": "Lab"}, "geometry": {"type": "Polygon", "coordinates": [[[24.02392995300005, 33.93573528100006], [30.436994081000023, 34.08025503600004], [30.49118898900008, 24.216781758000025], [23.825215290000074, 24.25291169700006], [24.02392995300005, 33.93573528100006]]]}}, {"type": "Feature", "properties": {"OBJECTID": 96, "PlaceNode": 94, "PlaceName": "E-Restroom (Female) - 2", "PersonName": "", "Contact": "", "Email": "", "Details": "", "PlaceType": "Facility,female"}, "geometry": {"type": "Polygon", "coordinates": [[[79.35372534300006, 21.179360114000076], [83.69140992900003, 21.17033937100007], [83.63823664800003, 17.868031340000073], [79.39124919400007, 17.91478502600006], [79.35372534300006, 21.179360114000076]]]}}, {"type": "Feature", "properties": {"OBJECTID": 97, "PlaceNode": 95, "PlaceName": "E217", "PersonName": "", "Contact": "", "Email": "", "Details": "", "PlaceType": ""}, "geometry": {"type": "Polygon", "coordinates": [[[61.73336702800003, 21.579027713000073], [64.19067357700004, 21.579027713000073], [64.22126245500004, 18.367195502000072], [61.69258185700005, 18.38758808700004], [61.73336702800003, 21.579027713000073]]]}}, {"type": "Feature", "properties": {"OBJECTID": 98, "PlaceNode": 96, "PlaceName": "E216", "PersonName": "", "Contact": "", "Email": "", "Details": "", "PlaceType": ""}, "geometry": {"type": "Polygon", "coordinates": [[[64.22126245500004, 18.367195502000072], [64.19067357700004, 21.579027713000073], [69.15626813800003, 21.54843883500007], [69.19705330900007, 18.367195502000072], [64.22126245500004, 18.367195502000072]]]}}, {"type": "Feature", "properties": {"OBJECTID": 99, "PlaceNode": 97, "PlaceName": "<steps>", "PersonName": "", "Contact": "", "Email": "", "Details": "", "PlaceType": ""}, "geometry": {"type": "Polygon", "coordinates": [[[69.75937885300004, 21.180862482000066], [77.40551080000006, 21.24353569400006], [77.46818401200005, 17.953192029000036], [69.66536903400004, 17.953192029000036], [69.75937885300004, 21.180862482000066]]]}}, {"type": "Feature", "properties": {"OBJECTID": 100, "PlaceNode": 98, "PlaceName": "E224", "PersonName": "", "Contact": "", "Email": "", "Details": "", "PlaceType": ""}, "geometry": {"type": "Polygon", "coordinates": [[[44.05137669900006, 17.98231422500004], [50.42820100000006, 17.94977940800004], [50.33059654700003, 8.156799231000036], [44.05137669900006, 8.09172959500006], [44.05137669900006, 17.98231422500004]]]}}, {"type": "Feature", "properties": {"OBJECTID": 101, "PlaceNode": 99, "PlaceName": "E225", "PersonName": "TME Office", "Contact": "", "Email": "", "Details": "", "PlaceType": "Office"}, "geometry": {"type": "Polygon", "coordinates": [[[43.98630706300003, 7.766381417000048], [50.29806172900004, 7.798916234000046], [50.27129372400003, 1.6988649250000663], [44.05137669900006, 1.6823704760000737], [43.98630706300003, 7.766381417000048]]]}}, {"type": "Feature", "properties": {"OBJECTID": 102, "PlaceNode": 100, "PlaceName": "E226", "PersonName": "Zhen Lei", "Contact": "", "Email": "", "Details": "", "PlaceType": "Faculty"}, "geometry": {"type": "Polygon", "coordinates": [[[50.52923375600005, 4.330348198000024], [56.102768182000034, 4.2949980850000316], [56.13811829500003, 0.6657198540000309], [53.15692546300005, 0.7246367080000482], [53.20405894600003, 1.7380066040000202], [50.49388364400005, 1.7615733460000342], [50.52923375600005, 4.330348198000024]]]}}, {"type": "Feature", "properties": {"OBJECTID": 103, "PlaceNode": 101, "PlaceName": "E227", "PersonName": "", "Contact": "", "Email": "", "Details": "", "PlaceType": ""}, "geometry": {"type": "Polygon", "coordinates": [[[56.102768182000034, 4.2949980850000316], [59.63777944600008, 4.2949980850000316], [59.75561315500005, 0.6539364830000522], [56.13811829500003, 0.6657198540000309], [56.102768182000034, 4.2949980850000316]]]}}, {"type": "Feature", "properties": {"OBJECTID": 104, "PlaceNode": 102, "PlaceName": "E229", "PersonName": "", "Contact": "", "Email": "", "Details": "", "PlaceType": ""}, "geometry": {"type": "Polygon", "coordinates": [[[59.907398596000064, 4.28889655200004], [63.73469271500005, 4.246606009000061], [63.79812852900005, 1.6774555370000712], [59.96026177400006, 1.7620366220000392], [59.907398596000064, 4.28889655200004]]]}}, {"type": "Feature", "properties": {"OBJECTID": 105, "PlaceNode": 103, "PlaceName": "E228", "PersonName": "RBC Innovation", "Contact": "", "Email": "", "Details": "", "PlaceType": ""}, "geometry": {"type": "Polygon", "coordinates": [[[63.73469271500005, 4.246606009000061], [68.77783993900005, 4.225460738000038], [68.87299366000008, 1.7197460790000605], [63.79812852900005, 1.6774555370000712], [63.73469271500005, 4.246606009000061]]]}}, {"type": "Feature", "properties": {"OBJECTID": 106, "PlaceNode": 104, "PlaceName": "", "PersonName": "", "Contact": "", "Email": "", "Details": "", "PlaceType": ""}, "geometry": {"type": "Polygon", "coordinates": [[[69.18803474900005, 2.750245949000032], [69.12737685700006, 5.965114256000049], [73.40809099100005, 6.017106735000027], [73.46874888300005, 2.776242188000026], [69.18803474900005, 2.750245949000032]]]}}, {"type": "Feature", "properties": {"OBJECTID": 107, "PlaceNode": 105, "PlaceName": "", "PersonName": "", "Contact": "", "Email": "", "Details": "", "PlaceType": ""}, "geometry": {"type": "Polygon", "coordinates": [[[78.99679949500006, 17.115094703000068], [82.88188067800007, 17.091548757000055], [82.83478878500006, 13.441927040000053], [79.06743733500008, 13.441927040000053], [78.99679949500006, 17.115094703000068]]]}}, {"type": "Feature", "properties": {"OBJECTID": 108, "PlaceNode": 106, "PlaceName": "", "PersonName": "", "Contact": "", "Email": "", "Details": "", "PlaceType": ""}, "geometry": {"type": "Polygon", "coordinates": [[[79.06743733500008, 13.441927040000053], [82.83478878500006, 13.441927040000053], [82.85833473200006, 9.768759376000048], [79.02034544200006, 9.839397216000066], [79.06743733500008, 13.441927040000053]]]}}, {"type": "Feature", "properties": {"OBJECTID": 109, "PlaceNode": 107, "PlaceName": "", "PersonName": "", "Contact": "", "Email": "", "Details": "", "PlaceType": ""}, "geometry": {"type": "Polygon", "coordinates": [[[79.02034544200006, 9.839397216000066], [82.85833473200006, 9.768759376000048], [82.90542662500008, 6.7548782160000655], [79.06743733500008, 6.778424163000068], [79.02034544200006, 9.839397216000066]]]}}, {"type": "Feature", "properties": {"OBJECTID": 110, "PlaceNode": 108, "PlaceName": "", "PersonName": "", "Contact": "", "Email": "", "Details": "", "PlaceType": ""}, "geometry": {"type": "Polygon", "coordinates": [[[79.13879475700008, 6.777986387000055], [82.90542662500008, 6.7548782160000655], [82.90542662500008, 2.7049754080000525], [79.06743733500008, 2.7285213540000655], [79.13879475700008, 6.777986387000055]]]}}, {"type": "Feature", "properties": {"OBJECTID": 111, "PlaceNode": 109, "PlaceName": "", "PersonName": "", "Contact": "", "Email": "", "Details": "", "PlaceType": ""}, "geometry": {"type": "Polygon", "coordinates": [[[52.905909336000036, 17.834474880000073], [56.08847620600005, 17.78812681900007], [56.05757749900005, 15.254432806000068], [52.95225739700004, 15.300780867000071], [52.905909336000036, 17.834474880000073]]]}}, {"type": "Feature", "properties": {"OBJECTID": 112, "PlaceNode": 110, "PlaceName": "", "PersonName": "", "Contact": "", "Email": "", "Details": "", "PlaceType": ""}, "geometry": {"type": "Polygon", "coordinates": [[[52.96770675100004, 13.246016820000023], [52.95225739700004, 15.300780867000071], [56.11937491300006, 15.192635391000067], [56.10392556000005, 12.010068520000061], [55.20786304300003, 12.010068520000061], [55.254211104000035, 13.215118112000027], [52.96770675100004, 13.246016820000023]]]}}, {"type": "Feature", "properties": {"OBJECTID": 113, "PlaceNode": 111, "PlaceName": "", "PersonName": "", "Contact": "", "Email": "", "Details": "", "PlaceType": ""}, "geometry": {"type": "Polygon", "coordinates": [[[52.983156104000045, 9.986203181000064], [53.014881297000045, 13.245379326000034], [55.254211104000035, 13.215118112000027], [55.209551746000045, 12.05397480800002], [56.10392556000005, 12.010068520000061], [56.16572297500005, 9.970753827000067], [52.983156104000045, 9.986203181000064]]]}}, {"type": "Feature", "properties": {"OBJECTID": 114, "PlaceNode": 112, "PlaceName": "", "PersonName": "", "Contact": "", "Email": "", "Details": "", "PlaceType": ""}, "geometry": {"type": "Polygon", "coordinates": [[[56.16572297500005, 9.970753827000067], [56.08847620600005, 17.78812681900007], [59.74271184600008, 17.788590300000067], [59.79771154500003, 9.951133148000054], [56.16572297500005, 9.970753827000067]]]}}, {"type": "Feature", "properties": {"OBJECTID": 115, "PlaceNode": 113, "PlaceName": "E218", "PersonName": "", "Contact": "", "Email": "", "Details": "", "PlaceType": ""}, "geometry": {"type": "Polygon", "coordinates": [[[60.07271004200004, 17.871089849000043], [64.33518673900005, 17.816090149000047], [64.44518613700006, 14.351109093000048], [60.15520959100007, 14.241109694000045], [60.07271004200004, 17.871089849000043]]]}}, {"type": "Feature", "properties": {"OBJECTID": 116, "PlaceNode": 114, "PlaceName": "", "PersonName": "", "Contact": "", "Email": "", "Details": "", "PlaceType": ""}, "geometry": {"type": "Polygon", "coordinates": [[[64.44518613700006, 14.351109093000048], [64.33518673900005, 17.816090149000047], [68.95516148100006, 17.76109045000004], [68.87094538100007, 14.193046263000042], [64.44518613700006, 14.351109093000048]]]}}, {"type": "Feature", "properties": {"OBJECTID": 117, "PlaceNode": 115, "PlaceName": "", "PersonName": "", "Contact": "", "Email": "", "Details": "", "PlaceType": ""}, "geometry": {"type": "Polygon", "coordinates": [[[59.907398596000064, 4.28889655200004], [59.90771094400003, 14.131110295000042], [68.87094538100007, 14.193046263000042], [68.95516148100006, 4.396163517000048], [59.907398596000064, 4.28889655200004]]]}}, {"type": "Feature", "properties": {"OBJECTID": 118, "PlaceNode": 116, "PlaceName": "", "PersonName": "", "Contact": "", "Email": "", "Details": "", "PlaceType": ""}, "geometry": {"type": "Polygon", "coordinates": [[[73.46874888300005, 2.776242188000026], [73.55794733900007, 6.036109659000033], [69.57918875000007, 5.970601850000037], [69.31518773900007, 17.104178181000066], [78.99679949500006, 17.115094703000068], [79.06743733500008, 2.7285213540000655], [73.46874888300005, 2.776242188000026]]]}}, {"type": "Feature", "properties": {"OBJECTID": 119, "PlaceNode": 117, "PlaceName": "E121", "PersonName": "", "Contact": "", "Email": "", "Details": "", "PlaceType": ""}, "geometry": {"type": "Polygon", "coordinates": [[[123.42647758600003, 38.708663847000025], [123.38150955000003, 42.35325169200007], [126.95100782700001, 42.42684959500008], [126.79608342100005, 38.63120164400004], [123.42647758600003, 38.708663847000025]]]}}, {"type": "Feature", "properties": {"OBJECTID": 120, "PlaceNode": 118, "PlaceName": "", "PersonName": "", "Contact": "", "Email": "", "Details": "", "PlaceType": ""}, "geometry": {"type": "Polygon", "coordinates": [[[123.1940909760001, 42.34938739200004], [123.23282207800003, 45.09929560200004], [126.8348145220001, 44.98310229800006], [126.95100782700001, 42.42684959500008], [123.1940909760001, 42.34938739200004]]]}}, {"type": "Feature", "properties": {"OBJECTID": 121, "PlaceNode": 119, "PlaceName": "E120", "PersonName": "Ali Ghorbani", "Contact": "", "Email": "", "Details": "", "PlaceType": "Faculty"}, "geometry": {"type": "Polygon", "coordinates": [[[123.23282207800003, 45.09929560200004], [123.23282207800003, 48.12032152300003], [126.8348145220001, 48.15905262500007], [126.8348145220001, 44.98310229800006], [123.23282207800003, 45.09929560200004]]]}}, {"type": "Feature", "properties": {"OBJECTID": 122, "PlaceNode": 120, "PlaceName": "E119", "PersonName": "", "Contact": "", "Email": "", "Details": "", "PlaceType": ""}, "geometry": {"type": "Polygon", "coordinates": [[[123.23282207800003, 48.12032152300003], [123.1940909760001, 51.56738956100003], [126.87354562400003, 51.41246515500006], [126.8348145220001, 48.15905262500007], [123.23282207800003, 48.12032152300003]]]}}, {"type": "Feature", "properties": {"OBJECTID": 123, "PlaceNode": 121, "PlaceName": "E118", "PersonName": "Rodney Cooper", "Contact": "", "Email": "", "Details": "", "PlaceType": "Faculty"}, "geometry": {"type": "Polygon", "coordinates": [[[123.1940909760001, 51.56738956100003], [123.23282207800003, 54.85953319300006], [126.757352319, 54.665877685000055], [126.87354562400003, 51.41246515500006], [123.1940909760001, 51.56738956100003]]]}}, {"type": "Feature", "properties": {"OBJECTID": 124, "PlaceNode": 122, "PlaceName": "E117", "PersonName": "", "Contact": "", "Email": "", "Details": "", "PlaceType": ""}, "geometry": {"type": "Polygon", "coordinates": [[[123.23282207800003, 54.85953319300006], [123.27155318000007, 58.15167682500004], [126.67989011600002, 58.07421462100007], [126.6330220320001, 54.67270901900008], [123.23282207800003, 54.85953319300006]]]}}, {"type": "Feature", "properties": {"OBJECTID": 125, "PlaceNode": 123, "PlaceName": "E116", "PersonName": "", "Contact": "", "Email": "", "Details": "", "PlaceType": ""}, "geometry": {"type": "Polygon", "coordinates": [[[123.27155318000007, 58.15167682500004], [123.27155318000007, 61.44382045600008], [126.757352319, 61.366358253000044], [126.67989011600002, 58.07421462100007], [123.27155318000007, 58.15167682500004]]]}}, {"type": "Feature", "properties": {"OBJECTID": 126, "PlaceNode": 124, "PlaceName": "E114", "PersonName": "Rongxing Lu", "Contact": "", "Email": "", "Details": "", "PlaceType": "Faculty"}, "geometry": {"type": "Polygon", "coordinates": [[[123.27155318000007, 61.44382045600008], [123.11662877300012, 64.81342629100004], [126.8348145220001, 64.73596408800006], [126.757352319, 61.366358253000044], [123.27155318000007, 61.44382045600008]]]}}, {"type": "Feature", "properties": {"OBJECTID": 127, "PlaceNode": 125, "PlaceName": "E113", "PersonName": "FCS Grad Lounge", "Contact": "", "Email": "", "Details": "", "PlaceType": "Facility,utensils"}, "geometry": {"type": "Polygon", "coordinates": [[[123.11662877300012, 64.81342629100004], [123.1940909760001, 67.91191441500007], [126.87354562400003, 67.87318331400007], [126.8348145220001, 64.73596408800006], [123.11662877300012, 64.81342629100004]]]}}, {"type": "Feature", "properties": {"OBJECTID": 128, "PlaceNode": 126, "PlaceName": "E112", "PersonName": "Surveying Engineering and Hydrography Lab", "Contact": "", "Email": "", "Details": "", "PlaceType": "Lab"}, "geometry": {"type": "Polygon", "coordinates": [[[123.1940909760001, 67.91191441500007], [123.27155318000007, 73.14061312400008], [129.04248731000007, 72.98568871800006], [129.00375620900002, 67.83445221200003], [123.1940909760001, 67.91191441500007]]]}}, {"type": "Feature", "properties": {"OBJECTID": 129, "PlaceNode": 127, "PlaceName": "", "PersonName": "", "Contact": "", "Email": "", "Details": "", "PlaceType": ""}, "geometry": {"type": "Polygon", "coordinates": [[[123.27155318000007, 73.14061312400008], [123.31028428100001, 79.45378267700005], [128.9650251070001, 79.29885827100009], [129.04248731000007, 72.98568871800006], [123.27155318000007, 73.14061312400008]]]}}, {"type": "Feature", "properties": {"OBJECTID": 130, "PlaceNode": 128, "PlaceName": "E111", "PersonName": "Ocean Mapping Group Space", "Contact": "", "Email": "", "Details": "", "PlaceType": ""}, "geometry": {"type": "Polygon", "coordinates": [[[129.00375620900002, 67.83445221200003], [128.9650251070001, 79.29885827100009], [136.59505211300007, 79.14393386400008], [136.63378321400012, 67.79572111000004], [129.00375620900002, 67.83445221200003]]]}}, {"type": "Feature", "properties": {"OBJECTID": 131, "PlaceNode": 129, "PlaceName": "E110", "PersonName": "", "Contact": "", "Email": "", "Details": "", "PlaceType": ""}, "geometry": {"type": "Polygon", "coordinates": [[[136.63378321400012, 67.79572111000004], [136.59505211300007, 79.14393386400008], [140.6230866740001, 79.33758937200008], [140.6230866740001, 75.03843710000007], [141.90121302500006, 74.96097489700003], [141.82375082200008, 69.49988957900007], [141.12659099400003, 67.79572111000004], [136.63378321400012, 67.79572111000004]]]}}, {"type": "Feature", "properties": {"OBJECTID": 132, "PlaceNode": 130, "PlaceName": "E-Restroom (Female) - 3", "PersonName": "", "Contact": "", "Email": "", "Details": "", "PlaceType": "Facility,female"}, "geometry": {"type": "Polygon", "coordinates": [[[111.96207152700003, 82.24242198800005], [111.84587822200007, 85.49583451900008], [111.84587822200007, 86.07680104200006], [112.73669355800007, 87.00634747900006], [115.29294626000001, 87.00634747900006], [115.17892776400004, 82.21757062900008], [111.96207152700003, 82.24242198800005]]]}}, {"type": "Feature", "properties": {"OBJECTID": 133, "PlaceNode": 131, "PlaceName": "E-Restroom (Male) - 2", "PersonName": "", "Contact": "", "Email": "", "Details": "", "PlaceType": "Facility,male"}, "geometry": {"type": "Polygon", "coordinates": [[[115.32368557200004, 82.21622787300004], [115.33630872300012, 83.25132625600008], [115.58877174300005, 83.33968831300007], [115.53827913900011, 86.96253265100006], [118.83292155100003, 87.05089470800004], [118.88341415500008, 82.15311211800008], [115.32368557200004, 82.21622787300004]]]}}, {"type": "Feature", "properties": {"OBJECTID": 134, "PlaceNode": 132, "PlaceName": "E102", "PersonName": "Eltaher Mohamed El-Shanta", "Contact": "", "Email": "", "Details": "", "PlaceType": "Faculty"}, "geometry": {"type": "Polygon", "coordinates": [[[122.12872891800009, 82.10644419900007], [122.17632519800009, 86.88193766700005], [124.58787007300009, 86.92953394800008], [125.22248714500006, 85.89828120500005], [125.0321020230001, 82.13817505300005], [122.12872891800009, 82.10644419900007]]]}}, {"type": "Feature", "properties": {"OBJECTID": 135, "PlaceNode": 133, "PlaceName": "E106", "PersonName": "", "Contact": "", "Email": "", "Details": "", "PlaceType": ""}, "geometry": {"type": "Polygon", "coordinates": [[[125.0321020230001, 82.13817505300005], [125.21211135400006, 85.69335932600006], [128.26864909100004, 85.73962693700008], [128.26864909100004, 81.99538621200008], [125.0321020230001, 82.13817505300005]]]}}, {"type": "Feature", "properties": {"OBJECTID": 136, "PlaceNode": 134, "PlaceName": "E107", "PersonName": "", "Contact": "", "Email": "", "Details": "", "PlaceType": ""}, "geometry": {"type": "Polygon", "coordinates": [[[128.26864909100004, 81.99538621200008], [128.36384165200002, 85.75549236400008], [131.33067646400002, 85.69203065700003], [131.4258690250001, 81.96365535800004], [128.26864909100004, 81.99538621200008]]]}}, {"type": "Feature", "properties": {"OBJECTID": 137, "PlaceNode": 135, "PlaceName": "E108", "PersonName": "John Dedarek", "Contact": "", "Email": "", "Details": "", "PlaceType": "Faculty"}, "geometry": {"type": "Polygon", "coordinates": [[[131.4258690250001, 81.96365535800004], [131.33067646400002, 85.69203065700003], [134.4085692640001, 85.72376151000003], [134.4878963980001, 81.96365535800004], [131.4258690250001, 81.96365535800004]]]}}, {"type": "Feature", "properties": {"OBJECTID": 138, "PlaceNode": 136, "PlaceName": "E109", "PersonName": "", "Contact": "", "Email": "", "Details": "", "PlaceType": ""}, "geometry": {"type": "Polygon", "coordinates": [[[134.48692093700004, 82.00989220500009], [134.40927368500002, 85.69037195000004], [137.54992377100007, 85.69203065700003], [137.59752005200005, 81.99538621200008], [134.48692093700004, 82.00989220500009]]]}}, {"type": "Feature", "properties": {"OBJECTID": 139, "PlaceNode": 137, "PlaceName": "E109-A", "PersonName": "", "Contact": "", "Email": "", "Details": "", "PlaceType": ""}, "geometry": {"type": "Polygon", "coordinates": [[[137.59752005200005, 81.99538621200008], [137.62925090500005, 85.80308864500006], [137.69271261200004, 85.78722321800007], [140.0295383360001, 85.83349332600005], [140.78647083900012, 84.53385450000007], [140.70714370500002, 82.01125163800003], [137.59752005200005, 81.99538621200008]]]}}, {"type": "Feature", "properties": {"OBJECTID": 140, "PlaceNode": 138, "PlaceName": "E138", "PersonName": "", "Contact": "", "Email": "", "Details": "", "PlaceType": ""}, "geometry": {"type": "Polygon", "coordinates": [[[111.78194365100006, 82.11717379100008], [102.56889904000008, 82.19087814800008], [102.45834250500008, 85.91294817100004], [111.65296102600007, 85.76553945700005], [111.78194365100006, 82.11717379100008]]]}}, {"type": "Feature", "properties": {"OBJECTID": 141, "PlaceNode": 139, "PlaceName": "E137", "PersonName": "Computer Communications Research Laboratory", "Contact": "", "Email": "", "Details": "", "PlaceType": "Lab"}, "geometry": {"type": "Polygon", "coordinates": [[[102.56889904000008, 82.19087814800008], [96.08291563400007, 82.09874770200008], [96.13819390200007, 84.43886103300008], [96.93051573800005, 85.94980034900004], [102.45834250500008, 85.91294817100004], [102.56889904000008, 82.19087814800008]]]}}, {"type": "Feature", "properties": {"OBJECTID": 142, "PlaceNode": 140, "PlaceName": "E135", "PersonName": "", "Contact": "", "Email": "", "Details": "", "PlaceType": ""}, "geometry": {"type": "Polygon", "coordinates": [[[96.38931839600008, 79.26636290300007], [100.17965967200007, 79.37784352800008], [100.26884417300005, 67.82845069800004], [96.03258039300005, 67.78385844800005], [95.05155088600009, 69.43377170900004], [95.14073538700006, 74.94091462300008], [96.30013389500004, 74.96321074800005], [96.38931839600008, 79.26636290300007]]]}}, {"type": "Feature", "properties": {"OBJECTID": 143, "PlaceNode": 141, "PlaceName": "E134", "PersonName": "Natural Language Processing Research Lab", "Contact": "", "Email": "", "Details": "", "PlaceType": "Lab"}, "geometry": {"type": "Polygon", "coordinates": [[[100.17965967200007, 79.37784352800008], [106.37798246500006, 79.31095515300007], [106.35568634000003, 72.84507885800008], [100.35802867300004, 72.75589435700005], [100.17965967200007, 79.37784352800008]]]}}, {"type": "Feature", "properties": {"OBJECTID": 144, "PlaceNode": 142, "PlaceName": "", "PersonName": "", "Contact": "", "Email": "", "Details": "", "PlaceType": ""}, "geometry": {"type": "Polygon", "coordinates": [[[100.35802867300004, 72.75589435700005], [103.21295913400007, 72.79834685500003], [103.30111719400008, 67.78385844800005], [100.42491704900004, 67.80615457300007], [100.35802867300004, 72.75589435700005]]]}}, {"type": "Feature", "properties": {"OBJECTID": 145, "PlaceNode": 143, "PlaceName": "", "PersonName": "", "Contact": "", "Email": "", "Details": "", "PlaceType": ""}, "geometry": {"type": "Polygon", "coordinates": [[[103.34504897300008, 72.80031101600008], [106.35568634000003, 72.84507885800008], [106.48946309100006, 67.96222744900007], [103.30111719400008, 67.78385844800005], [103.34504897300008, 72.80031101600008]]]}}, {"type": "Feature", "properties": {"OBJECTID": 146, "PlaceNode": 144, "PlaceName": "E131", "PersonName": "", "Contact": "", "Email": "", "Details": "", "PlaceType": ""}, "geometry": {"type": "Polygon", "coordinates": [[[106.37798246500006, 79.31095515300007], [110.52506174400008, 79.28865902800004], [110.54735786900005, 68.18518870000008], [106.48946309100006, 67.96222744900007], [106.37798246500006, 79.31095515300007]]]}}, {"type": "Feature", "properties": {"OBJECTID": 147, "PlaceNode": 145, "PlaceName": "E141", "PersonName": "", "Contact": "", "Email": "", "Details": "", "PlaceType": ""}, "geometry": {"type": "Polygon", "coordinates": [[[110.52506174400008, 79.28865902800004], [115.62189225100008, 79.30286484500004], [115.61824140500005, 74.88105357600006], [116.9999201920001, 74.82427403600008], [116.9999201920001, 71.40570472100006], [110.54089115400006, 71.40561255400007], [110.52506174400008, 79.28865902800004]]]}}, {"type": "Feature", "properties": {"OBJECTID": 148, "PlaceNode": 146, "PlaceName": "", "PersonName": "", "Contact": "", "Email": "", "Details": "", "PlaceType": ""}, "geometry": {"type": "Polygon", "coordinates": [[[110.54735786900005, 68.18518870000008], [110.54089115400006, 71.40561255400007], [116.9999201920001, 71.40570472100006], [116.9999201920001, 68.01363594300005], [110.54735786900005, 68.18518870000008]]]}}, {"type": "Feature", "properties": {"OBJECTID": 149, "PlaceNode": 147, "PlaceName": "E128", "PersonName": "Information Security Centre of Excellence", "Contact": "", "Email": "", "Details": "", "PlaceType": ""}, "geometry": {"type": "Polygon", "coordinates": [[[110.06537626500005, 68.15870619400005], [120.74029092700005, 67.97203923800004], [120.66461081600005, 60.78242872200008], [109.99371520800008, 60.82026877700008], [110.06537626500005, 68.15870619400005]]]}}, {"type": "Feature", "properties": {"OBJECTID": 150, "PlaceNode": 148, "PlaceName": "E126", "PersonName": "FCS BoardRoom", "Contact": "", "Email": "", "Details": "", "PlaceType": ""}, "geometry": {"type": "Polygon", "coordinates": [[[110.10777067900005, 60.81986432500008], [120.66461081600005, 60.78242872200008], [120.74042600900009, 55.52345440400006], [110.14507543000008, 55.560501084000066], [110.10777067900005, 60.81986432500008]]]}}, {"type": "Feature", "properties": {"OBJECTID": 151, "PlaceNode": 149, "PlaceName": "", "PersonName": "", "Contact": "", "Email": "", "Details": "", "PlaceType": ""}, "geometry": {"type": "Polygon", "coordinates": [[[110.14507543000008, 55.560501084000066], [115.10232669100003, 55.54316803800003], [115.13996273500004, 51.85217566000006], [110.06939531900008, 51.89001571500006], [110.14507543000008, 55.560501084000066]]]}}, {"type": "Feature", "properties": {"OBJECTID": 152, "PlaceNode": 150, "PlaceName": "", "PersonName": "", "Contact": "", "Email": "", "Details": "", "PlaceType": ""}, "geometry": {"type": "Polygon", "coordinates": [[[110.06939531900008, 51.89001571500006], [115.13996273500004, 51.85217566000006], [115.17780279100009, 48.25737040200005], [110.10723537400008, 48.29521045800004], [110.06939531900008, 51.89001571500006]]]}}, {"type": "Feature", "properties": {"OBJECTID": 153, "PlaceNode": 151, "PlaceName": "E125", "PersonName": "Canadian Institute of Cyber Security", "Contact": "", "Email": "", "Details": "", "PlaceType": ""}, "geometry": {"type": "Polygon", "coordinates": [[[115.10232669100003, 55.54316803800003], [120.74042600900009, 55.52345440400006], [120.7580534440001, 48.18863535200006], [115.17780279100009, 48.25737040200005], [115.10232669100003, 55.54316803800003]]]}}, {"type": "Feature", "properties": {"OBJECTID": 154, "PlaceNode": 152, "PlaceName": "", "PersonName": "", "Contact": "", "Email": "", "Details": "", "PlaceType": ""}, "geometry": {"type": "Polygon", "coordinates": [[[110.10723537400008, 48.29521045800004], [114.08050229600008, 48.26555921200003], [114.0426011300001, 45.41936625100004], [110.18291548500008, 45.41936625100004], [110.10723537400008, 48.29521045800004]]]}}, {"type": "Feature", "properties": {"OBJECTID": 155, "PlaceNode": 153, "PlaceName": "", "PersonName": "", "Contact": "", "Email": "", "Details": "", "PlaceType": ""}, "geometry": {"type": "Polygon", "coordinates": [[[110.18291548500008, 45.41936625100004], [114.0426011300001, 45.41936625100004], [114.15612129600004, 42.467841934000035], [110.14507543000008, 42.467841934000035], [110.18291548500008, 45.41936625100004]]]}}, {"type": "Feature", "properties": {"OBJECTID": 156, "PlaceNode": 154, "PlaceName": "E124", "PersonName": "", "Contact": "", "Email": "", "Details": "", "PlaceType": ""}, "geometry": {"type": "Polygon", "coordinates": [[[114.15612129600004, 42.467841934000035], [114.08050229600008, 48.26555921200003], [120.76268348500003, 48.13770491000008], [120.74029092700005, 42.50568199000003], [114.15612129600004, 42.467841934000035]]]}}, {"type": "Feature", "properties": {"OBJECTID": 157, "PlaceNode": 155, "PlaceName": "", "PersonName": "", "Contact": "", "Email": "", "Details": "", "PlaceType": ""}, "geometry": {"type": "Polygon", "coordinates": [[[110.25859559600008, 42.467841934000035], [116.31228082000007, 42.48023365600005], [116.35084450700003, 38.267595791000076], [110.22075554000008, 38.34327590100003], [110.25859559600008, 42.467841934000035]]]}}, {"type": "Feature", "properties": {"OBJECTID": 158, "PlaceNode": 156, "PlaceName": "E122 / E123", "PersonName": "", "Contact": "", "Email": "", "Details": "", "PlaceType": ""}, "geometry": {"type": "Polygon", "coordinates": [[[116.35084450700003, 38.267595791000076], [116.31228082000007, 42.48023365600005], [120.73920360500006, 42.50567574100006], [120.70245087100011, 38.267595791000076], [116.35084450700003, 38.267595791000076]]]}}, {"type": "Feature", "properties": {"OBJECTID": 159, "PlaceNode": 157, "PlaceName": "", "PersonName": "", "Contact": "", "Email": "", "Details": "", "PlaceType": ""}, "geometry": {"type": "Polygon", "coordinates": [[[17.01915441400007, 31.119212281000046], [20.792670308000027, 31.29073573100004], [20.878432033000024, 27.302815525000028], [17.01915441400007, 27.302815525000028], [17.01915441400007, 31.119212281000046]]]}}, {"type": "Feature", "properties": {"OBJECTID": 160, "PlaceNode": 158, "PlaceName": "E205", "PersonName": "Canadian Pacific Foudnation", "Contact": "", "Email": "", "Details": "", "PlaceType": ""}, "geometry": {"type": "Polygon", "coordinates": [[[4.369299998000031, 23.915227393000066], [12.302259547000062, 24.043869980000068], [12.130736097000067, 19.54137942500006], [4.326419135000037, 19.54137942500006], [4.369299998000031, 23.915227393000066]]]}}, {"type": "Feature", "properties": {"OBJECTID": 161, "PlaceNode": 159, "PlaceName": "E201", "PersonName": "", "Contact": "", "Email": "", "Details": "", "PlaceType": ""}, "geometry": {"type": "Polygon", "coordinates": [[[4.326419135000037, 19.54137942500006], [12.130736097000067, 19.54137942500006], [12.17361696000006, 15.03888887000005], [4.283538273000033, 15.03888887000005], [4.326419135000037, 19.54137942500006]]]}}, {"type": "Feature", "properties": {"OBJECTID": 162, "PlaceNode": 160, "PlaceName": "", "PersonName": "", "Contact": "", "Email": "", "Details": "", "PlaceType": ""}, "geometry": {"type": "Polygon", "coordinates": [[[4.283538273000033, 15.03888887000005], [12.17361696000006, 15.03888887000005], [12.17361696000006, 5.733741723000037], [4.369299998000031, 5.647979998000039], [4.283538273000033, 15.03888887000005]]]}}, {"type": "Feature", "properties": {"OBJECTID": 163, "PlaceNode": 161, "PlaceName": "E200", "PersonName": "Circuits Lab", "Contact": "", "Email": "", "Details": "", "PlaceType": "Lab"}, "geometry": {"type": "Polygon", "coordinates": [[[15.389681642000028, 1.35989375500003], [15.432562505000021, 3.07512825200007], [14.446302669000033, 3.032247390000066], [14.317660081000042, 19.67002201200006], [24.866352239000037, 19.67002201200006], [24.866352239000037, 1.2741320300000325], [15.389681642000028, 1.35989375500003]]]}}, {"type": "Feature", "properties": {"OBJECTID": 164, "PlaceNode": 162, "PlaceName": "Steps1", "PersonName": "B,C,D", "Contact": "", "Email": "", "Details": "", "PlaceType": ""}, "geometry": {"type": "Polygon", "coordinates": [[[118.88341415500008, 82.15311211800008], [118.83292155100003, 87.05089470800004], [118.98262161500008, 87.17341377800005], [119.47459882200008, 88.53007819600003], [121.56177484900002, 88.55989499700007], [122.17632519800009, 86.88193766700005], [122.12872891800009, 82.10644419900007], [118.88341415500008, 82.15311211800008]]]}}, {"type": "Feature", "properties": {"OBJECTID": 165, "PlaceNode": 163, "PlaceName": "Steps6", "PersonName": "B,C,D", "Contact": "", "Email": "", "Details": "", "PlaceType": ""}, "geometry": {"type": "Polygon", "coordinates": [[[163.94601520700007, 14.790421000000038], [163.91669351200005, 21.051738691000025], [166.76406316300006, 21.098907148000023], [166.83939781100003, 14.785863648000031], [163.94601520700007, 14.790421000000038]]]}}, {"type": "Feature", "properties": {"OBJECTID": 166, "PlaceNode": 164, "PlaceName": "Lift3", "PersonName": "B,C,D", "Contact": "", "Email": "", "Details": "", "PlaceType": ""}, "geometry": {"type": "Polygon", "coordinates": [[[161.3523695660001, 17.85891669500006], [161.33830218800006, 21.030071537000026], [163.91669351200005, 21.051738691000025], [163.8650005730001, 17.842221472000062], [161.3523695660001, 17.85891669500006]]]}}, {"type": "Feature", "properties": {"OBJECTID": 167, "PlaceNode": 165, "PlaceName": "Steps5", "PersonName": "B,C,D", "Contact": "", "Email": "", "Details": "", "PlaceType": ""}, "geometry": {"type": "Polygon", "coordinates": [[[114.48082268700011, 21.129200894000064], [117.61158672900001, 21.159017694000056], [117.59916057900011, 14.859699781000074], [114.49573108700008, 14.793130809000047], [114.48082268700011, 21.129200894000064]]]}}, {"type": "Feature", "properties": {"OBJECTID": 168, "PlaceNode": 166, "PlaceName": "Lift2", "PersonName": "B,C,D", "Contact": "", "Email": "", "Details": "", "PlaceType": ""}, "geometry": {"type": "Polygon", "coordinates": [[[117.80270627100003, 26.75981162900007], [120.60056727400001, 26.75981162900007], [120.63329613000008, 24.632435997000073], [117.82545310900002, 24.65572916800005], [117.80270627100003, 26.75981162900007]]]}}, {"type": "Feature", "properties": {"OBJECTID": 169, "PlaceNode": 167, "PlaceName": "208", "PersonName": "Antenna Lab", "Contact": "", "Email": "", "Details": "", "PlaceType": "Lab"}, "geometry": {"type": "Polygon", "coordinates": [[[5.143070647000059, 31.244247383000072], [17.01915441400007, 31.119212281000046], [17.01915441400007, 27.302815525000028], [20.878432033000024, 27.302815525000028], [21.09616121600004, 24.08843987700004], [5.194366758000058, 24.24232821100003], [5.143070647000059, 31.244247383000072]]]}}, {"type": "Feature", "properties": {"OBJECTID": 170, "PlaceNode": 168, "PlaceName": "<steps>", "PersonName": "", "Contact": "", "Email": "", "Details": "", "PlaceType": ""}, "geometry": {"type": "Polygon", "coordinates": [[[20.792670308000027, 31.29073573100004], [23.96972489500007, 31.29447063400005], [23.825215290000074, 24.25291169700006], [21.083821388000047, 24.270615012000064], [20.792670308000027, 31.29073573100004]]]}}, {"type": "Feature", "properties": {"OBJECTID": 171, "PlaceNode": 169, "PlaceName": "Steps3", "PersonName": "B,C,D", "Contact": "", "Email": "", "Details": "", "PlaceType": ""}, "geometry": {"type": "Polygon", "coordinates": [[[140.6230866740001, 75.03843710000007], [140.7155341250001, 79.47806646300006], [139.6052425470001, 79.42642499400006], [139.60525718300005, 82.00562976800006], [140.713605883, 82.21674888800004], [142.70373067100002, 82.24088504000008], [143.63327710800002, 80.76910318100005], [143.68491857700008, 76.68942715100007], [142.8586550770001, 74.95943794900006], [140.6230866740001, 75.03843710000007]]]}}, {"type": "Feature", "properties": {"OBJECTID": 172, "PlaceNode": 170, "PlaceName": "Steps4", "PersonName": "B,C,D", "Contact": "", "Email": "", "Details": "", "PlaceType": ""}, "geometry": {"type": "Polygon", "coordinates": [[[96.30013389500004, 74.96321074800005], [95.07208366000003, 74.90610583700004], [94.00052318300004, 74.93192657100008], [93.25172188700003, 76.37788769500008], [93.34209445700009, 80.79323327200007], [94.20708905800007, 82.20046329500008], [97.48546691000007, 82.11867030500008], [97.51214305700006, 79.43764471800006], [96.32438927600003, 79.36018251500008], [96.30013389500004, 74.96321074800005]]]}}, {"type": "Feature", "properties": {"OBJECTID": 173, "PlaceNode": 171, "PlaceName": "", "PersonName": "", "Contact": "", "Email": "", "Details": "", "PlaceType": ""}, "geometry": {"type": "Polygon", "coordinates": [[[115.62189225100008, 79.30286484500004], [117.09622451400003, 79.31452147900006], [117.06328036000002, 76.48132432800008], [120.79806515300004, 76.41216164600007], [120.83448384000008, 74.75670935300008], [115.64839278900001, 74.98327726000008], [115.62189225100008, 79.30286484500004]]]}}, {"type": "Feature", "properties": {"OBJECTID": 174, "PlaceNode": 172, "PlaceName": "Lift1", "PersonName": "B,C,D", "Contact": "", "Email": "", "Details": "", "PlaceType": ""}, "geometry": {"type": "Polygon", "coordinates": [[[117.06328036000002, 76.48132432800008], [117.14932981400011, 79.38196410100005], [119.91995297800008, 79.36973176900005], [119.93382360100009, 76.47066675000008], [117.06328036000002, 76.48132432800008]]]}}, {"type": "Feature", "properties": {"OBJECTID": 175, "PlaceNode": 173, "PlaceName": "E133", "PersonName": "", "Contact": "", "Email": "", "Details": "", "PlaceType": ""}, "geometry": {"type": "Polygon", "coordinates": [[[117.10477796900011, 74.79713619000006], [120.83448384000008, 74.75670935300008], [120.84509577600011, 73.35855241800004], [117.11676616700004, 73.35855241800004], [117.10477796900011, 74.79713619000006]]]}}, {"type": "Feature", "properties": {"OBJECTID": 176, "PlaceNode": 174, "PlaceName": "<steps>", "PersonName": "", "Contact": "", "Email": "", "Details": "", "PlaceType": ""}, "geometry": {"type": "Polygon", "coordinates": [[[12.28919548500005, 5.480760004000047], [14.173186925000039, 5.550537465000048], [14.446302669000033, 3.032247390000066], [15.432562505000021, 3.07512825200007], [15.389681642000028, 1.35989375500003], [12.254306755000073, 1.3987785510000208], [12.28919548500005, 5.480760004000047]]]}}, {"type": "Feature", "properties": {"OBJECTID": 177, "PlaceNode": 175, "PlaceName": "", "PersonName": "", "Contact": "", "Email": "", "Details": "", "PlaceType": ""}, "geometry": {"type": "Polygon", "coordinates": [[[14.258121904000063, 21.46366632200005], [15.498958679000054, 21.494687241000065], [15.542070083000056, 19.67002201200006], [14.317660081000042, 19.67002201200006], [14.258121904000063, 21.46366632200005]]]}}, {"type": "Feature", "properties": {"OBJECTID": 178, "PlaceNode": 176, "PlaceName": "<steps>", "PersonName": "", "Contact": "", "Email": "", "Details": "", "PlaceType": ""}, "geometry": {"type": "Polygon", "coordinates": [[[15.498958679000054, 21.494687241000065], [24.744472225000038, 21.45979851100003], [24.866352239000037, 19.67002201200006], [15.542070083000056, 19.67002201200006], [15.498958679000054, 21.494687241000065]]]}}, {"type": "Feature", "properties": {"OBJECTID": 179, "PlaceNode": 177, "PlaceName": "<steps>", "PersonName": "", "Contact": "", "Email": "", "Details": "", "PlaceType": ""}, "geometry": {"type": "Polygon", "coordinates": [[[52.80915136400006, 9.836010895000072], [58.44867640000007, 9.823561612000049], [58.47357496500007, 9.674170221000054], [57.56477733300005, 9.649271655000064], [57.58967589800005, 9.387836720000053], [58.02540079000005, 9.412735285000053], [58.06274863800007, 9.225996046000034], [58.510922813000036, 9.275793176000036], [58.56071994400003, 9.089053937000074], [58.324183574000074, 9.064155371000027], [58.24948787800008, 8.60353191400003], [57.51498020200006, 8.57863334800004], [57.51498020200006, 6.922878757000035], [52.921194908000075, 6.9353280400000585], [52.88384706000005, 8.454140522000046], [52.60996284200007, 8.566184066000062], [51.86300588300003, 8.553734783000039], [51.70116520900007, 9.225996046000034], [52.64731068900005, 9.338039589000061], [52.80915136400006, 9.836010895000072]]]}}, {"type": "Feature", "properties": {"OBJECTID": 180, "PlaceNode": 178, "PlaceName": "E132", "PersonName": "", "Contact": "", "Email": "", "Details": "", "PlaceType": ""}, "geometry": {"type": "Polygon", "coordinates": [[[117.1483504580001, 73.20916102600006], [120.65028755700007, 73.22345464700004], [120.67887479800004, 68.22068736400007], [117.09044348600003, 68.03586231600008], [117.1483504580001, 73.20916102600006]]]}}, {"type": "Feature", "properties": {"OBJECTID": 181, "PlaceNode": 179, "PlaceName": "", "PersonName": "", "Contact": "", "Email": "", "Details": "", "PlaceType": ""}, "geometry": {"type": "Polygon", "coordinates": [[[43.75700894700003, 26.34542407400005], [46.60782545300003, 26.320116394000024], [46.579538780000064, 24.396622643000057], [43.80180326200008, 24.31101558100005], [43.75700894700003, 26.34542407400005]]]}}, {"type": "Feature", "properties": {"OBJECTID": 182, "PlaceNode": 180, "PlaceName": "E212", "PersonName": "CAS Accelerating Java", "Contact": "", "Email": "", "Details": "", "PlaceType": ""}, "geometry": {"type": "Polygon", "coordinates": [[[43.75323268200003, 26.51692944100006], [43.80744484500008, 33.816084688000046], [52.208586669000056, 33.900944706000075], [52.50007083300005, 24.36973555800006], [46.579538780000064, 24.396622643000057], [46.579538780000064, 26.48983643100007], [43.75323268200003, 26.51692944100006]]]}}, {"type": "Feature", "properties": {"OBJECTID": 183, "PlaceNode": 181, "PlaceName": "", "PersonName": "", "Contact": "", "Email": "", "Details": "", "PlaceType": ""}, "geometry": {"type": "Polygon", "coordinates": [[[56.29477835200004, 28.83763027400005], [59.93084834500007, 28.894203619000052], [59.987421691000065, 24.28347595200006], [56.29477835200004, 24.297848701000078], [56.29477835200004, 28.83763027400005]]]}}, {"type": "Feature", "properties": {"OBJECTID": 184, "PlaceNode": 182, "PlaceName": "E214", "PersonName": "ClassRoom", "Contact": "", "Email": "", "Details": "", "PlaceType": "Classroom"}, "geometry": {"type": "Polygon", "coordinates": [[[56.29477835200004, 28.83763027400005], [56.29477835200004, 34.09669729800004], [69.18059035300007, 34.098951416000034], [69.03915698900005, 24.70777604400007], [61.54318869500008, 24.764349390000064], [61.51490202200006, 24.226902606000067], [59.987421691000065, 24.28347595200006], [59.93084834500007, 28.894203619000052], [56.29477835200004, 28.83763027400005]]]}}]}