{"type": "FeatureCollection", "features": [{"type": "Feature", "properties": {"OBJECTID": 1, "PlaceNode": 59}, "geometry": {"type": "Point", "coordinates": [119.830744073, 21.20050505100005]}}, {"type": "Feature", "properties": {"OBJECTID": 2, "PlaceNode": 1}, "geometry": {"type": "Point", "coordinates": [123.83695414500005, 11.445265423000023]}}, {"type": "Feature", "properties": {"OBJECTID": 3, "PlaceNode": 2}, "geometry": {"type": "Point", "coordinates": [121.84827781100012, 6.031013792000067]}}, {"type": "Feature", "properties": {"OBJECTID": 4, "PlaceNode": 30}, "geometry": {"type": "Point", "coordinates": [123.8502408600001, 6.700613784000041]}}, {"type": "Feature", "properties": {"OBJECTID": 5, "PlaceNode": 3}, "geometry": {"type": "Point", "coordinates": [124.44516970500001, 5.886385262000033]}}, {"type": "Feature", "properties": {"OBJECTID": 6, "PlaceNode": 4}, "geometry": {"type": "Point", "coordinates": [127.51115248100007, 5.856540838000058]}}, {"type": "Feature", "properties": {"OBJECTID": 7, "PlaceNode": 5}, "geometry": {"type": "Point", "coordinates": [130.6204437250001, 5.786751657000025]}}, {"type": "Feature", "properties": {"OBJECTID": 8, "PlaceNode": 6}, "geometry": {"type": "Point", "coordinates": [133.71649861700007, 5.779249873000026]}}, {"type": "Feature", "properties": {"OBJECTID": 9, "PlaceNode": 7}, "geometry": {"type": "Point", "coordinates": [136.7738759340001, 5.791626147000045]}}, {"type": "Feature", "properties": {"OBJECTID": 10, "PlaceNode": 8}, "geometry": {"type": "Point", "coordinates": [139.8424692430001, 5.716962476000049]}}, {"type": "Feature", "properties": {"OBJECTID": 11, "PlaceNode": 9}, "geometry": {"type": "Point", "coordinates": [142.91187718800006, 5.7021879150000245]}}, {"type": "Feature", "properties": {"OBJECTID": 12, "PlaceNode": 10}, "geometry": {"type": "Point", "coordinates": [146.07379101300012, 5.69217320100006]}}, {"type": "Feature", "properties": {"OBJECTID": 13, "PlaceNode": 11}, "geometry": {"type": "Point", "coordinates": [149.0772325370001, 5.6591762590000485]}}, {"type": "Feature", "properties": {"OBJECTID": 14, "PlaceNode": 12}, "geometry": {"type": "Point", "coordinates": [152.1338784940001, 5.636090730000035]}}, {"type": "Feature", "properties": {"OBJECTID": 15, "PlaceNode": 13}, "geometry": {"type": "Point", "coordinates": [155.25664100900008, 5.615451474000054]}}, {"type": "Feature", "properties": {"OBJECTID": 16, "PlaceNode": 26}, "geometry": {"type": "Point", "coordinates": [143.16381656700003, 8.128501352000058]}}, {"type": "Feature", "properties": {"OBJECTID": 17, "PlaceNode": 27}, "geometry": {"type": "Point", "coordinates": [147.59585081300008, 8.106084794000026]}}, {"type": "Feature", "properties": {"OBJECTID": 18, "PlaceNode": 28}, "geometry": {"type": "Point", "coordinates": [154.00248112300005, 8.115853043000072]}}, {"type": "Feature", "properties": {"OBJECTID": 19, "PlaceNode": 14}, "geometry": {"type": "Point", "coordinates": [158.5841321480001, 5.5533463400000755]}}, {"type": "Feature", "properties": {"OBJECTID": 20, "PlaceNode": 15}, "geometry": {"type": "Point", "coordinates": [159.87270472500006, 7.190903429000059]}}, {"type": "Feature", "properties": {"OBJECTID": 21, "PlaceNode": 16}, "geometry": {"type": "Point", "coordinates": [159.8468894120001, 8.810373416000061]}}, {"type": "Feature", "properties": {"OBJECTID": 22, "PlaceNode": 17}, "geometry": {"type": "Point", "coordinates": [159.82331409300002, 12.098728488000063]}}, {"type": "Feature", "properties": {"OBJECTID": 23, "PlaceNode": 18}, "geometry": {"type": "Point", "coordinates": [159.86721619800005, 15.412881108000022]}}, {"type": "Feature", "properties": {"OBJECTID": 24, "PlaceNode": 25}, "geometry": {"type": "Point", "coordinates": [155.96679179300008, 21.02620958400007]}}, {"type": "Feature", "properties": {"OBJECTID": 25, "PlaceNode": 24}, "geometry": {"type": "Point", "coordinates": [149.46957936700005, 20.98339408000004]}}, {"type": "Feature", "properties": {"OBJECTID": 26, "PlaceNode": 24}, "geometry": {"type": "Point", "coordinates": [150.49031681500003, 20.979068921000078]}}, {"type": "Feature", "properties": {"OBJECTID": 27, "PlaceNode": 37}, "geometry": {"type": "Point", "coordinates": [153.07490122500008, 24.611402716000043]}}, {"type": "Feature", "properties": {"OBJECTID": 28, "PlaceNode": 39}, "geometry": {"type": "Point", "coordinates": [156.1841668410001, 24.569242651000025]}}, {"type": "Feature", "properties": {"OBJECTID": 29, "PlaceNode": 40}, "geometry": {"type": "Point", "coordinates": [158.78023110800007, 24.57066891100004]}}, {"type": "Feature", "properties": {"OBJECTID": 30, "PlaceNode": 52}, "geometry": {"type": "Point", "coordinates": [164.70054603100004, 24.546590752000043]}}, {"type": "Feature", "properties": {"OBJECTID": 31, "PlaceNode": 53}, "geometry": {"type": "Point", "coordinates": [166.21194758700005, 24.546968820000075]}}, {"type": "Feature", "properties": {"OBJECTID": 32, "PlaceNode": 60}, "geometry": {"type": "Point", "coordinates": [168.37418176100005, 21.118120974000078]}}, {"type": "Feature", "properties": {"OBJECTID": 33, "PlaceNode": 61}, "geometry": {"type": "Point", "coordinates": [169.95725052400007, 22.86511187900004]}}, {"type": "Feature", "properties": {"OBJECTID": 34, "PlaceNode": 38}, "geometry": {"type": "Point", "coordinates": [161.50197692400002, 33.549041018000025]}}, {"type": "Feature", "properties": {"OBJECTID": 35, "PlaceNode": 46}, "geometry": {"type": "Point", "coordinates": [163.97108069400008, 35.70940137500003]}}, {"type": "Feature", "properties": {"OBJECTID": 36, "PlaceNode": 41}, "geometry": {"type": "Point", "coordinates": [161.55184845700012, 37.449904865000065]}}, {"type": "Feature", "properties": {"OBJECTID": 37, "PlaceNode": 42}, "geometry": {"type": "Point", "coordinates": [161.5652375960001, 40.515983765000044]}}, {"type": "Feature", "properties": {"OBJECTID": 38, "PlaceNode": 43}, "geometry": {"type": "Point", "coordinates": [161.58779757700006, 44.20057825500004]}}, {"type": "Feature", "properties": {"OBJECTID": 39, "PlaceNode": 44}, "geometry": {"type": "Point", "coordinates": [163.19385573800002, 44.915680500000065]}}, {"type": "Feature", "properties": {"OBJECTID": 40, "PlaceNode": 49}, "geometry": {"type": "Point", "coordinates": [170.75905609100005, 40.851294815000074]}}, {"type": "Feature", "properties": {"OBJECTID": 41, "PlaceNode": 48}, "geometry": {"type": "Point", "coordinates": [170.73628366900004, 42.57615933500006]}}, {"type": "Feature", "properties": {"OBJECTID": 42, "PlaceNode": 47}, "geometry": {"type": "Point", "coordinates": [170.71301744800007, 46.39198023700004]}}, {"type": "Feature", "properties": {"OBJECTID": 43, "PlaceNode": 45}, "geometry": {"type": "Point", "coordinates": [165.54771529800007, 46.21125299300007]}}, {"type": "Feature", "properties": {"OBJECTID": 44, "PlaceNode": 36}, "geometry": {"type": "Point", "coordinates": [146.88310295000008, 24.600923240000043]}}, {"type": "Feature", "properties": {"OBJECTID": 45, "PlaceNode": 35}, "geometry": {"type": "Point", "coordinates": [140.79896525300012, 24.610568123000064]}}, {"type": "Feature", "properties": {"OBJECTID": 46, "PlaceNode": 34}, "geometry": {"type": "Point", "coordinates": [134.63894147000008, 24.631693851000023]}}, {"type": "Feature", "properties": {"OBJECTID": 47, "PlaceNode": 32}, "geometry": {"type": "Point", "coordinates": [132.31752552600005, 30.657669932000033]}}, {"type": "Feature", "properties": {"OBJECTID": 48, "PlaceNode": 33}, "geometry": {"type": "Point", "coordinates": [133.6685546430001, 30.67931257600003]}}, {"type": "Feature", "properties": {"OBJECTID": 49, "PlaceNode": 31}, "geometry": {"type": "Point", "coordinates": [128.40841420000004, 24.594193632000042]}}, {"type": "Feature", "properties": {"OBJECTID": 50, "PlaceNode": 21}, "geometry": {"type": "Point", "coordinates": [136.11503386100003, 20.39673571900005]}}, {"type": "Feature", "properties": {"OBJECTID": 51, "PlaceNode": 22}, "geometry": {"type": "Point", "coordinates": [136.12650127400002, 17.279701016000047]}}, {"type": "Feature", "properties": {"OBJECTID": 52, "PlaceNode": 19}, "geometry": {"type": "Point", "coordinates": [128.76381688100003, 15.714813243000037]}}, {"type": "Feature", "properties": {"OBJECTID": 53, "PlaceNode": 23}, "geometry": {"type": "Point", "coordinates": [134.48264113400012, 21.04644804700007]}}, {"type": "Feature", "properties": {"OBJECTID": 54, "PlaceNode": 20}, "geometry": {"type": "Point", "coordinates": [127.82913606300008, 8.132535037000025]}}, {"type": "Feature", "properties": {"OBJECTID": 55, "PlaceNode": 20}, "geometry": {"type": "Point", "coordinates": [134.1217119690001, 8.132535037000025]}}, {"type": "Feature", "properties": {"OBJECTID": 56, "PlaceNode": 20}, "geometry": {"type": "Point", "coordinates": [135.07171221800002, 8.132535037000025]}}, {"type": "Feature", "properties": {"OBJECTID": 57, "PlaceNode": 29}, "geometry": {"type": "Point", "coordinates": [140.69152647900012, 21.012811417000023]}}, {"type": "Feature", "properties": {"OBJECTID": 58, "PlaceNode": 54}, "geometry": {"type": "Point", "coordinates": [163.85251883500007, 27.315093835000027]}}, {"type": "Feature", "properties": {"OBJECTID": 59, "PlaceNode": 51}, "geometry": {"type": "Point", "coordinates": [163.80998137200004, 28.94417751800006]}}, {"type": "Feature", "properties": {"OBJECTID": 60, "PlaceNode": 55}, "geometry": {"type": "Point", "coordinates": [168.48675851200005, 24.59791012900007]}}, {"type": "Feature", "properties": {"OBJECTID": 61, "PlaceNode": 56}, "geometry": {"type": "Point", "coordinates": [172.51546796500008, 27.01731333400005]}}, {"type": "Feature", "properties": {"OBJECTID": 62, "PlaceNode": 57}, "geometry": {"type": "Point", "coordinates": [172.4313651440001, 28.58929745000006]}}, {"type": "Feature", "properties": {"OBJECTID": 63, "PlaceNode": 58}, "geometry": {"type": "Point", "coordinates": [172.45037575900005, 31.899781430000075]}}, {"type": "Feature", "properties": {"OBJECTID": 64, "PlaceNode": 50}, "geometry": {"type": "Point", "coordinates": [168.07198805100006, 44.55533006700006]}}, {"type": "Feature", "properties": {"OBJECTID": 65, "PlaceNode": 166}, "geometry": {"type": "Point", "coordinates": [119.1019795630001, 24.645139420000078]}}, {"type": "Feature", "properties": {"OBJECTID": 66, "PlaceNode": 165}, "geometry": {"type": "Point", "coordinates": [116.0521934190001, 21.14416632900003]}}, {"type": "Feature", "properties": {"OBJECTID": 67, "PlaceNode": 74}, "geometry": {"type": "Point", "coordinates": [113.43762823300005, 21.033670836000056]}}, {"type": "Feature", "properties": {"OBJECTID": 68, "PlaceNode": 73}, "geometry": {"type": "Point", "coordinates": [113.43784459200003, 18.317091405000042]}}, {"type": "Feature", "properties": {"OBJECTID": 69, "PlaceNode": 88}, "geometry": {"type": "Point", "coordinates": [120.59066729200003, 27.624567272000036]}}, {"type": "Feature", "properties": {"OBJECTID": 70, "PlaceNode": 78}, "geometry": {"type": "Point", "coordinates": [119.22937395400004, 28.64616840000008]}}, {"type": "Feature", "properties": {"OBJECTID": 71, "PlaceNode": 117}, "geometry": {"type": "Point", "coordinates": [123.3905282290001, 41.622302105000074]}}, {"type": "Feature", "properties": {"OBJECTID": 72, "PlaceNode": 156}, "geometry": {"type": "Point", "coordinates": [120.73164345500004, 41.633889760000045]}}, {"type": "Feature", "properties": {"OBJECTID": 73, "PlaceNode": 155}, "geometry": {"type": "Point", "coordinates": [116.32538954800009, 41.048256353000056]}}, {"type": "Feature", "properties": {"OBJECTID": 74, "PlaceNode": 154}, "geometry": {"type": "Point", "coordinates": [120.74317158200006, 43.23020471500007]}}, {"type": "Feature", "properties": {"OBJECTID": 75, "PlaceNode": 153}, "geometry": {"type": "Point", "coordinates": [114.07614601700004, 44.54719917700004]}}, {"type": "Feature", "properties": {"OBJECTID": 76, "PlaceNode": 152}, "geometry": {"type": "Point", "coordinates": [114.0515439180001, 46.09092609700008]}}, {"type": "Feature", "properties": {"OBJECTID": 77, "PlaceNode": 119}, "geometry": {"type": "Point", "coordinates": [123.23282207800003, 47.39101782800003]}}, {"type": "Feature", "properties": {"OBJECTID": 78, "PlaceNode": 120}, "geometry": {"type": "Point", "coordinates": [123.20248273000004, 50.820523500000036]}}, {"type": "Feature", "properties": {"OBJECTID": 79, "PlaceNode": 121}, "geometry": {"type": "Point", "coordinates": [123.20330462300001, 52.35054957700004]}}, {"type": "Feature", "properties": {"OBJECTID": 80, "PlaceNode": 151}, "geometry": {"type": "Point", "coordinates": [120.74380896700006, 54.11579740500008]}}, {"type": "Feature", "properties": {"OBJECTID": 81, "PlaceNode": 148}, "geometry": {"type": "Point", "coordinates": [120.72844988300005, 56.35418679700007]}}, {"type": "Feature", "properties": {"OBJECTID": 82, "PlaceNode": 122}, "geometry": {"type": "Point", "coordinates": [123.2600629320001, 57.17500579300008]}}, {"type": "Feature", "properties": {"OBJECTID": 83, "PlaceNode": 123}, "geometry": {"type": "Point", "coordinates": [123.27155318000007, 59.176327868000044]}}, {"type": "Feature", "properties": {"OBJECTID": 84, "PlaceNode": 118}, "geometry": {"type": "Point", "coordinates": [123.20618114400008, 43.207789313000035]}}, {"type": "Feature", "properties": {"OBJECTID": 85, "PlaceNode": 150}, "geometry": {"type": "Point", "coordinates": [115.14861796600007, 51.02992868800004]}}, {"type": "Feature", "properties": {"OBJECTID": 86, "PlaceNode": 149}, "geometry": {"type": "Point", "coordinates": [115.13407107800003, 52.47884463400004]}}, {"type": "Feature", "properties": {"OBJECTID": 87, "PlaceNode": 124}, "geometry": {"type": "Point", "coordinates": [123.15606866300004, 63.95560868300004]}}, {"type": "Feature", "properties": {"OBJECTID": 88, "PlaceNode": 147}, "geometry": {"type": "Point", "coordinates": [120.70689385800006, 64.79931770200005]}}, {"type": "Feature", "properties": {"OBJECTID": 89, "PlaceNode": 146}, "geometry": {"type": "Point", "coordinates": [116.1648985600001, 68.03583646700008]}}, {"type": "Feature", "properties": {"OBJECTID": 90, "PlaceNode": 126}, "geometry": {"type": "Point", "coordinates": [123.23160699900006, 70.44424594900005]}}, {"type": "Feature", "properties": {"OBJECTID": 91, "PlaceNode": 127}, "geometry": {"type": "Point", "coordinates": [123.27658552200012, 73.96088481900006]}}, {"type": "Feature", "properties": {"OBJECTID": 92, "PlaceNode": 173}, "geometry": {"type": "Point", "coordinates": [120.84049643100002, 73.96453098800004]}}, {"type": "Feature", "properties": {"OBJECTID": 93, "PlaceNode": 172}, "geometry": {"type": "Point", "coordinates": [118.3414931310001, 79.37670068700004]}}, {"type": "Feature", "properties": {"OBJECTID": 94, "PlaceNode": 171}, "geometry": {"type": "Point", "coordinates": [116.35175453900001, 79.30863541500008]}}, {"type": "Feature", "properties": {"OBJECTID": 96, "PlaceNode": 145}, "geometry": {"type": "Point", "coordinates": [114.9320092590001, 79.30094201200006]}}, {"type": "Feature", "properties": {"OBJECTID": 97, "PlaceNode": 169}, "geometry": {"type": "Point", "coordinates": [139.60524961500005, 80.67200934600004]}}, {"type": "Feature", "properties": {"OBJECTID": 99, "PlaceNode": 128}, "geometry": {"type": "Point", "coordinates": [135.90589050200003, 79.15792699300005]}}, {"type": "Feature", "properties": {"OBJECTID": 100, "PlaceNode": 129}, "geometry": {"type": "Point", "coordinates": [138.11903386300003, 79.21720221700008]}}, {"type": "Feature", "properties": {"OBJECTID": 101, "PlaceNode": 137}, "geometry": {"type": "Point", "coordinates": [138.25701228900004, 81.99875096800008]}}, {"type": "Feature", "properties": {"OBJECTID": 102, "PlaceNode": 136}, "geometry": {"type": "Point", "coordinates": [135.25112111900012, 82.00632842800007]}}, {"type": "Feature", "properties": {"OBJECTID": 103, "PlaceNode": 135}, "geometry": {"type": "Point", "coordinates": [132.14756607000004, 81.96365535800004]}}, {"type": "Feature", "properties": {"OBJECTID": 104, "PlaceNode": 134}, "geometry": {"type": "Point", "coordinates": [130.40841608300002, 81.97388101600006]}}, {"type": "Feature", "properties": {"OBJECTID": 105, "PlaceNode": 133}, "geometry": {"type": "Point", "coordinates": [127.31901002600011, 82.03728205300007]}}, {"type": "Feature", "properties": {"OBJECTID": 106, "PlaceNode": 132}, "geometry": {"type": "Point", "coordinates": [124.20036590000007, 82.12908504100005]}}, {"type": "Feature", "properties": {"OBJECTID": 107, "PlaceNode": 162}, "geometry": {"type": "Point", "coordinates": [121.55666221600006, 82.11436178400004]}}, {"type": "Feature", "properties": {"OBJECTID": 108, "PlaceNode": 162}, "geometry": {"type": "Point", "coordinates": [119.39932787600003, 82.14569323200004]}}, {"type": "Feature", "properties": {"OBJECTID": 109, "PlaceNode": 131}, "geometry": {"type": "Point", "coordinates": [115.93374753300009, 82.20541117200008]}}, {"type": "Feature", "properties": {"OBJECTID": 110, "PlaceNode": 130}, "geometry": {"type": "Point", "coordinates": [114.58421334500008, 82.22216500900004]}}, {"type": "Feature", "properties": {"OBJECTID": 111, "PlaceNode": 138}, "geometry": {"type": "Point", "coordinates": [110.97974666700009, 82.12359136700007]}}, {"type": "Feature", "properties": {"OBJECTID": 112, "PlaceNode": 138}, "geometry": {"type": "Point", "coordinates": [103.39475188900008, 82.18427132500005]}}, {"type": "Feature", "properties": {"OBJECTID": 113, "PlaceNode": 139}, "geometry": {"type": "Point", "coordinates": [101.55692284600008, 82.17650348600006]}}, {"type": "Feature", "properties": {"OBJECTID": 114, "PlaceNode": 140}, "geometry": {"type": "Point", "coordinates": [98.64869306900005, 79.33281509900007]}}, {"type": "Feature", "properties": {"OBJECTID": 115, "PlaceNode": 141}, "geometry": {"type": "Point", "coordinates": [100.95869475200004, 79.36943667500003]}}, {"type": "Feature", "properties": {"OBJECTID": 116, "PlaceNode": 142}, "geometry": {"type": "Point", "coordinates": [102.64394680000004, 72.78988570500007]}}, {"type": "Feature", "properties": {"OBJECTID": 117, "PlaceNode": 143}, "geometry": {"type": "Point", "coordinates": [103.93265542500006, 72.80904865800005]}}, {"type": "Feature", "properties": {"OBJECTID": 118, "PlaceNode": 170}, "geometry": {"type": "Point", "coordinates": [97.49924992800004, 80.73343934000007]}}, {"type": "Feature", "properties": {"OBJECTID": 119, "PlaceNode": 144}, "geometry": {"type": "Point", "coordinates": [109.72643808100008, 79.29295270400007]}}, {"type": "Feature", "properties": {"OBJECTID": 120, "PlaceNode": 79}, "geometry": {"type": "Point", "coordinates": [109.78142367500004, 24.57673375400003]}}, {"type": "Feature", "properties": {"OBJECTID": 121, "PlaceNode": 76}, "geometry": {"type": "Point", "coordinates": [104.26984295400007, 30.241969526000048]}}, {"type": "Feature", "properties": {"OBJECTID": 122, "PlaceNode": 77}, "geometry": {"type": "Point", "coordinates": [105.75790441800007, 30.280284040000026]}}, {"type": "Feature", "properties": {"OBJECTID": 123, "PlaceNode": 87}, "geometry": {"type": "Point", "coordinates": [103.24318329500005, 24.524095208000062]}}, {"type": "Feature", "properties": {"OBJECTID": 124, "PlaceNode": 75}, "geometry": {"type": "Point", "coordinates": [100.63395807400008, 24.500119642000072]}}, {"type": "Feature", "properties": {"OBJECTID": 125, "PlaceNode": 83}, "geometry": {"type": "Point", "coordinates": [94.50121880000006, 24.585103503000028]}}, {"type": "Feature", "properties": {"OBJECTID": 126, "PlaceNode": 84}, "geometry": {"type": "Point", "coordinates": [82.16232289600003, 24.65099394600003]}}, {"type": "Feature", "properties": {"OBJECTID": 127, "PlaceNode": 80}, "geometry": {"type": "Point", "coordinates": [83.50650601500007, 30.013843017000056]}}, {"type": "Feature", "properties": {"OBJECTID": 128, "PlaceNode": 81}, "geometry": {"type": "Point", "coordinates": [84.65859187600006, 30.597202596000045]}}, {"type": "Feature", "properties": {"OBJECTID": 129, "PlaceNode": 82}, "geometry": {"type": "Point", "coordinates": [87.77938261600008, 30.579763766000042]}}, {"type": "Feature", "properties": {"OBJECTID": 130, "PlaceNode": 86}, "geometry": {"type": "Point", "coordinates": [79.11386710900007, 24.55487738900007]}}, {"type": "Feature", "properties": {"OBJECTID": 131, "PlaceNode": 85}, "geometry": {"type": "Point", "coordinates": [72.89688669300006, 24.574997067000027]}}, {"type": "Feature", "properties": {"OBJECTID": 132, "PlaceNode": 182}, "geometry": {"type": "Point", "coordinates": [67.44770435500004, 24.83469395000003]}}, {"type": "Feature", "properties": {"OBJECTID": 133, "PlaceNode": 94}, "geometry": {"type": "Point", "coordinates": [82.45652481500008, 21.172907465000037]}}, {"type": "Feature", "properties": {"OBJECTID": 134, "PlaceNode": 97}, "geometry": {"type": "Point", "coordinates": [70.29340942400006, 21.185239782000053]}}, {"type": "Feature", "properties": {"OBJECTID": 135, "PlaceNode": 96}, "geometry": {"type": "Point", "coordinates": [65.04724558700008, 21.57375108900004]}}, {"type": "Feature", "properties": {"OBJECTID": 136, "PlaceNode": 95}, "geometry": {"type": "Point", "coordinates": [63.031318474000045, 21.579027713000073]}}, {"type": "Feature", "properties": {"OBJECTID": 137, "PlaceNode": 113}, "geometry": {"type": "Point", "coordinates": [60.58289285800004, 17.86450684500005]}}, {"type": "Feature", "properties": {"OBJECTID": 138, "PlaceNode": 114}, "geometry": {"type": "Point", "coordinates": [68.91289860200004, 15.970508603000042]}}, {"type": "Feature", "properties": {"OBJECTID": 139, "PlaceNode": 181}, "geometry": {"type": "Point", "coordinates": [57.836659818000044, 24.31119832400003]}}, {"type": "Feature", "properties": {"OBJECTID": 140, "PlaceNode": 90}, "geometry": {"type": "Point", "coordinates": [55.17676669000008, 24.277884207000056]}}, {"type": "Feature", "properties": {"OBJECTID": 141, "PlaceNode": 179}, "geometry": {"type": "Point", "coordinates": [46.579538780000064, 25.245222827000077]}}, {"type": "Feature", "properties": {"OBJECTID": 142, "PlaceNode": 180}, "geometry": {"type": "Point", "coordinates": [51.07711846900003, 24.227645539000036]}}, {"type": "Feature", "properties": {"OBJECTID": 143, "PlaceNode": 109}, "geometry": {"type": "Point", "coordinates": [52.93910261800005, 16.01990877000003]}}, {"type": "Feature", "properties": {"OBJECTID": 144, "PlaceNode": 110}, "geometry": {"type": "Point", "coordinates": [52.95948253900008, 14.339836991000027]}}, {"type": "Feature", "properties": {"OBJECTID": 145, "PlaceNode": 111}, "geometry": {"type": "Point", "coordinates": [52.991410778000045, 10.834218071000066]}}, {"type": "Feature", "properties": {"OBJECTID": 146, "PlaceNode": 98}, "geometry": {"type": "Point", "coordinates": [50.34000914100005, 9.101196151000067]}}, {"type": "Feature", "properties": {"OBJECTID": 147, "PlaceNode": 99}, "geometry": {"type": "Point", "coordinates": [50.290962309000065, 6.181058429000075]}}, {"type": "Feature", "properties": {"OBJECTID": 148, "PlaceNode": 100}, "geometry": {"type": "Point", "coordinates": [52.20541667300006, 4.319717017000073]}}, {"type": "Feature", "properties": {"OBJECTID": 149, "PlaceNode": 101}, "geometry": {"type": "Point", "coordinates": [58.75865331300008, 4.2949980850000316]}}, {"type": "Feature", "properties": {"OBJECTID": 150, "PlaceNode": 177}, "geometry": {"type": "Point", "coordinates": [51.811402487000066, 8.768087353000055]}}, {"type": "Feature", "properties": {"OBJECTID": 151, "PlaceNode": 112}, "geometry": {"type": "Point", "coordinates": [58.80723222900008, 9.956483902000059]}}, {"type": "Feature", "properties": {"OBJECTID": 152, "PlaceNode": 102}, "geometry": {"type": "Point", "coordinates": [63.12886219000006, 4.3270890450000365]}}, {"type": "Feature", "properties": {"OBJECTID": 153, "PlaceNode": 103}, "geometry": {"type": "Point", "coordinates": [64.51314193600007, 4.343500559000063]}}, {"type": "Feature", "properties": {"OBJECTID": 154, "PlaceNode": 116}, "geometry": {"type": "Point", "coordinates": [69.56200368600008, 6.695338543000048]}}, {"type": "Feature", "properties": {"OBJECTID": 155, "PlaceNode": 104}, "geometry": {"type": "Point", "coordinates": [72.86655967800004, 6.024726387000044]}}, {"type": "Feature", "properties": {"OBJECTID": 156, "PlaceNode": 108}, "geometry": {"type": "Point", "coordinates": [79.12146512100009, 5.794546204000028]}}, {"type": "Feature", "properties": {"OBJECTID": 157, "PlaceNode": 107}, "geometry": {"type": "Point", "coordinates": [79.04354355800007, 7.594887168000071]}}, {"type": "Feature", "properties": {"OBJECTID": 158, "PlaceNode": 106}, "geometry": {"type": "Point", "coordinates": [79.01873182600008, 12.648209888000054]}}, {"type": "Feature", "properties": {"OBJECTID": 159, "PlaceNode": 105}, "geometry": {"type": "Point", "coordinates": [79.01034869800003, 14.355573753000044]}}, {"type": "Feature", "properties": {"OBJECTID": 160, "PlaceNode": 62}, "geometry": {"type": "Point", "coordinates": [88.92544068600006, 21.050150002000066]}}, {"type": "Feature", "properties": {"OBJECTID": 161, "PlaceNode": 63}, "geometry": {"type": "Point", "coordinates": [92.90839354400003, 20.48723138300005]}}, {"type": "Feature", "properties": {"OBJECTID": 162, "PlaceNode": 65}, "geometry": {"type": "Point", "coordinates": [95.18848411600004, 18.58675484400004]}}, {"type": "Feature", "properties": {"OBJECTID": 163, "PlaceNode": 66}, "geometry": {"type": "Point", "coordinates": [96.77770066700003, 18.596328437000068]}}, {"type": "Feature", "properties": {"OBJECTID": 164, "PlaceNode": 64}, "geometry": {"type": "Point", "coordinates": [96.76184664800007, 21.069149027000037]}}, {"type": "Feature", "properties": {"OBJECTID": 165, "PlaceNode": 68}, "geometry": {"type": "Point", "coordinates": [99.03464822600006, 21.07570934900008]}}, {"type": "Feature", "properties": {"OBJECTID": 166, "PlaceNode": 67}, "geometry": {"type": "Point", "coordinates": [101.26026362300007, 21.08100375400005]}}, {"type": "Feature", "properties": {"OBJECTID": 167, "PlaceNode": 69}, "geometry": {"type": "Point", "coordinates": [101.30777044000007, 18.560337270000048]}}, {"type": "Feature", "properties": {"OBJECTID": 168, "PlaceNode": 70}, "geometry": {"type": "Point", "coordinates": [102.96085674600005, 18.516777612000055]}}, {"type": "Feature", "properties": {"OBJECTID": 169, "PlaceNode": 71}, "geometry": {"type": "Point", "coordinates": [106.01207525300003, 18.38725093100004]}}, {"type": "Feature", "properties": {"OBJECTID": 170, "PlaceNode": 72}, "geometry": {"type": "Point", "coordinates": [106.02779441700005, 21.098025886000073]}}, {"type": "Feature", "properties": {"OBJECTID": 171, "PlaceNode": 92}, "geometry": {"type": "Point", "coordinates": [41.126396913000065, 24.17349054500005]}}, {"type": "Feature", "properties": {"OBJECTID": 172, "PlaceNode": 93}, "geometry": {"type": "Point", "coordinates": [30.242545249000045, 24.21289360000003]}}, {"type": "Feature", "properties": {"OBJECTID": 173, "PlaceNode": 93}, "geometry": {"type": "Point", "coordinates": [23.84778589600006, 25.35271578100003]}}, {"type": "Feature", "properties": {"OBJECTID": 174, "PlaceNode": 157}, "geometry": {"type": "Point", "coordinates": [19.986286395000036, 27.302815525000028]}}, {"type": "Feature", "properties": {"OBJECTID": 175, "PlaceNode": 158}, "geometry": {"type": "Point", "coordinates": [12.213575191000075, 21.715905633000034]}}, {"type": "Feature", "properties": {"OBJECTID": 176, "PlaceNode": 159}, "geometry": {"type": "Point", "coordinates": [12.155592618000071, 16.931444786000043]}}, {"type": "Feature", "properties": {"OBJECTID": 177, "PlaceNode": 160}, "geometry": {"type": "Point", "coordinates": [12.17361696000006, 12.656330866000076]}}, {"type": "Feature", "properties": {"OBJECTID": 178, "PlaceNode": 160}, "geometry": {"type": "Point", "coordinates": [12.17361696000006, 8.424132790000044]}}, {"type": "Feature", "properties": {"OBJECTID": 179, "PlaceNode": 174}, "geometry": {"type": "Point", "coordinates": [13.190556972000024, 5.51414376300005]}}, {"type": "Feature", "properties": {"OBJECTID": 180, "PlaceNode": 161}, "geometry": {"type": "Point", "coordinates": [14.42130036900005, 6.265878128000054]}}, {"type": "Feature", "properties": {"OBJECTID": 181, "PlaceNode": 167}, "geometry": {"type": "Point", "coordinates": [21.036278457000037, 25.416951519000065]}}, {"type": "Feature", "properties": {"OBJECTID": 182, "PlaceNode": 167}, "geometry": {"type": "Point", "coordinates": [13.194193810000058, 24.164910530000043]}}, {"type": "Feature", "properties": {"OBJECTID": 183, "PlaceNode": 175}, "geometry": {"type": "Point", "coordinates": [14.280178635000027, 20.799186295000027]}}, {"type": "Feature", "properties": {"OBJECTID": 184, "PlaceNode": 176}, "geometry": {"type": "Point", "coordinates": [19.49731926100003, 21.479599088000043]}}, {"type": "Feature", "properties": {"OBJECTID": 185, "PlaceNode": 161}, "geometry": {"type": "Point", "coordinates": [14.32418547800006, 18.82607069000005]}}, {"type": "Feature", "properties": {"OBJECTID": 186, "PlaceNode": 174}, "geometry": {"type": "Point", "coordinates": [13.190556972000024, 5.51414376300005]}}, {"type": "Feature", "properties": {"OBJECTID": 187, "PlaceNode": 115}, "geometry": {"type": "Point", "coordinates": [59.90744954500008, 5.894326415000023]}}, {"type": "Feature", "properties": {"OBJECTID": 188, "PlaceNode": 125}, "geometry": {"type": "Point", "coordinates": [123.13934209600006, 65.72195919600006]}}, {"type": "Feature", "properties": {"OBJECTID": 189, "PlaceNode": 164}, "geometry": {"type": "Point", "coordinates": [159.8504863390001, 19.50141001700007]}}, {"type": "Feature", "properties": {"OBJECTID": 190, "PlaceNode": 163}, "geometry": {"type": "Point", "coordinates": [165.2586903990001, 21.07396970800005]}}, {"type": "Feature", "properties": {"OBJECTID": 191, "PlaceNode": 168}, "geometry": {"type": "Point", "coordinates": [22.356517532000055, 24.262396222000064]}}]}