{"type": "FeatureCollection", "features": [{"type": "Feature", "properties": {"OBJECTID": 1, "FID_E_Leve": 185, "SHAPE_Leng": 1.50959338517}, "geometry": {"type": "LineString", "coordinates": [[52.20533569600008, 5.829310400000054], [52.20541667300006, 4.319717017000073]]}}, {"type": "Feature", "properties": {"OBJECTID": 2, "FID_E_Leve": 205, "SHAPE_Leng": 1.49781562274}, "geometry": {"type": "LineString", "coordinates": [[64.49009355200008, 5.841138837000074], [64.51314193600007, 4.343500559000063]]}}, {"type": "Feature", "properties": {"OBJECTID": 3, "FID_E_Leve": 206, "SHAPE_Leng": 1.53026177295}, "geometry": {"type": "LineString", "coordinates": [[63.10687680700005, 5.857192877000045], [63.12886219000006, 4.3270890450000365]]}}, {"type": "Feature", "properties": {"OBJECTID": 4, "FID_E_Leve": 205, "SHAPE_Leng": 1.38330990593}, "geometry": {"type": "LineString", "coordinates": [[63.10687680700005, 5.857192877000045], [64.49009355200008, 5.841138837000074]]}}, {"type": "Feature", "properties": {"OBJECTID": 5, "FID_E_Leve": 94, "SHAPE_Leng": 6.52898643897}, "geometry": {"type": "LineString", "coordinates": [[52.20533569600008, 5.829310400000054], [58.73408953300003, 5.884421707000058]]}}, {"type": "Feature", "properties": {"OBJECTID": 6, "FID_E_Leve": 184, "SHAPE_Leng": 1.58961342139}, "geometry": {"type": "LineString", "coordinates": [[58.73408953300003, 5.884421707000058], [58.75865331300008, 4.2949980850000316]]}}, {"type": "Feature", "properties": {"OBJECTID": 7, "FID_E_Leve": 94, "SHAPE_Leng": 0.14482775364}, "geometry": {"type": "LineString", "coordinates": [[58.73408953300003, 5.884421707000058], [58.878912127000035, 5.885644201000048]]}}, {"type": "Feature", "properties": {"OBJECTID": 8, "FID_E_Leve": 94, "SHAPE_Leng": 1.02857406202}, "geometry": {"type": "LineString", "coordinates": [[58.878912127000035, 5.885644201000048], [59.90744954500008, 5.894326415000023]]}}, {"type": "Feature", "properties": {"OBJECTID": 9, "FID_E_Leve": 205, "SHAPE_Leng": 3.19964274638}, "geometry": {"type": "LineString", "coordinates": [[59.90744954500008, 5.894326415000023], [63.10687680700005, 5.857192877000045]]}}, {"type": "Feature", "properties": {"OBJECTID": 10, "FID_E_Leve": 94, "SHAPE_Leng": 0.857106291456}, "geometry": {"type": "LineString", "coordinates": [[51.683251504000054, 6.159906819000071], [51.683251504000054, 5.824903320000033], [52.20533569600008, 5.829310400000054]]}}, {"type": "Feature", "properties": {"OBJECTID": 11, "FID_E_Leve": 191, "SHAPE_Leng": 1.392449853}, "geometry": {"type": "LineString", "coordinates": [[51.683251504000054, 6.159906819000071], [50.290962309000065, 6.181058429000075]]}}, {"type": "Feature", "properties": {"OBJECTID": 12, "FID_E_Leve": 95, "SHAPE_Leng": 0.793895977042}, "geometry": {"type": "LineString", "coordinates": [[13.190292529000033, 6.308039696000037], [13.190556972000024, 5.51414376300005]]}}, {"type": "Feature", "properties": {"OBJECTID": 13, "FID_E_Leve": 204, "SHAPE_Leng": 1.23172963753}, "geometry": {"type": "LineString", "coordinates": [[13.190292529000033, 6.308039696000037], [14.42130036900005, 6.265878128000054]]}}, {"type": "Feature", "properties": {"OBJECTID": 14, "FID_E_Leve": 208, "SHAPE_Leng": 0.647522563419}, "geometry": {"type": "LineString", "coordinates": [[72.84308858400004, 6.67182342600006], [72.86655967800004, 6.024726387000044]]}}, {"type": "Feature", "properties": {"OBJECTID": 15, "FID_E_Leve": 209, "SHAPE_Leng": 3.991900942}, "geometry": {"type": "LineString", "coordinates": [[72.84308858400004, 6.67182342600006], [76.83498952600007, 6.67182342600006]]}}, {"type": "Feature", "properties": {"OBJECTID": 16, "FID_E_Leve": 209, "SHAPE_Leng": 3.14035570296}, "geometry": {"type": "LineString", "coordinates": [[76.83498952600007, 6.67182342600006], [76.83498952600007, 5.818064265000032], [79.12146512100009, 5.794546204000028]]}}, {"type": "Feature", "properties": {"OBJECTID": 17, "FID_E_Leve": 208, "SHAPE_Leng": 3.28116916184}, "geometry": {"type": "LineString", "coordinates": [[69.56200368600008, 6.695338543000048], [72.84308858400004, 6.67182342600006]]}}, {"type": "Feature", "properties": {"OBJECTID": 18, "FID_E_Leve": 66, "SHAPE_Leng": 2.63041137501}, "geometry": {"type": "LineString", "coordinates": [[123.8502408600001, 6.700613784000041], [121.84385087300006, 6.654489362000049], [121.84827781100012, 6.031013792000067]]}}, {"type": "Feature", "properties": {"OBJECTID": 19, "FID_E_Leve": 207, "SHAPE_Leng": 6.01873766388}, "geometry": {"type": "LineString", "coordinates": [[64.49009355200008, 5.841138837000074], [67.42056418500005, 5.794989693000048], [67.39748961300006, 6.717972570000029], [69.56200368600008, 6.695338543000048]]}}, {"type": "Feature", "properties": {"OBJECTID": 20, "FID_E_Leve": 51, "SHAPE_Leng": 0.591819852114}, "geometry": {"type": "LineString", "coordinates": [[124.4312885380001, 6.813016334000054], [123.8502408600001, 6.700613784000041]]}}, {"type": "Feature", "properties": {"OBJECTID": 21, "FID_E_Leve": 52, "SHAPE_Leng": 0.926735037858}, "geometry": {"type": "LineString", "coordinates": [[124.4312885380001, 6.813016334000054], [124.44516970500001, 5.886385262000033]]}}, {"type": "Feature", "properties": {"OBJECTID": 22, "FID_E_Leve": 51, "SHAPE_Leng": 0.475762641444}, "geometry": {"type": "LineString", "coordinates": [[124.89839145300004, 6.903376490000028], [124.4312885380001, 6.813016334000054]]}}, {"type": "Feature", "properties": {"OBJECTID": 23, "FID_E_Leve": 3, "SHAPE_Leng": 2.59943845799}, "geometry": {"type": "LineString", "coordinates": [[124.89839145300004, 6.903376490000028], [127.49781834400005, 6.91113118100003]]}}, {"type": "Feature", "properties": {"OBJECTID": 24, "FID_E_Leve": 11, "SHAPE_Leng": 1.05467463739}, "geometry": {"type": "LineString", "coordinates": [[127.49781834400005, 6.91113118100003], [127.51115248100007, 5.856540838000058]]}}, {"type": "Feature", "properties": {"OBJECTID": 25, "FID_E_Leve": 3, "SHAPE_Leng": 0.331204809796}, "geometry": {"type": "LineString", "coordinates": [[127.49781834400005, 6.91113118100003], [127.8290216800001, 6.91211923700007]]}}, {"type": "Feature", "properties": {"OBJECTID": 26, "FID_E_Leve": 3, "SHAPE_Leng": 2.76484163}, "geometry": {"type": "LineString", "coordinates": [[127.8290216800001, 6.91211923700007], [130.593851007, 6.920367362000036]]}}, {"type": "Feature", "properties": {"OBJECTID": 27, "FID_E_Leve": 12, "SHAPE_Leng": 1.13392757232}, "geometry": {"type": "LineString", "coordinates": [[130.593851007, 6.920367362000036], [130.6204437250001, 5.786751657000025]]}}, {"type": "Feature", "properties": {"OBJECTID": 28, "FID_E_Leve": 3, "SHAPE_Leng": 3.09592802727}, "geometry": {"type": "LineString", "coordinates": [[130.593851007, 6.920367362000036], [133.68976525800008, 6.929603189000034]]}}, {"type": "Feature", "properties": {"OBJECTID": 29, "FID_E_Leve": 13, "SHAPE_Leng": 1.1506639058}, "geometry": {"type": "LineString", "coordinates": [[133.68976525800008, 6.929603189000034], [133.71649861700007, 5.779249873000026]]}}, {"type": "Feature", "properties": {"OBJECTID": 30, "FID_E_Leve": 3, "SHAPE_Leng": 0.441520868682}, "geometry": {"type": "LineString", "coordinates": [[133.68976525800008, 6.929603189000034], [134.13128416200004, 6.930920342000036]]}}, {"type": "Feature", "properties": {"OBJECTID": 31, "FID_E_Leve": 3, "SHAPE_Leng": 0.978101485361}, "geometry": {"type": "LineString", "coordinates": [[134.13128416200004, 6.930920342000036], [135.10938129500005, 6.933838232000028]]}}, {"type": "Feature", "properties": {"OBJECTID": 32, "FID_E_Leve": 3, "SHAPE_Leng": 1.63669171196}, "geometry": {"type": "LineString", "coordinates": [[135.10938129500005, 6.933838232000028], [136.74606572400012, 6.938720839000041]]}}, {"type": "Feature", "properties": {"OBJECTID": 33, "FID_E_Leve": 14, "SHAPE_Leng": 1.1474317584}, "geometry": {"type": "LineString", "coordinates": [[136.74606572400012, 6.938720839000041], [136.7738759340001, 5.791626147000045]]}}, {"type": "Feature", "properties": {"OBJECTID": 34, "FID_E_Leve": 3, "SHAPE_Leng": 3.0830128278}, "geometry": {"type": "LineString", "coordinates": [[136.74606572400012, 6.938720839000041], [139.82906483300007, 6.947918137000045]]}}, {"type": "Feature", "properties": {"OBJECTID": 35, "FID_E_Leve": 15, "SHAPE_Leng": 1.23102864205}, "geometry": {"type": "LineString", "coordinates": [[139.82906483300007, 6.947918137000045], [139.8424692430001, 5.716962476000049]]}}, {"type": "Feature", "properties": {"OBJECTID": 36, "FID_E_Leve": 3, "SHAPE_Leng": 3.04316204047}, "geometry": {"type": "LineString", "coordinates": [[139.82906483300007, 6.947918137000045], [142.87221333200011, 6.956996552000021]]}}, {"type": "Feature", "properties": {"OBJECTID": 37, "FID_E_Leve": 16, "SHAPE_Leng": 1.25543535754}, "geometry": {"type": "LineString", "coordinates": [[142.87221333200011, 6.956996552000021], [142.91187718800006, 5.7021879150000245]]}}, {"type": "Feature", "properties": {"OBJECTID": 38, "FID_E_Leve": 3, "SHAPE_Leng": 0.30450961201}, "geometry": {"type": "LineString", "coordinates": [[142.87221333200011, 6.956996552000021], [143.17672158900007, 6.957904971000062]]}}, {"type": "Feature", "properties": {"OBJECTID": 39, "FID_E_Leve": 3, "SHAPE_Leng": 2.85792849322}, "geometry": {"type": "LineString", "coordinates": [[143.17672158900007, 6.957904971000062], [146.0346373650001, 6.966430793000029]]}}, {"type": "Feature", "properties": {"OBJECTID": 40, "FID_E_Leve": 18, "SHAPE_Leng": 1.27485898001}, "geometry": {"type": "LineString", "coordinates": [[146.0346373650001, 6.966430793000029], [146.07379101300012, 5.69217320100006]]}}, {"type": "Feature", "properties": {"OBJECTID": 41, "FID_E_Leve": 3, "SHAPE_Leng": 1.56109630357}, "geometry": {"type": "LineString", "coordinates": [[146.0346373650001, 6.966430793000029], [147.5957267220001, 6.971087884000042]]}}, {"type": "Feature", "properties": {"OBJECTID": 42, "FID_E_Leve": 3, "SHAPE_Leng": 1.4553669751}, "geometry": {"type": "LineString", "coordinates": [[147.5957267220001, 6.971087884000042], [149.0510872210001, 6.975429560000066]]}}, {"type": "Feature", "properties": {"OBJECTID": 43, "FID_E_Leve": 20, "SHAPE_Leng": 1.31651294332}, "geometry": {"type": "LineString", "coordinates": [[149.0510872210001, 6.975429560000066], [149.0772325370001, 5.6591762590000485]]}}, {"type": "Feature", "properties": {"OBJECTID": 44, "FID_E_Leve": 3, "SHAPE_Leng": 3.03004948612}, "geometry": {"type": "LineString", "coordinates": [[149.0510872210001, 6.975429560000066], [152.08112322400007, 6.984468857000024]]}}, {"type": "Feature", "properties": {"OBJECTID": 45, "FID_E_Leve": 21, "SHAPE_Leng": 1.34940975685}, "geometry": {"type": "LineString", "coordinates": [[152.08112322400007, 6.984468857000024], [152.1338784940001, 5.636090730000035]]}}, {"type": "Feature", "properties": {"OBJECTID": 46, "FID_E_Leve": 3, "SHAPE_Leng": 1.93144498655}, "geometry": {"type": "LineString", "coordinates": [[152.08112322400007, 6.984468857000024], [154.0125596160001, 6.990230779000058]]}}, {"type": "Feature", "properties": {"OBJECTID": 47, "FID_E_Leve": 3, "SHAPE_Leng": 1.2306378791}, "geometry": {"type": "LineString", "coordinates": [[154.0125596160001, 6.990230779000058], [155.24319201900005, 6.993902039000034]]}}, {"type": "Feature", "properties": {"OBJECTID": 48, "FID_E_Leve": 23, "SHAPE_Leng": 1.37851617164}, "geometry": {"type": "LineString", "coordinates": [[155.24319201900005, 6.993902039000034], [155.25664100900008, 5.615451474000054]]}}, {"type": "Feature", "properties": {"OBJECTID": 49, "FID_E_Leve": 3, "SHAPE_Leng": 3.33496936296}, "geometry": {"type": "LineString", "coordinates": [[155.24319201900005, 6.993902039000034], [158.578146542, 7.003850979000049]]}}, {"type": "Feature", "properties": {"OBJECTID": 50, "FID_E_Leve": 50, "SHAPE_Leng": 1.45051698895}, "geometry": {"type": "LineString", "coordinates": [[158.578146542, 7.003850979000049], [158.5841321480001, 5.5533463400000755]]}}, {"type": "Feature", "properties": {"OBJECTID": 51, "FID_E_Leve": 3, "SHAPE_Leng": 0.0679088561814}, "geometry": {"type": "LineString", "coordinates": [[158.578146542, 7.003850979000049], [158.64605509600005, 7.004053566000039]]}}, {"type": "Feature", "properties": {"OBJECTID": 52, "FID_E_Leve": 4, "SHAPE_Leng": 0.19966672796}, "geometry": {"type": "LineString", "coordinates": [[158.64605509600005, 7.004053566000039], [158.64526937900007, 7.203718748000028]]}}, {"type": "Feature", "properties": {"OBJECTID": 53, "FID_E_Leve": 58, "SHAPE_Leng": 1.22750224481}, "geometry": {"type": "LineString", "coordinates": [[158.64526937900007, 7.203718748000028], [159.87270472500006, 7.190903429000059]]}}, {"type": "Feature", "properties": {"OBJECTID": 54, "FID_E_Leve": 210, "SHAPE_Leng": 0.923271263098}, "geometry": {"type": "LineString", "coordinates": [[76.83498952600007, 6.67182342600006], [76.81191495400003, 7.594806302000052]]}}, {"type": "Feature", "properties": {"OBJECTID": 55, "FID_E_Leve": 210, "SHAPE_Leng": 2.23162860547}, "geometry": {"type": "LineString", "coordinates": [[76.81191495400003, 7.594806302000052], [79.04354355800007, 7.594887168000071]]}}, {"type": "Feature", "properties": {"OBJECTID": 56, "FID_E_Leve": 19, "SHAPE_Leng": 1.13499691678}, "geometry": {"type": "LineString", "coordinates": [[147.5957267220001, 6.971087884000042], [147.59585081300008, 8.106084794000026]]}}, {"type": "Feature", "properties": {"OBJECTID": 57, "FID_E_Leve": 22, "SHAPE_Leng": 1.12566738304}, "geometry": {"type": "LineString", "coordinates": [[154.0125596160001, 6.990230779000058], [154.00248112300005, 8.115853043000072]]}}, {"type": "Feature", "properties": {"OBJECTID": 58, "FID_E_Leve": 17, "SHAPE_Leng": 1.17066751335}, "geometry": {"type": "LineString", "coordinates": [[143.17672158900007, 6.957904971000062], [143.16381656700003, 8.128501352000058]]}}, {"type": "Feature", "properties": {"OBJECTID": 59, "FID_E_Leve": 8, "SHAPE_Leng": 1.22041580536}, "geometry": {"type": "LineString", "coordinates": [[127.8290216800001, 6.91211923700007], [127.82913606300008, 8.132535037000025]]}}, {"type": "Feature", "properties": {"OBJECTID": 60, "FID_E_Leve": 9, "SHAPE_Leng": 1.20165282096}, "geometry": {"type": "LineString", "coordinates": [[134.13128416200004, 6.930920342000036], [134.1217119690001, 8.132535037000025]]}}, {"type": "Feature", "properties": {"OBJECTID": 61, "FID_E_Leve": 10, "SHAPE_Leng": 1.19928853479}, "geometry": {"type": "LineString", "coordinates": [[135.10938129500005, 6.933838232000028], [135.07171221800002, 8.132535037000025]]}}, {"type": "Feature", "properties": {"OBJECTID": 62, "FID_E_Leve": 203, "SHAPE_Leng": 1.01683768311}, "geometry": {"type": "LineString", "coordinates": [[13.189573572000029, 8.466453427000033], [12.17361696000006, 8.424132790000044]]}}, {"type": "Feature", "properties": {"OBJECTID": 63, "FID_E_Leve": 95, "SHAPE_Leng": 2.15841385074}, "geometry": {"type": "LineString", "coordinates": [[13.189573572000029, 8.466453427000033], [13.190292529000033, 6.308039696000037]]}}, {"type": "Feature", "properties": {"OBJECTID": 64, "FID_E_Leve": 94, "SHAPE_Leng": 2.610629078}, "geometry": {"type": "LineString", "coordinates": [[51.683251504000054, 8.770535897000059], [51.683251504000054, 6.159906819000071]]}}, {"type": "Feature", "properties": {"OBJECTID": 65, "FID_E_Leve": 186, "SHAPE_Leng": 0.128174372679}, "geometry": {"type": "LineString", "coordinates": [[51.683251504000054, 8.770535897000059], [51.811402487000066, 8.768087353000055]]}}, {"type": "Feature", "properties": {"OBJECTID": 66, "FID_E_Leve": 4, "SHAPE_Leng": 1.61985271305}, "geometry": {"type": "LineString", "coordinates": [[158.64526937900007, 7.203718748000028], [158.6388950260001, 8.82355891900005]]}}, {"type": "Feature", "properties": {"OBJECTID": 67, "FID_E_Leve": 24, "SHAPE_Leng": 1.20806634507}, "geometry": {"type": "LineString", "coordinates": [[158.6388950260001, 8.82355891900005], [159.8468894120001, 8.810373416000061]]}}, {"type": "Feature", "properties": {"OBJECTID": 68, "FID_E_Leve": 94, "SHAPE_Leng": 0.309587595}, "geometry": {"type": "LineString", "coordinates": [[51.683251504000054, 9.080123492000041], [51.683251504000054, 8.770535897000059]]}}, {"type": "Feature", "properties": {"OBJECTID": 69, "FID_E_Leve": 192, "SHAPE_Leng": 1.34340764577}, "geometry": {"type": "LineString", "coordinates": [[51.683251504000054, 9.080123492000041], [50.34000914100005, 9.101196151000067]]}}, {"type": "Feature", "properties": {"OBJECTID": 70, "FID_E_Leve": 183, "SHAPE_Leng": 4.07147072678}, "geometry": {"type": "LineString", "coordinates": [[58.878912127000035, 5.885644201000048], [58.80723222900008, 9.956483902000059]]}}, {"type": "Feature", "properties": {"OBJECTID": 71, "FID_E_Leve": 94, "SHAPE_Leng": 1.754733775}, "geometry": {"type": "LineString", "coordinates": [[51.683251504000054, 10.834857267000075], [51.683251504000054, 9.080123492000041]]}}, {"type": "Feature", "properties": {"OBJECTID": 72, "FID_E_Leve": 182, "SHAPE_Leng": 1.30815943016}, "geometry": {"type": "LineString", "coordinates": [[51.683251504000054, 10.834857267000075], [52.991410778000045, 10.834218071000066]]}}, {"type": "Feature", "properties": {"OBJECTID": 73, "FID_E_Leve": 2, "SHAPE_Leng": 4.5235381403}, "geometry": {"type": "LineString", "coordinates": [[124.85747808400004, 11.426729605000048], [124.89839145300004, 6.903376490000028]]}}, {"type": "Feature", "properties": {"OBJECTID": 74, "FID_E_Leve": 7, "SHAPE_Leng": 1.02069225853}, "geometry": {"type": "LineString", "coordinates": [[124.85747808400004, 11.426729605000048], [123.83695414500005, 11.445265423000023]]}}, {"type": "Feature", "properties": {"OBJECTID": 75, "FID_E_Leve": 64, "SHAPE_Leng": 3.82462111125}, "geometry": {"type": "LineString", "coordinates": [[135.07171221800002, 8.132535037000025], [135.0745126480001, 11.957155123000064]]}}, {"type": "Feature", "properties": {"OBJECTID": 76, "FID_E_Leve": 63, "SHAPE_Leng": 3.82633120219}, "geometry": {"type": "LineString", "coordinates": [[134.1217119690001, 8.132535037000025], [134.1265187150001, 11.958863220000069]]}}, {"type": "Feature", "properties": {"OBJECTID": 77, "FID_E_Leve": 62, "SHAPE_Leng": 0.947995471825}, "geometry": {"type": "LineString", "coordinates": [[134.1265187150001, 11.958863220000069], [135.0745126480001, 11.957155123000064]]}}, {"type": "Feature", "properties": {"OBJECTID": 78, "FID_E_Leve": 62, "SHAPE_Leng": 4.07812903979}, "geometry": {"type": "LineString", "coordinates": [[130.0483962950001, 11.966211189000035], [134.1265187150001, 11.958863220000069]]}}, {"type": "Feature", "properties": {"OBJECTID": 79, "FID_E_Leve": 62, "SHAPE_Leng": 6.04252982858}, "geometry": {"type": "LineString", "coordinates": [[127.82913606300008, 8.132535037000025], [127.84354595400009, 11.970183892000023], [130.0483962950001, 11.966211189000035]]}}, {"type": "Feature", "properties": {"OBJECTID": 80, "FID_E_Leve": 4, "SHAPE_Leng": 3.27520222994}, "geometry": {"type": "LineString", "coordinates": [[158.6388950260001, 8.82355891900005], [158.62600663400008, 12.098735790000035]]}}, {"type": "Feature", "properties": {"OBJECTID": 81, "FID_E_Leve": 25, "SHAPE_Leng": 1.19730745902}, "geometry": {"type": "LineString", "coordinates": [[158.62600663400008, 12.098735790000035], [159.82331409300002, 12.098728488000063]]}}, {"type": "Feature", "properties": {"OBJECTID": 82, "FID_E_Leve": 211, "SHAPE_Leng": 5.07771670698}, "geometry": {"type": "LineString", "coordinates": [[76.81191495400003, 7.594806302000052], [76.69654209400005, 12.671212123000032]]}}, {"type": "Feature", "properties": {"OBJECTID": 83, "FID_E_Leve": 211, "SHAPE_Leng": 2.32230365246}, "geometry": {"type": "LineString", "coordinates": [[76.69654209400005, 12.671212123000032], [79.01873182600008, 12.648209888000054]]}}, {"type": "Feature", "properties": {"OBJECTID": 84, "FID_E_Leve": 202, "SHAPE_Leng": 1.01542916371}, "geometry": {"type": "LineString", "coordinates": [[13.188163849000034, 12.698651033000033], [12.17361696000006, 12.656330866000076]]}}, {"type": "Feature", "properties": {"OBJECTID": 85, "FID_E_Leve": 95, "SHAPE_Leng": 4.23219784079}, "geometry": {"type": "LineString", "coordinates": [[13.188163849000034, 12.698651033000033], [13.189573572000029, 8.466453427000033]]}}, {"type": "Feature", "properties": {"OBJECTID": 86, "FID_E_Leve": 212, "SHAPE_Leng": 1.63845709493}, "geometry": {"type": "LineString", "coordinates": [[76.69654209400005, 12.671212123000032], [76.67346752200007, 14.309506729000077]]}}, {"type": "Feature", "properties": {"OBJECTID": 87, "FID_E_Leve": 94, "SHAPE_Leng": 3.504545581}, "geometry": {"type": "LineString", "coordinates": [[51.683251504000054, 14.339402848000077], [51.683251504000054, 10.834857267000075]]}}, {"type": "Feature", "properties": {"OBJECTID": 88, "FID_E_Leve": 181, "SHAPE_Leng": 1.27623110884}, "geometry": {"type": "LineString", "coordinates": [[51.683251504000054, 14.339402848000077], [52.95948253900008, 14.339836991000027]]}}, {"type": "Feature", "properties": {"OBJECTID": 89, "FID_E_Leve": 212, "SHAPE_Leng": 2.33733519236}, "geometry": {"type": "LineString", "coordinates": [[76.67346752200007, 14.309506729000077], [79.01034869800003, 14.355573753000044]]}}, {"type": "Feature", "properties": {"OBJECTID": 90, "FID_E_Leve": 4, "SHAPE_Leng": 3.31393673485}, "geometry": {"type": "LineString", "coordinates": [[158.62600663400008, 12.098735790000035], [158.61296581600004, 15.412646866000046]]}}, {"type": "Feature", "properties": {"OBJECTID": 91, "FID_E_Leve": 26, "SHAPE_Leng": 1.25425040387}, "geometry": {"type": "LineString", "coordinates": [[158.61296581600004, 15.412646866000046], [159.86721619800005, 15.412881108000022]]}}, {"type": "Feature", "properties": {"OBJECTID": 92, "FID_E_Leve": 65, "SHAPE_Leng": 3.74176255117}, "geometry": {"type": "LineString", "coordinates": [[130.0483962950001, 11.966211189000035], [130.02565875200003, 15.70790465500005]]}}, {"type": "Feature", "properties": {"OBJECTID": 93, "FID_E_Leve": 61, "SHAPE_Leng": 1.26186078313}, "geometry": {"type": "LineString", "coordinates": [[130.02565875200003, 15.70790465500005], [128.76381688100003, 15.714813243000037]]}}, {"type": "Feature", "properties": {"OBJECTID": 94, "FID_E_Leve": 213, "SHAPE_Leng": 9.42270186252}, "geometry": {"type": "LineString", "coordinates": [[76.67346752200007, 14.309506729000077], [76.62731837800004, 16.017025051000076], [68.91289860200004, 15.970508603000042]]}}, {"type": "Feature", "properties": {"OBJECTID": 95, "FID_E_Leve": 94, "SHAPE_Leng": 1.704265317}, "geometry": {"type": "LineString", "coordinates": [[51.683251504000054, 16.043668165000042], [51.683251504000054, 14.339402848000077]]}}, {"type": "Feature", "properties": {"OBJECTID": 96, "FID_E_Leve": 180, "SHAPE_Leng": 1.2560758454}, "geometry": {"type": "LineString", "coordinates": [[51.683251504000054, 16.043668165000042], [52.93910261800005, 16.01990877000003]]}}, {"type": "Feature", "properties": {"OBJECTID": 97, "FID_E_Leve": 95, "SHAPE_Leng": 4.23221898779}, "geometry": {"type": "LineString", "coordinates": [[13.186754118000067, 16.930869786000073], [13.188163849000034, 12.698651033000033]]}}, {"type": "Feature", "properties": {"OBJECTID": 98, "FID_E_Leve": 201, "SHAPE_Leng": 1.03116166032}, "geometry": {"type": "LineString", "coordinates": [[13.186754118000067, 16.930869786000073], [12.155592618000071, 16.931444786000043]]}}, {"type": "Feature", "properties": {"OBJECTID": 99, "FID_E_Leve": 61, "SHAPE_Leng": 6.41017093012}, "geometry": {"type": "LineString", "coordinates": [[134.5171851350001, 17.640927274000035], [130.02565875200003, 17.626526115000047], [130.02565875200003, 15.70790465500005]]}}, {"type": "Feature", "properties": {"OBJECTID": 100, "FID_E_Leve": 59, "SHAPE_Leng": 1.96646105974}, "geometry": {"type": "LineString", "coordinates": [[134.5171851350001, 17.640927274000035], [134.52084477800008, 17.28014133100004], [136.12650127400002, 17.279701016000047]]}}, {"type": "Feature", "properties": {"OBJECTID": 101, "FID_E_Leve": 95, "SHAPE_Leng": 1.87924451225}, "geometry": {"type": "LineString", "coordinates": [[13.186128151000048, 18.81011419400005], [13.186754118000067, 16.930869786000073]]}}, {"type": "Feature", "properties": {"OBJECTID": 102, "FID_E_Leve": 216, "SHAPE_Leng": 1.13816918308}, "geometry": {"type": "LineString", "coordinates": [[13.186128151000048, 18.81011419400005], [14.32418547800006, 18.82607069000005]]}}, {"type": "Feature", "properties": {"OBJECTID": 103, "FID_E_Leve": 4, "SHAPE_Leng": 4.089524519}, "geometry": {"type": "LineString", "coordinates": [[158.61296581600004, 15.412646866000046], [158.59687294800005, 19.50213972100005]]}}, {"type": "Feature", "properties": {"OBJECTID": 104, "FID_E_Leve": 151, "SHAPE_Leng": 1.25361360337}, "geometry": {"type": "LineString", "coordinates": [[158.59687294800005, 19.50213972100005], [159.8504863390001, 19.50141001700007]]}}, {"type": "Feature", "properties": {"OBJECTID": 105, "FID_E_Leve": 160, "SHAPE_Leng": 0.969245365536}, "geometry": {"type": "LineString", "coordinates": [[96.77760689600007, 19.56557379800006], [96.77770066700003, 18.596328437000068]]}}, {"type": "Feature", "properties": {"OBJECTID": 106, "FID_E_Leve": 159, "SHAPE_Leng": 2.60039191254}, "geometry": {"type": "LineString", "coordinates": [[96.77760689600007, 19.56557379800006], [95.18814117100004, 19.59736311200004], [95.18848411600004, 18.58675484400004]]}}, {"type": "Feature", "properties": {"OBJECTID": 107, "FID_E_Leve": 156, "SHAPE_Leng": 1.35529623941}, "geometry": {"type": "LineString", "coordinates": [[101.27579489900006, 19.915256257000067], [101.30777044000007, 18.560337270000048]]}}, {"type": "Feature", "properties": {"OBJECTID": 108, "FID_E_Leve": 155, "SHAPE_Leng": 3.05241144039}, "geometry": {"type": "LineString", "coordinates": [[101.27579489900006, 19.915256257000067], [102.91294459600005, 19.931150915000046], [102.96085674600005, 18.516777612000055]]}}, {"type": "Feature", "properties": {"OBJECTID": 109, "FID_E_Leve": 59, "SHAPE_Leng": 2.76590256853}, "geometry": {"type": "LineString", "coordinates": [[134.48913056300012, 20.406687560000023], [134.5171851350001, 17.640927274000035]]}}, {"type": "Feature", "properties": {"OBJECTID": 110, "FID_E_Leve": 60, "SHAPE_Leng": 1.62593375437}, "geometry": {"type": "LineString", "coordinates": [[134.48913056300012, 20.406687560000023], [136.11503386100003, 20.39673571900005]]}}, {"type": "Feature", "properties": {"OBJECTID": 111, "FID_E_Leve": 161, "SHAPE_Leng": 3.85941692932}, "geometry": {"type": "LineString", "coordinates": [[96.76777651200007, 20.503422141000044], [92.90839354400003, 20.48723138300005]]}}, {"type": "Feature", "properties": {"OBJECTID": 112, "FID_E_Leve": 159, "SHAPE_Leng": 0.937899861882}, "geometry": {"type": "LineString", "coordinates": [[96.76777651200007, 20.503422141000044], [96.77760689600007, 19.56557379800006]]}}, {"type": "Feature", "properties": {"OBJECTID": 113, "FID_E_Leve": 179, "SHAPE_Leng": 3.55241861413}, "geometry": {"type": "LineString", "coordinates": [[59.80638663500008, 20.64788922200006], [60.54434175400007, 20.67808857700004], [60.58289285800004, 17.86450684500005]]}}, {"type": "Feature", "properties": {"OBJECTID": 114, "FID_E_Leve": 95, "SHAPE_Leng": 1.97977718483}, "geometry": {"type": "LineString", "coordinates": [[13.185468697000033, 20.789891269000066], [13.186128151000048, 18.81011419400005]]}}, {"type": "Feature", "properties": {"OBJECTID": 115, "FID_E_Leve": 214, "SHAPE_Leng": 1.09474939866}, "geometry": {"type": "LineString", "coordinates": [[13.185468697000033, 20.789891269000066], [14.280178635000027, 20.799186295000027]]}}, {"type": "Feature", "properties": {"OBJECTID": 116, "FID_E_Leve": 94, "SHAPE_Leng": 12.9027816342}, "geometry": {"type": "LineString", "coordinates": [[59.80638663500008, 20.64788922200006], [51.683251504000054, 20.821460486000035], [51.683251504000054, 16.043668165000042]]}}, {"type": "Feature", "properties": {"OBJECTID": 117, "FID_E_Leve": 148, "SHAPE_Leng": 2.71657943962}, "geometry": {"type": "LineString", "coordinates": [[113.43762823300005, 21.033670836000056], [113.43784459200003, 18.317091405000042]]}}, {"type": "Feature", "properties": {"OBJECTID": 118, "FID_E_Leve": 59, "SHAPE_Leng": 0.639793399009}, "geometry": {"type": "LineString", "coordinates": [[134.48264113400012, 21.04644804700007], [134.48913056300012, 20.406687560000023]]}}, {"type": "Feature", "properties": {"OBJECTID": 119, "FID_E_Leve": 159, "SHAPE_Leng": 0.565757963117}, "geometry": {"type": "LineString", "coordinates": [[96.76184664800007, 21.069149027000037], [96.76777651200007, 20.503422141000044]]}}, {"type": "Feature", "properties": {"OBJECTID": 120, "FID_E_Leve": 155, "SHAPE_Leng": 1.16585095415}, "geometry": {"type": "LineString", "coordinates": [[101.26026362300007, 21.08100375400005], [101.27579489900006, 19.915256257000067]]}}, {"type": "Feature", "properties": {"OBJECTID": 121, "FID_E_Leve": 153, "SHAPE_Leng": 2.71082053054}, "geometry": {"type": "LineString", "coordinates": [[106.02779441700005, 21.098025886000073], [106.01207525300003, 18.38725093100004]]}}, {"type": "Feature", "properties": {"OBJECTID": 122, "FID_E_Leve": 95, "SHAPE_Leng": 0.923375960225}, "geometry": {"type": "LineString", "coordinates": [[13.185161125000036, 21.713267178000024], [13.185468697000033, 20.789891269000066]]}}, {"type": "Feature", "properties": {"OBJECTID": 123, "FID_E_Leve": 200, "SHAPE_Leng": 0.97158951651}, "geometry": {"type": "LineString", "coordinates": [[13.185161125000036, 21.713267178000024], [12.213575191000075, 21.715905633000034]]}}, {"type": "Feature", "properties": {"OBJECTID": 124, "FID_E_Leve": 95, "SHAPE_Leng": 0.804572991635}, "geometry": {"type": "LineString", "coordinates": [[13.184893126000077, 22.517840125000077], [13.185161125000036, 21.713267178000024]]}}, {"type": "Feature", "properties": {"OBJECTID": 125, "FID_E_Leve": 95, "SHAPE_Leng": 6.30372493954}, "geometry": {"type": "LineString", "coordinates": [[19.488472092000052, 22.560739225000077], [13.184893126000077, 22.517840125000077]]}}, {"type": "Feature", "properties": {"OBJECTID": 126, "FID_E_Leve": 215, "SHAPE_Leng": 1.0811763354}, "geometry": {"type": "LineString", "coordinates": [[19.488472092000052, 22.560739225000077], [19.49731926100003, 21.479599088000043]]}}, {"type": "Feature", "properties": {"OBJECTID": 127, "FID_E_Leve": 95, "SHAPE_Leng": 2.82617060782}, "geometry": {"type": "LineString", "coordinates": [[22.314577255000074, 22.579972326000075], [19.488472092000052, 22.560739225000077]]}}, {"type": "Feature", "properties": {"OBJECTID": 128, "FID_E_Leve": 95, "SHAPE_Leng": 8.21070616496}, "geometry": {"type": "LineString", "coordinates": [[30.52509328700006, 22.635849115000042], [22.314577255000074, 22.579972326000075]]}}, {"type": "Feature", "properties": {"OBJECTID": 129, "FID_E_Leve": 95, "SHAPE_Leng": 10.5801061725}, "geometry": {"type": "LineString", "coordinates": [[41.104954459000055, 22.707850517000054], [30.52509328700006, 22.635849115000042]]}}, {"type": "Feature", "properties": {"OBJECTID": 130, "FID_E_Leve": 95, "SHAPE_Leng": 9.9443610037}, "geometry": {"type": "LineString", "coordinates": [[51.049085184000035, 22.775525446000074], [41.104954459000055, 22.707850517000054]]}}, {"type": "Feature", "properties": {"OBJECTID": 131, "FID_E_Leve": 72, "SHAPE_Leng": 0.35496345445}, "geometry": {"type": "LineString", "coordinates": [[115.65931136400002, 22.78903066600003], [116.01427447000003, 22.789528033000067]]}}, {"type": "Feature", "properties": {"OBJECTID": 132, "FID_E_Leve": 146, "SHAPE_Leng": 1.64579858539}, "geometry": {"type": "LineString", "coordinates": [[116.01427447000003, 22.789528033000067], [116.0521934190001, 21.14416632900003]]}}, {"type": "Feature", "properties": {"OBJECTID": 133, "FID_E_Leve": 147, "SHAPE_Leng": 1.75729372847}, "geometry": {"type": "LineString", "coordinates": [[113.41926801500006, 22.79086864800007], [113.43762823300005, 21.033670836000056]]}}, {"type": "Feature", "properties": {"OBJECTID": 134, "FID_E_Leve": 93, "SHAPE_Leng": 2.24004410304}, "geometry": {"type": "LineString", "coordinates": [[115.65931136400002, 22.78903066600003], [113.41926801500006, 22.79086864800007]]}}, {"type": "Feature", "properties": {"OBJECTID": 135, "FID_E_Leve": 93, "SHAPE_Leng": 3.61782868183}, "geometry": {"type": "LineString", "coordinates": [[113.41926801500006, 22.79086864800007], [109.80144055100004, 22.793837119000045]]}}, {"type": "Feature", "properties": {"OBJECTID": 136, "FID_E_Leve": 72, "SHAPE_Leng": 3.12525401091}, "geometry": {"type": "LineString", "coordinates": [[116.01427447000003, 22.789528033000067], [119.13952541300011, 22.79390707400006]]}}, {"type": "Feature", "properties": {"OBJECTID": 137, "FID_E_Leve": 72, "SHAPE_Leng": 0.712341216272}, "geometry": {"type": "LineString", "coordinates": [[119.13952541300011, 22.79390707400006], [119.85186593000003, 22.794905192000044]]}}, {"type": "Feature", "properties": {"OBJECTID": 138, "FID_E_Leve": 33, "SHAPE_Leng": 1.59454004104}, "geometry": {"type": "LineString", "coordinates": [[119.85186593000003, 22.794905192000044], [119.830744073, 21.20050505100005]]}}, {"type": "Feature", "properties": {"OBJECTID": 139, "FID_E_Leve": 152, "SHAPE_Leng": 1.69898973681}, "geometry": {"type": "LineString", "coordinates": [[106.01241970500007, 22.796946056000024], [106.02779441700005, 21.098025886000073]]}}, {"type": "Feature", "properties": {"OBJECTID": 140, "FID_E_Leve": 93, "SHAPE_Leng": 3.78902212146}, "geometry": {"type": "LineString", "coordinates": [[109.80144055100004, 22.793837119000045], [106.01241970500007, 22.796946056000024]]}}, {"type": "Feature", "properties": {"OBJECTID": 141, "FID_E_Leve": 73, "SHAPE_Leng": 2.30151823629}, "geometry": {"type": "LineString", "coordinates": [[119.85186593000003, 22.794905192000044], [122.15338190700004, 22.798130031000028]]}}, {"type": "Feature", "properties": {"OBJECTID": 142, "FID_E_Leve": 93, "SHAPE_Leng": 2.76902307511}, "geometry": {"type": "LineString", "coordinates": [[106.01241970500007, 22.796946056000024], [103.24339756200004, 22.79921807200003]]}}, {"type": "Feature", "properties": {"OBJECTID": 143, "FID_E_Leve": 154, "SHAPE_Leng": 1.7201677555}, "geometry": {"type": "LineString", "coordinates": [[101.22814413500004, 22.800871611000048], [101.26026362300007, 21.08100375400005]]}}, {"type": "Feature", "properties": {"OBJECTID": 144, "FID_E_Leve": 93, "SHAPE_Leng": 2.01525410537}, "geometry": {"type": "LineString", "coordinates": [[103.24339756200004, 22.79921807200003], [101.22814413500004, 22.800871611000048]]}}, {"type": "Feature", "properties": {"OBJECTID": 145, "FID_E_Leve": 93, "SHAPE_Leng": 0.594220781026}, "geometry": {"type": "LineString", "coordinates": [[101.22814413500004, 22.800871611000048], [100.63392355400003, 22.801359176000062]]}}, {"type": "Feature", "properties": {"OBJECTID": 146, "FID_E_Leve": 73, "SHAPE_Leng": 2.60121235249}, "geometry": {"type": "LineString", "coordinates": [[122.15338190700004, 22.798130031000028], [124.75459170600004, 22.801774796000075]]}}, {"type": "Feature", "properties": {"OBJECTID": 147, "FID_E_Leve": 2, "SHAPE_Leng": 11.375510481}, "geometry": {"type": "LineString", "coordinates": [[124.75459170600004, 22.801774796000075], [124.85747808400004, 11.426729605000048]]}}, {"type": "Feature", "properties": {"OBJECTID": 148, "FID_E_Leve": 157, "SHAPE_Leng": 1.72765910385}, "geometry": {"type": "LineString", "coordinates": [[98.98697288700004, 22.802710519000073], [99.03464822600006, 21.07570934900008]]}}, {"type": "Feature", "properties": {"OBJECTID": 149, "FID_E_Leve": 93, "SHAPE_Leng": 1.6469512214}, "geometry": {"type": "LineString", "coordinates": [[100.63392355400003, 22.801359176000062], [98.98697288700004, 22.802710519000073]]}}, {"type": "Feature", "properties": {"OBJECTID": 150, "FID_E_Leve": 95, "SHAPE_Leng": 4.12956609517}, "geometry": {"type": "LineString", "coordinates": [[55.17855565200006, 22.80362861800006], [51.049085184000035, 22.775525446000074]]}}, {"type": "Feature", "properties": {"OBJECTID": 151, "FID_E_Leve": 158, "SHAPE_Leng": 1.73547470278}, "geometry": {"type": "LineString", "coordinates": [[96.74578859800005, 22.80454943700005], [96.76184664800007, 21.069149027000037]]}}, {"type": "Feature", "properties": {"OBJECTID": 152, "FID_E_Leve": 93, "SHAPE_Leng": 2.24118504343}, "geometry": {"type": "LineString", "coordinates": [[98.98697288700004, 22.802710519000073], [96.74578859800005, 22.80454943700005]]}}, {"type": "Feature", "properties": {"OBJECTID": 153, "FID_E_Leve": 93, "SHAPE_Leng": 2.22161271384}, "geometry": {"type": "LineString", "coordinates": [[96.74578859800005, 22.80454943700005], [94.52417663200004, 22.806372297000053]]}}, {"type": "Feature", "properties": {"OBJECTID": 154, "FID_E_Leve": 74, "SHAPE_Leng": 3.69273392698}, "geometry": {"type": "LineString", "coordinates": [[124.75459170600004, 22.801774796000075], [128.44732200800001, 22.806948978000037]]}}, {"type": "Feature", "properties": {"OBJECTID": 155, "FID_E_Leve": 162, "SHAPE_Leng": 1.76081598439}, "geometry": {"type": "LineString", "coordinates": [[88.92562249400004, 22.810965977000023], [88.92544068600006, 21.050150002000066]]}}, {"type": "Feature", "properties": {"OBJECTID": 156, "FID_E_Leve": 93, "SHAPE_Leng": 5.59855602258}, "geometry": {"type": "LineString", "coordinates": [[94.52417663200004, 22.806372297000053], [88.92562249400004, 22.810965977000023]]}}, {"type": "Feature", "properties": {"OBJECTID": 157, "FID_E_Leve": 75, "SHAPE_Leng": 6.01635145496}, "geometry": {"type": "LineString", "coordinates": [[128.44732200800001, 22.806948978000037], [134.463667557, 22.815378964000047]]}}, {"type": "Feature", "properties": {"OBJECTID": 158, "FID_E_Leve": 31, "SHAPE_Leng": 1.7690326695}, "geometry": {"type": "LineString", "coordinates": [[134.463667557, 22.815378964000047], [134.48264113400012, 21.04644804700007]]}}, {"type": "Feature", "properties": {"OBJECTID": 159, "FID_E_Leve": 76, "SHAPE_Leng": 0.182043196703}, "geometry": {"type": "LineString", "coordinates": [[134.463667557, 22.815378964000047], [134.64571057500007, 22.81563403900003]]}}, {"type": "Feature", "properties": {"OBJECTID": 160, "FID_E_Leve": 163, "SHAPE_Leng": 1.64343067759}, "geometry": {"type": "LineString", "coordinates": [[82.47246120300008, 22.816260873000033], [82.45652481500008, 21.172907465000037]]}}, {"type": "Feature", "properties": {"OBJECTID": 161, "FID_E_Leve": 93, "SHAPE_Leng": 6.45316346326}, "geometry": {"type": "LineString", "coordinates": [[88.92562249400004, 22.810965977000023], [82.47246120300008, 22.816260873000033]]}}, {"type": "Feature", "properties": {"OBJECTID": 162, "FID_E_Leve": 93, "SHAPE_Leng": 0.310220530427}, "geometry": {"type": "LineString", "coordinates": [[82.47246120300008, 22.816260873000033], [82.16224077700008, 22.816515413000047]]}}, {"type": "Feature", "properties": {"OBJECTID": 163, "FID_E_Leve": 93, "SHAPE_Leng": 3.07239850223}, "geometry": {"type": "LineString", "coordinates": [[82.16224077700008, 22.816515413000047], [79.08984330900006, 22.81903635200007]]}}, {"type": "Feature", "properties": {"OBJECTID": 164, "FID_E_Leve": 95, "SHAPE_Leng": 2.71526520562}, "geometry": {"type": "LineString", "coordinates": [[57.89375798100008, 22.82210696800007], [55.17855565200006, 22.80362861800006]]}}, {"type": "Feature", "properties": {"OBJECTID": 165, "FID_E_Leve": 77, "SHAPE_Leng": 5.9683052978}, "geometry": {"type": "LineString", "coordinates": [[134.64571057500007, 22.81563403900003], [140.6140100140001, 22.823996704000024]]}}, {"type": "Feature", "properties": {"OBJECTID": 166, "FID_E_Leve": 30, "SHAPE_Leng": 1.81284333195}, "geometry": {"type": "LineString", "coordinates": [[140.6140100140001, 22.823996704000024], [140.69152647900012, 21.012811417000023]]}}, {"type": "Feature", "properties": {"OBJECTID": 167, "FID_E_Leve": 93, "SHAPE_Leng": 6.14497426252}, "geometry": {"type": "LineString", "coordinates": [[79.08984330900006, 22.81903635200007], [72.94487111500007, 22.824078375000056]]}}, {"type": "Feature", "properties": {"OBJECTID": 168, "FID_E_Leve": 78, "SHAPE_Leng": 0.214387997454}, "geometry": {"type": "LineString", "coordinates": [[140.6140100140001, 22.823996704000024], [140.82839780100005, 22.824297100000024]]}}, {"type": "Feature", "properties": {"OBJECTID": 169, "FID_E_Leve": 164, "SHAPE_Leng": 1.64123129284}, "geometry": {"type": "LineString", "coordinates": [[70.32148664300007, 22.82623089300006], [70.29340942400006, 21.185239782000053]]}}, {"type": "Feature", "properties": {"OBJECTID": 170, "FID_E_Leve": 93, "SHAPE_Leng": 2.62338535508}, "geometry": {"type": "LineString", "coordinates": [[72.94487111500007, 22.824078375000056], [70.32148664300007, 22.82623089300006]]}}, {"type": "Feature", "properties": {"OBJECTID": 171, "FID_E_Leve": 93, "SHAPE_Leng": 2.89749195935}, "geometry": {"type": "LineString", "coordinates": [[70.32148664300007, 22.82623089300006], [67.42399565900007, 22.828608319000068]]}}, {"type": "Feature", "properties": {"OBJECTID": 172, "FID_E_Leve": 177, "SHAPE_Leng": 1.25769666993}, "geometry": {"type": "LineString", "coordinates": [[65.09557566500007, 22.83051881500006], [65.04724558700008, 21.57375108900004]]}}, {"type": "Feature", "properties": {"OBJECTID": 173, "FID_E_Leve": 93, "SHAPE_Leng": 2.32842077779}, "geometry": {"type": "LineString", "coordinates": [[67.42399565900007, 22.828608319000068], [65.09557566500007, 22.83051881500006]]}}, {"type": "Feature", "properties": {"OBJECTID": 174, "FID_E_Leve": 178, "SHAPE_Leng": 1.25318485301}, "geometry": {"type": "LineString", "coordinates": [[63.03131477100004, 22.832212566000067], [63.031318474000045, 21.579027713000073]]}}, {"type": "Feature", "properties": {"OBJECTID": 175, "FID_E_Leve": 93, "SHAPE_Leng": 2.06426158887}, "geometry": {"type": "LineString", "coordinates": [[65.09557566500007, 22.83051881500006], [63.03131477100004, 22.832212566000067]]}}, {"type": "Feature", "properties": {"OBJECTID": 176, "FID_E_Leve": 79, "SHAPE_Leng": 6.06638065407}, "geometry": {"type": "LineString", "coordinates": [[140.82839780100005, 22.824297100000024], [146.89477250000004, 22.83279718600005]]}}, {"type": "Feature", "properties": {"OBJECTID": 177, "FID_E_Leve": 95, "SHAPE_Leng": 1.87795788933}, "geometry": {"type": "LineString", "coordinates": [[59.771672383000066, 22.83488714200007], [57.89375798100008, 22.82210696800007]]}}, {"type": "Feature", "properties": {"OBJECTID": 178, "FID_E_Leve": 94, "SHAPE_Leng": 2.18727341258}, "geometry": {"type": "LineString", "coordinates": [[59.771672383000066, 22.83488714200007], [59.80638663500008, 20.64788922200006]]}}, {"type": "Feature", "properties": {"OBJECTID": 179, "FID_E_Leve": 93, "SHAPE_Leng": 3.25964348526}, "geometry": {"type": "LineString", "coordinates": [[63.03131477100004, 22.832212566000067], [59.771672383000066, 22.83488714200007]]}}, {"type": "Feature", "properties": {"OBJECTID": 180, "FID_E_Leve": 80, "SHAPE_Leng": 2.56635996727}, "geometry": {"type": "LineString", "coordinates": [[146.89477250000004, 22.83279718600005], [149.46112994800012, 22.836393116000067]]}}, {"type": "Feature", "properties": {"OBJECTID": 181, "FID_E_Leve": 29, "SHAPE_Leng": 1.85301829999}, "geometry": {"type": "LineString", "coordinates": [[149.46112994800012, 22.836393116000067], [149.46957936700005, 20.98339408000004]]}}, {"type": "Feature", "properties": {"OBJECTID": 182, "FID_E_Leve": 81, "SHAPE_Leng": 1.02940646652}, "geometry": {"type": "LineString", "coordinates": [[149.46112994800012, 22.836393116000067], [150.49053540400007, 22.83783549900005]]}}, {"type": "Feature", "properties": {"OBJECTID": 183, "FID_E_Leve": 28, "SHAPE_Leng": 1.85876659085}, "geometry": {"type": "LineString", "coordinates": [[150.49053540400007, 22.83783549900005], [150.49031681500003, 20.979068921000078]]}}, {"type": "Feature", "properties": {"OBJECTID": 184, "FID_E_Leve": 82, "SHAPE_Leng": 2.59647493283}, "geometry": {"type": "LineString", "coordinates": [[150.49053540400007, 22.83783549900005], [153.08700778800005, 22.84147362500005]]}}, {"type": "Feature", "properties": {"OBJECTID": 185, "FID_E_Leve": 83, "SHAPE_Leng": 2.86249541597}, "geometry": {"type": "LineString", "coordinates": [[153.08700778800005, 22.84147362500005], [155.9495003940001, 22.84548449400006]]}}, {"type": "Feature", "properties": {"OBJECTID": 186, "FID_E_Leve": 27, "SHAPE_Leng": 1.81935708167}, "geometry": {"type": "LineString", "coordinates": [[155.9495003940001, 22.84548449400006], [155.96679179300008, 21.02620958400007]]}}, {"type": "Feature", "properties": {"OBJECTID": 187, "FID_E_Leve": 84, "SHAPE_Leng": 0.256291695588}, "geometry": {"type": "LineString", "coordinates": [[155.9495003940001, 22.84548449400006], [156.2057918380001, 22.845843604000038]]}}, {"type": "Feature", "properties": {"OBJECTID": 188, "FID_E_Leve": 85, "SHAPE_Leng": 2.37791227528}, "geometry": {"type": "LineString", "coordinates": [[156.2057918380001, 22.845843604000038], [158.58370177900008, 22.849175485000046]]}}, {"type": "Feature", "properties": {"OBJECTID": 189, "FID_E_Leve": 4, "SHAPE_Leng": 3.34706167932}, "geometry": {"type": "LineString", "coordinates": [[158.59687294800005, 19.50213972100005], [158.58370177900008, 22.849175485000046]]}}, {"type": "Feature", "properties": {"OBJECTID": 190, "FID_E_Leve": 86, "SHAPE_Leng": 0.230474981247}, "geometry": {"type": "LineString", "coordinates": [[158.58370177900008, 22.849175485000046], [158.814176534, 22.849498422000067]]}}, {"type": "Feature", "properties": {"OBJECTID": 191, "FID_E_Leve": 87, "SHAPE_Leng": 3.7539813441}, "geometry": {"type": "LineString", "coordinates": [[158.814176534, 22.849498422000067], [162.56815419300005, 22.85475842200003]]}}, {"type": "Feature", "properties": {"OBJECTID": 192, "FID_E_Leve": 88, "SHAPE_Leng": 2.11860064773}, "geometry": {"type": "LineString", "coordinates": [[162.56815419300005, 22.85475842200003], [164.6867527610001, 22.857726961000026]]}}, {"type": "Feature", "properties": {"OBJECTID": 193, "FID_E_Leve": 89, "SHAPE_Leng": 0.521500296933}, "geometry": {"type": "LineString", "coordinates": [[164.6867527610001, 22.857726961000026], [165.20825254600004, 22.858457677000047]]}}, {"type": "Feature", "properties": {"OBJECTID": 194, "FID_E_Leve": 217, "SHAPE_Leng": 1.78520062977}, "geometry": {"type": "LineString", "coordinates": [[165.20825254600004, 22.858457677000047], [165.2586903990001, 21.07396970800005]]}}, {"type": "Feature", "properties": {"OBJECTID": 195, "FID_E_Leve": 89, "SHAPE_Leng": 1.00505111961}, "geometry": {"type": "LineString", "coordinates": [[165.20825254600004, 22.858457677000047], [166.2133026790001, 22.859865933000037]]}}, {"type": "Feature", "properties": {"OBJECTID": 196, "FID_E_Leve": 1, "SHAPE_Leng": 2.13729557708}, "geometry": {"type": "LineString", "coordinates": [[166.2133026790001, 22.859865933000037], [168.35059615800003, 22.862860666000074]]}}, {"type": "Feature", "properties": {"OBJECTID": 197, "FID_E_Leve": 43, "SHAPE_Leng": 1.74489910124}, "geometry": {"type": "LineString", "coordinates": [[168.35059615800003, 22.862860666000074], [168.37418176100005, 21.118120974000078]]}}, {"type": "Feature", "properties": {"OBJECTID": 198, "FID_E_Leve": 91, "SHAPE_Leng": 0.15841561051}, "geometry": {"type": "LineString", "coordinates": [[168.35059615800003, 22.862860666000074], [168.5090116130001, 22.86308263500007]]}}, {"type": "Feature", "properties": {"OBJECTID": 199, "FID_E_Leve": 90, "SHAPE_Leng": 1.44824033267}, "geometry": {"type": "LineString", "coordinates": [[168.5090116130001, 22.86308263500007], [169.95725052400007, 22.86511187900004]]}}, {"type": "Feature", "properties": {"OBJECTID": 200, "FID_E_Leve": 199, "SHAPE_Leng": 1.64709666436}, "geometry": {"type": "LineString", "coordinates": [[13.184893126000077, 22.517840125000077], [13.194193810000058, 24.164910530000043]]}}, {"type": "Feature", "properties": {"OBJECTID": 201, "FID_E_Leve": 193, "SHAPE_Leng": 1.46579687219}, "geometry": {"type": "LineString", "coordinates": [[41.104954459000055, 22.707850517000054], [41.126396913000065, 24.17349054500005]]}}, {"type": "Feature", "properties": {"OBJECTID": 202, "FID_E_Leve": 194, "SHAPE_Leng": 1.60215564208}, "geometry": {"type": "LineString", "coordinates": [[30.52509328700006, 22.635849115000042], [30.242545249000045, 24.21289360000003]]}}, {"type": "Feature", "properties": {"OBJECTID": 203, "FID_E_Leve": 188, "SHAPE_Leng": 1.45239066011}, "geometry": {"type": "LineString", "coordinates": [[51.049085184000035, 22.775525446000074], [51.07711846900003, 24.227645539000036]]}}, {"type": "Feature", "properties": {"OBJECTID": 204, "FID_E_Leve": 195, "SHAPE_Leng": 1.68294656857}, "geometry": {"type": "LineString", "coordinates": [[22.314577255000074, 22.579972326000075], [22.356517532000055, 24.262396222000064]]}}, {"type": "Feature", "properties": {"OBJECTID": 205, "FID_E_Leve": 187, "SHAPE_Leng": 1.47425667442}, "geometry": {"type": "LineString", "coordinates": [[55.17855565200006, 22.80362861800006], [55.17676669000008, 24.277884207000056]]}}, {"type": "Feature", "properties": {"OBJECTID": 206, "FID_E_Leve": 189, "SHAPE_Leng": 1.49018564841}, "geometry": {"type": "LineString", "coordinates": [[57.89375798100008, 22.82210696800007], [57.836659818000044, 24.31119832400003]]}}, {"type": "Feature", "properties": {"OBJECTID": 207, "FID_E_Leve": 166, "SHAPE_Leng": 1.69876046635}, "geometry": {"type": "LineString", "coordinates": [[100.63392355400003, 22.801359176000062], [100.63395807400008, 24.500119642000072]]}}, {"type": "Feature", "properties": {"OBJECTID": 208, "FID_E_Leve": 165, "SHAPE_Leng": 1.72487714931}, "geometry": {"type": "LineString", "coordinates": [[103.24339756200004, 22.79921807200003], [103.24318329500005, 24.524095208000062]]}}, {"type": "Feature", "properties": {"OBJECTID": 209, "FID_E_Leve": 41, "SHAPE_Leng": 1.68892011618}, "geometry": {"type": "LineString", "coordinates": [[164.6867527610001, 22.857726961000026], [164.70054603100004, 24.546590752000043]]}}, {"type": "Feature", "properties": {"OBJECTID": 210, "FID_E_Leve": 42, "SHAPE_Leng": 1.68710343121}, "geometry": {"type": "LineString", "coordinates": [[166.2133026790001, 22.859865933000037], [166.21194758700005, 24.546968820000075]]}}, {"type": "Feature", "properties": {"OBJECTID": 211, "FID_E_Leve": 171, "SHAPE_Leng": 1.73600727208}, "geometry": {"type": "LineString", "coordinates": [[79.08984330900006, 22.81903635200007], [79.11386710900007, 24.55487738900007]]}}, {"type": "Feature", "properties": {"OBJECTID": 212, "FID_E_Leve": 38, "SHAPE_Leng": 1.72353471555}, "geometry": {"type": "LineString", "coordinates": [[156.2057918380001, 22.845843604000038], [156.1841668410001, 24.569242651000025]]}}, {"type": "Feature", "properties": {"OBJECTID": 213, "FID_E_Leve": 39, "SHAPE_Leng": 1.72150519725}, "geometry": {"type": "LineString", "coordinates": [[158.814176534, 22.849498422000067], [158.78023110800007, 24.57066891100004]]}}, {"type": "Feature", "properties": {"OBJECTID": 214, "FID_E_Leve": 175, "SHAPE_Leng": 1.75157608192}, "geometry": {"type": "LineString", "coordinates": [[72.94487111500007, 22.824078375000056], [72.89688669300006, 24.574997067000027]]}}, {"type": "Feature", "properties": {"OBJECTID": 215, "FID_E_Leve": 149, "SHAPE_Leng": 1.78300899785}, "geometry": {"type": "LineString", "coordinates": [[109.80144055100004, 22.793837119000045], [109.78142367500004, 24.57673375400003]]}}, {"type": "Feature", "properties": {"OBJECTID": 216, "FID_E_Leve": 169, "SHAPE_Leng": 1.77887935657}, "geometry": {"type": "LineString", "coordinates": [[94.52417663200004, 22.806372297000053], [94.50121880000006, 24.585103503000028]]}}, {"type": "Feature", "properties": {"OBJECTID": 217, "FID_E_Leve": 32, "SHAPE_Leng": 1.78766810979}, "geometry": {"type": "LineString", "coordinates": [[128.44732200800001, 22.806948978000037], [128.40841420000004, 24.594193632000042]]}}, {"type": "Feature", "properties": {"OBJECTID": 218, "FID_E_Leve": 40, "SHAPE_Leng": 1.7349702114}, "geometry": {"type": "LineString", "coordinates": [[168.5090116130001, 22.86308263500007], [168.48675851200005, 24.59791012900007]]}}, {"type": "Feature", "properties": {"OBJECTID": 219, "FID_E_Leve": 36, "SHAPE_Leng": 1.76816456283}, "geometry": {"type": "LineString", "coordinates": [[146.89477250000004, 22.83279718600005], [146.88310295000008, 24.600923240000043]]}}, {"type": "Feature", "properties": {"OBJECTID": 220, "FID_E_Leve": 35, "SHAPE_Leng": 1.78651348791}, "geometry": {"type": "LineString", "coordinates": [[140.82839780100005, 22.824297100000024], [140.79896525300012, 24.610568123000064]]}}, {"type": "Feature", "properties": {"OBJECTID": 221, "FID_E_Leve": 37, "SHAPE_Leng": 1.76997049581}, "geometry": {"type": "LineString", "coordinates": [[153.08700778800005, 22.84147362500005], [153.07490122500008, 24.611402716000043]]}}, {"type": "Feature", "properties": {"OBJECTID": 222, "FID_E_Leve": 34, "SHAPE_Leng": 1.81607242739}, "geometry": {"type": "LineString", "coordinates": [[134.64571057500007, 22.81563403900003], [134.63894147000008, 24.631693851000023]]}}, {"type": "Feature", "properties": {"OBJECTID": 223, "FID_E_Leve": 150, "SHAPE_Leng": 1.85161305076}, "geometry": {"type": "LineString", "coordinates": [[119.13952541300011, 22.79390707400006], [119.1019795630001, 24.645139420000078]]}}, {"type": "Feature", "properties": {"OBJECTID": 224, "FID_E_Leve": 170, "SHAPE_Leng": 1.83447853484}, "geometry": {"type": "LineString", "coordinates": [[82.16224077700008, 22.816515413000047], [82.16232289600003, 24.65099394600003]]}}, {"type": "Feature", "properties": {"OBJECTID": 225, "FID_E_Leve": 176, "SHAPE_Leng": 2.00622572538}, "geometry": {"type": "LineString", "coordinates": [[67.42399565900007, 22.828608319000068], [67.44770435500004, 24.83469395000003]]}}, {"type": "Feature", "properties": {"OBJECTID": 226, "FID_E_Leve": 190, "SHAPE_Leng": 5.43109874197}, "geometry": {"type": "LineString", "coordinates": [[51.07711846900003, 24.227645539000036], [51.07711975700005, 25.16036280900005], [46.579538780000064, 25.245222827000077]]}}, {"type": "Feature", "properties": {"OBJECTID": 227, "FID_E_Leve": 196, "SHAPE_Leng": 1.06936790074}, "geometry": {"type": "LineString", "coordinates": [[22.356517532000055, 24.262396222000064], [22.356317317000048, 25.331764104000058]]}}, {"type": "Feature", "properties": {"OBJECTID": 228, "FID_E_Leve": 197, "SHAPE_Leng": 1.49161573299}, "geometry": {"type": "LineString", "coordinates": [[22.356317317000048, 25.331764104000058], [23.84778589600006, 25.35271578100003]]}}, {"type": "Feature", "properties": {"OBJECTID": 229, "FID_E_Leve": 196, "SHAPE_Leng": 1.32278474726}, "geometry": {"type": "LineString", "coordinates": [[22.356317317000048, 25.331764104000058], [21.036278457000037, 25.416951519000065]]}}, {"type": "Feature", "properties": {"OBJECTID": 230, "FID_E_Leve": 53, "SHAPE_Leng": 2.40471224669}, "geometry": {"type": "LineString", "coordinates": [[168.48675851200005, 24.59791012900007], [168.48146529100006, 27.002616550000027]]}}, {"type": "Feature", "properties": {"OBJECTID": 231, "FID_E_Leve": 55, "SHAPE_Leng": 4.03402944577}, "geometry": {"type": "LineString", "coordinates": [[168.48146529100006, 27.002616550000027], [172.51546796500008, 27.01731333400005]]}}, {"type": "Feature", "properties": {"OBJECTID": 232, "FID_E_Leve": 198, "SHAPE_Leng": 2.97905874334}, "geometry": {"type": "LineString", "coordinates": [[21.036278457000037, 25.416951519000065], [19.965125404000048, 25.395247075000043], [19.986286395000036, 27.302815525000028]]}}, {"type": "Feature", "properties": {"OBJECTID": 233, "FID_E_Leve": 5, "SHAPE_Leng": 5.43104876633}, "geometry": {"type": "LineString", "coordinates": [[162.56815419300005, 22.85475842200003], [162.52650402500012, 27.211636197000075], [163.49068146000002, 27.205203651000033], [163.4888394090001, 27.314961218000064]]}}, {"type": "Feature", "properties": {"OBJECTID": 234, "FID_E_Leve": 44, "SHAPE_Leng": 0.36367945018}, "geometry": {"type": "LineString", "coordinates": [[163.4888394090001, 27.314961218000064], [163.85251883500007, 27.315093835000027]]}}, {"type": "Feature", "properties": {"OBJECTID": 235, "FID_E_Leve": 98, "SHAPE_Leng": 1.51936575458}, "geometry": {"type": "LineString", "coordinates": [[122.1097542550001, 27.65367216900006], [120.59066729200003, 27.624567272000036]]}}, {"type": "Feature", "properties": {"OBJECTID": 236, "FID_E_Leve": 92, "SHAPE_Leng": 4.85573813399}, "geometry": {"type": "LineString", "coordinates": [[122.15338190700004, 22.798130031000028], [122.1097542550001, 27.65367216900006]]}}, {"type": "Feature", "properties": {"OBJECTID": 237, "FID_E_Leve": 172, "SHAPE_Leng": 5.93901810145}, "geometry": {"type": "LineString", "coordinates": [[82.16232289600003, 24.65099394600003], [82.16229675100004, 28.045536595000044], [84.70674896900005, 28.056410322000033]]}}, {"type": "Feature", "properties": {"OBJECTID": 238, "FID_E_Leve": 53, "SHAPE_Leng": 1.52878475166}, "geometry": {"type": "LineString", "coordinates": [[168.48146529100006, 27.002616550000027], [168.47810015000005, 28.53139759800007]]}}, {"type": "Feature", "properties": {"OBJECTID": 239, "FID_E_Leve": 54, "SHAPE_Leng": 3.95368897432}, "geometry": {"type": "LineString", "coordinates": [[168.47810015000005, 28.53139759800007], [172.4313651440001, 28.58929745000006]]}}, {"type": "Feature", "properties": {"OBJECTID": 240, "FID_E_Leve": 99, "SHAPE_Leng": 2.35560375426}, "geometry": {"type": "LineString", "coordinates": [[120.59066729200003, 27.624567272000036], [119.25404671500007, 27.627487159000054], [119.22937395400004, 28.64616840000008]]}}, {"type": "Feature", "properties": {"OBJECTID": 241, "FID_E_Leve": 5, "SHAPE_Leng": 1.62932716658}, "geometry": {"type": "LineString", "coordinates": [[163.4888394090001, 27.314961218000064], [163.4614984110001, 28.94405897000007]]}}, {"type": "Feature", "properties": {"OBJECTID": 242, "FID_E_Leve": 45, "SHAPE_Leng": 0.348482981164}, "geometry": {"type": "LineString", "coordinates": [[163.4614984110001, 28.94405897000007], [163.80998137200004, 28.94417751800006]]}}, {"type": "Feature", "properties": {"OBJECTID": 243, "FID_E_Leve": 173, "SHAPE_Leng": 1.28555319456}, "geometry": {"type": "LineString", "coordinates": [[84.70674896900005, 28.056410322000033], [84.68238751700005, 29.341732669000066]]}}, {"type": "Feature", "properties": {"OBJECTID": 244, "FID_E_Leve": 56, "SHAPE_Leng": 5.76962999229}, "geometry": {"type": "LineString", "coordinates": [[134.63894147000008, 24.631693851000023], [134.60543233700002, 29.468460468000046], [133.67268503600008, 29.468460468000046]]}}, {"type": "Feature", "properties": {"OBJECTID": 245, "FID_E_Leve": 167, "SHAPE_Leng": 6.25840555491}, "geometry": {"type": "LineString", "coordinates": [[103.24318329500005, 24.524095208000062], [103.18957023900003, 29.701794438000036], [104.26980673600008, 29.681412618000024]]}}, {"type": "Feature", "properties": {"OBJECTID": 246, "FID_E_Leve": 174, "SHAPE_Leng": 1.3544111734}, "geometry": {"type": "LineString", "coordinates": [[84.68238751700005, 29.341732669000066], [83.50650601500007, 30.013843017000056]]}}, {"type": "Feature", "properties": {"OBJECTID": 247, "FID_E_Leve": 168, "SHAPE_Leng": 0.56055690917}, "geometry": {"type": "LineString", "coordinates": [[104.26980673600008, 29.681412618000024], [104.26984295400007, 30.241969526000048]]}}, {"type": "Feature", "properties": {"OBJECTID": 248, "FID_E_Leve": 167, "SHAPE_Leng": 2.09137444396}, "geometry": {"type": "LineString", "coordinates": [[104.26980673600008, 29.681412618000024], [105.73396634600005, 29.65378696500005], [105.75790441800007, 30.280284040000026]]}}, {"type": "Feature", "properties": {"OBJECTID": 249, "FID_E_Leve": 172, "SHAPE_Leng": 5.58267370536}, "geometry": {"type": "LineString", "coordinates": [[84.70674896900005, 28.056410322000033], [87.77917117600003, 28.06954033200003], [87.77938261600008, 30.579763766000042]]}}, {"type": "Feature", "properties": {"OBJECTID": 250, "FID_E_Leve": 173, "SHAPE_Leng": 1.25569541296}, "geometry": {"type": "LineString", "coordinates": [[84.68238751700005, 29.341732669000066], [84.65859187600006, 30.597202596000045]]}}, {"type": "Feature", "properties": {"OBJECTID": 251, "FID_E_Leve": 56, "SHAPE_Leng": 2.53487453003}, "geometry": {"type": "LineString", "coordinates": [[133.67268503600008, 29.468460468000046], [132.32705817600004, 29.468460468000046], [132.31752552600005, 30.657669932000033]]}}, {"type": "Feature", "properties": {"OBJECTID": 252, "FID_E_Leve": 57, "SHAPE_Leng": 1.21085915267}, "geometry": {"type": "LineString", "coordinates": [[133.67268503600008, 29.468460468000046], [133.6685546430001, 30.67931257600003]]}}, {"type": "Feature", "properties": {"OBJECTID": 253, "FID_E_Leve": 53, "SHAPE_Leng": 7.30449876284}, "geometry": {"type": "LineString", "coordinates": [[168.47810015000005, 28.53139759800007], [168.47078194200003, 31.856054263000033], [172.45037575900005, 31.899781430000075]]}}, {"type": "Feature", "properties": {"OBJECTID": 254, "FID_E_Leve": 5, "SHAPE_Leng": 5.56110015438}, "geometry": {"type": "LineString", "coordinates": [[163.4614984110001, 28.94405897000007], [163.45979997300003, 29.045259431000034], [162.49467223700003, 29.03886785700007], [162.47891018600012, 33.53357676200005]]}}, {"type": "Feature", "properties": {"OBJECTID": 255, "FID_E_Leve": 47, "SHAPE_Leng": 0.977055649191}, "geometry": {"type": "LineString", "coordinates": [[162.47891018600012, 33.53357676200005], [161.50197692400002, 33.549041018000025]]}}, {"type": "Feature", "properties": {"OBJECTID": 256, "FID_E_Leve": 5, "SHAPE_Leng": 2.1679941515}, "geometry": {"type": "LineString", "coordinates": [[162.47891018600012, 33.53357676200005], [162.4713075080001, 35.70155758300007]]}}, {"type": "Feature", "properties": {"OBJECTID": 257, "FID_E_Leve": 48, "SHAPE_Leng": 1.49979369732}, "geometry": {"type": "LineString", "coordinates": [[162.4713075080001, 35.70155758300007], [163.97108069400008, 35.70940137500003]]}}, {"type": "Feature", "properties": {"OBJECTID": 258, "FID_E_Leve": 5, "SHAPE_Leng": 1.74831315698}, "geometry": {"type": "LineString", "coordinates": [[162.4713075080001, 35.70155758300007], [162.46517655900004, 37.44985999000005]]}}, {"type": "Feature", "properties": {"OBJECTID": 259, "FID_E_Leve": 49, "SHAPE_Leng": 0.913328103102}, "geometry": {"type": "LineString", "coordinates": [[162.46517655900004, 37.44985999000005], [161.55184845700012, 37.449904865000065]]}}, {"type": "Feature", "properties": {"OBJECTID": 260, "FID_E_Leve": 46, "SHAPE_Leng": 0.88918609438}, "geometry": {"type": "LineString", "coordinates": [[162.45442367400005, 40.516154441000026], [161.5652375960001, 40.515983765000044]]}}, {"type": "Feature", "properties": {"OBJECTID": 261, "FID_E_Leve": 5, "SHAPE_Leng": 3.06631330506}, "geometry": {"type": "LineString", "coordinates": [[162.46517655900004, 37.44985999000005], [162.45442367400005, 40.516154441000026]]}}, {"type": "Feature", "properties": {"OBJECTID": 262, "FID_E_Leve": 101, "SHAPE_Leng": 4.94207352146}, "geometry": {"type": "LineString", "coordinates": [[120.73164345500004, 41.633889760000045], [117.23849248600004, 41.60880003900007], [117.23849248600004, 41.073417117000076], [116.32538954800009, 41.048256353000056]]}}, {"type": "Feature", "properties": {"OBJECTID": 263, "FID_E_Leve": 100, "SHAPE_Leng": 1.25248546092}, "geometry": {"type": "LineString", "coordinates": [[121.98412819700002, 41.63523172600003], [120.73164345500004, 41.633889760000045]]}}, {"type": "Feature", "properties": {"OBJECTID": 264, "FID_E_Leve": 92, "SHAPE_Leng": 13.9821239285}, "geometry": {"type": "LineString", "coordinates": [[122.1097542550001, 27.65367216900006], [121.98412819700002, 41.63523172600003]]}}, {"type": "Feature", "properties": {"OBJECTID": 265, "FID_E_Leve": 102, "SHAPE_Leng": 1.40645946444}, "geometry": {"type": "LineString", "coordinates": [[121.98412819700002, 41.63523172600003], [123.3905282290001, 41.622302105000074]]}}, {"type": "Feature", "properties": {"OBJECTID": 266, "FID_E_Leve": 70, "SHAPE_Leng": 4.31177191186}, "geometry": {"type": "LineString", "coordinates": [[168.11756810500003, 42.54745895900004], [168.15635451000003, 40.838858522000066], [170.75905609100005, 40.851294815000074]]}}, {"type": "Feature", "properties": {"OBJECTID": 267, "FID_E_Leve": 71, "SHAPE_Leng": 2.61887283325}, "geometry": {"type": "LineString", "coordinates": [[168.11756810500003, 42.54745895900004], [170.73628366900004, 42.57615933500006]]}}, {"type": "Feature", "properties": {"OBJECTID": 268, "FID_E_Leve": 92, "SHAPE_Leng": 1.58400185532}, "geometry": {"type": "LineString", "coordinates": [[121.98412819700002, 41.63523172600003], [121.969896317, 43.21916964500008]]}}, {"type": "Feature", "properties": {"OBJECTID": 269, "FID_E_Leve": 104, "SHAPE_Leng": 1.23633720539}, "geometry": {"type": "LineString", "coordinates": [[121.969896317, 43.21916964500008], [123.20618114400008, 43.207789313000035]]}}, {"type": "Feature", "properties": {"OBJECTID": 270, "FID_E_Leve": 103, "SHAPE_Leng": 1.22677436729}, "geometry": {"type": "LineString", "coordinates": [[121.969896317, 43.21916964500008], [120.74317158200006, 43.23020471500007]]}}, {"type": "Feature", "properties": {"OBJECTID": 271, "FID_E_Leve": 6, "SHAPE_Leng": 0.853705836152}, "geometry": {"type": "LineString", "coordinates": [[161.58779757700006, 44.20057825500004], [162.4414818580001, 44.20664480700003]]}}, {"type": "Feature", "properties": {"OBJECTID": 272, "FID_E_Leve": 5, "SHAPE_Leng": 3.69051305812}, "geometry": {"type": "LineString", "coordinates": [[162.45442367400005, 40.516154441000026], [162.4414818580001, 44.20664480700003]]}}, {"type": "Feature", "properties": {"OBJECTID": 273, "FID_E_Leve": 118, "SHAPE_Leng": 5.66942537667}, "geometry": {"type": "LineString", "coordinates": [[120.74317158200006, 43.23020471500007], [116.37989960800007, 43.24092238600008], [116.35813362700003, 44.54688125500007]]}}, {"type": "Feature", "properties": {"OBJECTID": 274, "FID_E_Leve": 119, "SHAPE_Leng": 2.28198763215}, "geometry": {"type": "LineString", "coordinates": [[116.35813362700003, 44.54688125500007], [114.07614601700004, 44.54719917700004]]}}, {"type": "Feature", "properties": {"OBJECTID": 275, "FID_E_Leve": 70, "SHAPE_Leng": 2.00838839064}, "geometry": {"type": "LineString", "coordinates": [[168.07198805100006, 44.55533006700006], [168.11756810500003, 42.54745895900004]]}}, {"type": "Feature", "properties": {"OBJECTID": 276, "FID_E_Leve": 67, "SHAPE_Leng": 1.47887800695}, "geometry": {"type": "LineString", "coordinates": [[162.4414818580001, 44.20664480700003], [163.21948458500003, 44.215322385000036], [163.19385573800002, 44.915680500000065]]}}, {"type": "Feature", "properties": {"OBJECTID": 277, "FID_E_Leve": 118, "SHAPE_Leng": 3.84184663048}, "geometry": {"type": "LineString", "coordinates": [[116.35813362700003, 44.54688125500007], [116.33211706500003, 46.10787496900008], [114.0515439180001, 46.09092609700008]]}}, {"type": "Feature", "properties": {"OBJECTID": 278, "FID_E_Leve": 68, "SHAPE_Leng": 7.87928213496}, "geometry": {"type": "LineString", "coordinates": [[163.19385573800002, 44.915680500000065], [163.1648018200001, 46.23144717500003], [165.54771529800007, 46.21125299300007], [165.54771529800007, 44.55533006700006], [168.07198805100006, 44.55533006700006]]}}, {"type": "Feature", "properties": {"OBJECTID": 279, "FID_E_Leve": 69, "SHAPE_Leng": 4.40959659714}, "geometry": {"type": "LineString", "coordinates": [[168.07198805100006, 44.55533006700006], [168.10010599300006, 46.35148129700008], [170.71301744800007, 46.39198023700004]]}}, {"type": "Feature", "properties": {"OBJECTID": 280, "FID_E_Leve": 92, "SHAPE_Leng": 4.1946135355}, "geometry": {"type": "LineString", "coordinates": [[121.969896317, 43.21916964500008], [121.93220871200003, 47.41361387000006]]}}, {"type": "Feature", "properties": {"OBJECTID": 281, "FID_E_Leve": 105, "SHAPE_Leng": 1.30080963593}, "geometry": {"type": "LineString", "coordinates": [[121.93220871200003, 47.41361387000006], [123.23282207800003, 47.39101782800003]]}}, {"type": "Feature", "properties": {"OBJECTID": 282, "FID_E_Leve": 92, "SHAPE_Leng": 3.41860260276}, "geometry": {"type": "LineString", "coordinates": [[121.93220871200003, 47.41361387000006], [121.90149338100002, 50.83207848500007]]}}, {"type": "Feature", "properties": {"OBJECTID": 283, "FID_E_Leve": 106, "SHAPE_Leng": 1.30104066189}, "geometry": {"type": "LineString", "coordinates": [[121.90149338100002, 50.83207848500007], [123.20248273000004, 50.820523500000036]]}}, {"type": "Feature", "properties": {"OBJECTID": 284, "FID_E_Leve": 92, "SHAPE_Leng": 1.5411809489}, "geometry": {"type": "LineString", "coordinates": [[121.90149338100002, 50.83207848500007], [121.88764623700001, 52.37319722600006]]}}, {"type": "Feature", "properties": {"OBJECTID": 285, "FID_E_Leve": 107, "SHAPE_Leng": 1.31585329906}, "geometry": {"type": "LineString", "coordinates": [[121.88764623700001, 52.37319722600006], [123.20330462300001, 52.35054957700004]]}}, {"type": "Feature", "properties": {"OBJECTID": 286, "FID_E_Leve": 121, "SHAPE_Leng": 1.52518733926}, "geometry": {"type": "LineString", "coordinates": [[116.65892231200007, 52.510862348000046], [115.13407107800003, 52.47884463400004]]}}, {"type": "Feature", "properties": {"OBJECTID": 287, "FID_E_Leve": 120, "SHAPE_Leng": 2.98353380134}, "geometry": {"type": "LineString", "coordinates": [[116.65892231200007, 52.510862348000046], [116.66659486700007, 51.04540441800003], [115.14861796600007, 51.02992868800004]]}}, {"type": "Feature", "properties": {"OBJECTID": 288, "FID_E_Leve": 92, "SHAPE_Leng": 1.73153884747}, "geometry": {"type": "LineString", "coordinates": [[121.88764623700001, 52.37319722600006], [121.8720887720001, 54.104666182000074]]}}, {"type": "Feature", "properties": {"OBJECTID": 289, "FID_E_Leve": 120, "SHAPE_Leng": 5.66995793775}, "geometry": {"type": "LineString", "coordinates": [[120.74380896700006, 54.11579740500008], [116.65066735200003, 54.08755965900008], [116.65892231200007, 52.510862348000046]]}}, {"type": "Feature", "properties": {"OBJECTID": 290, "FID_E_Leve": 108, "SHAPE_Leng": 1.12833471209}, "geometry": {"type": "LineString", "coordinates": [[121.8720887720001, 54.104666182000074], [120.74380896700006, 54.11579740500008]]}}, {"type": "Feature", "properties": {"OBJECTID": 291, "FID_E_Leve": 92, "SHAPE_Leng": 2.237971193}, "geometry": {"type": "LineString", "coordinates": [[121.8720887720001, 54.104666182000074], [121.8519811330001, 56.342547042000035]]}}, {"type": "Feature", "properties": {"OBJECTID": 292, "FID_E_Leve": 109, "SHAPE_Leng": 1.12359154216}, "geometry": {"type": "LineString", "coordinates": [[121.8519811330001, 56.342547042000035], [120.72844988300005, 56.35418679700007]]}}, {"type": "Feature", "properties": {"OBJECTID": 293, "FID_E_Leve": 92, "SHAPE_Leng": 0.832337325281}, "geometry": {"type": "LineString", "coordinates": [[121.8519811330001, 56.342547042000035], [121.84450278100007, 57.17485077100008]]}}, {"type": "Feature", "properties": {"OBJECTID": 294, "FID_E_Leve": 110, "SHAPE_Leng": 1.41556015949}, "geometry": {"type": "LineString", "coordinates": [[121.84450278100007, 57.17485077100008], [123.2600629320001, 57.17500579300008]]}}, {"type": "Feature", "properties": {"OBJECTID": 295, "FID_E_Leve": 92, "SHAPE_Leng": 2.01296873605}, "geometry": {"type": "LineString", "coordinates": [[121.84450278100007, 57.17485077100008], [121.82641673500007, 59.187738256000046]]}}, {"type": "Feature", "properties": {"OBJECTID": 296, "FID_E_Leve": 111, "SHAPE_Leng": 1.44518149089}, "geometry": {"type": "LineString", "coordinates": [[121.82641673500007, 59.187738256000046], [123.27155318000007, 59.176327868000044]]}}, {"type": "Feature", "properties": {"OBJECTID": 297, "FID_E_Leve": 92, "SHAPE_Leng": 4.79080437201}, "geometry": {"type": "LineString", "coordinates": [[121.82641673500007, 59.187738256000046], [121.78337249800006, 63.97834925300003]]}}, {"type": "Feature", "properties": {"OBJECTID": 298, "FID_E_Leve": 112, "SHAPE_Leng": 1.37288451624}, "geometry": {"type": "LineString", "coordinates": [[121.78337249800006, 63.97834925300003], [123.15606866300004, 63.95560868300004]]}}, {"type": "Feature", "properties": {"OBJECTID": 299, "FID_E_Leve": 113, "SHAPE_Leng": 1.06906007431}, "geometry": {"type": "LineString", "coordinates": [[121.77589596000007, 64.81045091400006], [120.70689385800006, 64.79931770200005]]}}, {"type": "Feature", "properties": {"OBJECTID": 300, "FID_E_Leve": 92, "SHAPE_Leng": 0.832135249139}, "geometry": {"type": "LineString", "coordinates": [[121.78337249800006, 63.97834925300003], [121.77589596000007, 64.81045091400006]]}}, {"type": "Feature", "properties": {"OBJECTID": 301, "FID_E_Leve": 92, "SHAPE_Leng": 0.899807751646}, "geometry": {"type": "LineString", "coordinates": [[121.77589596000007, 64.81045091400006], [121.767811402, 65.71022234600008]]}}, {"type": "Feature", "properties": {"OBJECTID": 302, "FID_E_Leve": 114, "SHAPE_Leng": 1.37158091203}, "geometry": {"type": "LineString", "coordinates": [[121.767811402, 65.71022234600008], [123.13934209600006, 65.72195919600006]]}}, {"type": "Feature", "properties": {"OBJECTID": 303, "FID_E_Leve": 145, "SHAPE_Leng": 7.72866707019}, "geometry": {"type": "LineString", "coordinates": [[120.70689385800006, 64.79931770200005], [116.14527790200009, 64.86938422100008], [116.1648985600001, 68.03583646700008]]}}, {"type": "Feature", "properties": {"OBJECTID": 304, "FID_E_Leve": 92, "SHAPE_Leng": 4.75676604411}, "geometry": {"type": "LineString", "coordinates": [[121.767811402, 65.71022234600008], [121.72507299000006, 70.46679638900008]]}}, {"type": "Feature", "properties": {"OBJECTID": 305, "FID_E_Leve": 115, "SHAPE_Leng": 1.50670277182}, "geometry": {"type": "LineString", "coordinates": [[121.72507299000006, 70.46679638900008], [123.23160699900006, 70.44424594900005]]}}, {"type": "Feature", "properties": {"OBJECTID": 306, "FID_E_Leve": 116, "SHAPE_Leng": 0.853120257554}, "geometry": {"type": "LineString", "coordinates": [[121.69354847700004, 73.97531897500005], [120.84049643100002, 73.96453098800004]]}}, {"type": "Feature", "properties": {"OBJECTID": 307, "FID_E_Leve": 92, "SHAPE_Leng": 3.50866420898}, "geometry": {"type": "LineString", "coordinates": [[121.72507299000006, 70.46679638900008], [121.69354847700004, 73.97531897500005]]}}, {"type": "Feature", "properties": {"OBJECTID": 308, "FID_E_Leve": 92, "SHAPE_Leng": 0.0071087659406}, "geometry": {"type": "LineString", "coordinates": [[121.69354847700004, 73.97531897500005], [121.69348460600008, 73.98242745400006]]}}, {"type": "Feature", "properties": {"OBJECTID": 309, "FID_E_Leve": 117, "SHAPE_Leng": 1.58324748393}, "geometry": {"type": "LineString", "coordinates": [[121.69348460600008, 73.98242745400006], [123.27658552200012, 73.96088481900006]]}}, {"type": "Feature", "properties": {"OBJECTID": 310, "FID_E_Leve": 144, "SHAPE_Leng": 2.08975636044}, "geometry": {"type": "LineString", "coordinates": [[102.61901215400007, 74.87949330200007], [102.64394680000004, 72.78988570500007]]}}, {"type": "Feature", "properties": {"OBJECTID": 311, "FID_E_Leve": 143, "SHAPE_Leng": 3.31720344805}, "geometry": {"type": "LineString", "coordinates": [[102.61901215400007, 74.87949330200007], [103.85915911900008, 74.88479307500006], [103.93265542500006, 72.80904865800005]]}}, {"type": "Feature", "properties": {"OBJECTID": 312, "FID_E_Leve": 143, "SHAPE_Leng": 6.12989427916}, "geometry": {"type": "LineString", "coordinates": [[100.95869475200004, 79.36943667500003], [100.98613799100008, 74.87251520700005], [102.61901215400007, 74.87949330200007]]}}, {"type": "Feature", "properties": {"OBJECTID": 313, "FID_E_Leve": 97, "SHAPE_Leng": 1.33396753249}, "geometry": {"type": "LineString", "coordinates": [[138.27130313100008, 80.67950304700008], [139.60524961500005, 80.67200934600004]]}}, {"type": "Feature", "properties": {"OBJECTID": 314, "FID_E_Leve": 123, "SHAPE_Leng": 1.46359958503}, "geometry": {"type": "LineString", "coordinates": [[138.09030587900008, 80.68051983400005], [138.11903386300003, 79.21720221700008]]}}, {"type": "Feature", "properties": {"OBJECTID": 315, "FID_E_Leve": 97, "SHAPE_Leng": 0.181000107976}, "geometry": {"type": "LineString", "coordinates": [[138.09030587900008, 80.68051983400005], [138.27130313100008, 80.67950304700008]]}}, {"type": "Feature", "properties": {"OBJECTID": 316, "FID_E_Leve": 124, "SHAPE_Leng": 1.53501454108}, "geometry": {"type": "LineString", "coordinates": [[135.89136513300002, 80.69287280800006], [135.90589050200003, 79.15792699300005]]}}, {"type": "Feature", "properties": {"OBJECTID": 317, "FID_E_Leve": 97, "SHAPE_Leng": 2.19897544333}, "geometry": {"type": "LineString", "coordinates": [[135.89136513300002, 80.69287280800006], [138.09030587900008, 80.68051983400005]]}}, {"type": "Feature", "properties": {"OBJECTID": 318, "FID_E_Leve": 97, "SHAPE_Leng": 0.639950732695}, "geometry": {"type": "LineString", "coordinates": [[135.25142449800012, 80.69646779800007], [135.89136513300002, 80.69287280800006]]}}, {"type": "Feature", "properties": {"OBJECTID": 319, "FID_E_Leve": 97, "SHAPE_Leng": 3.1178930558}, "geometry": {"type": "LineString", "coordinates": [[132.13358063900012, 80.71398288600005], [135.25142449800012, 80.69646779800007]]}}, {"type": "Feature", "properties": {"OBJECTID": 320, "FID_E_Leve": 97, "SHAPE_Leng": 1.73986845514}, "geometry": {"type": "LineString", "coordinates": [[130.39373963700007, 80.72375677800005], [132.13358063900012, 80.71398288600005]]}}, {"type": "Feature", "properties": {"OBJECTID": 321, "FID_E_Leve": 96, "SHAPE_Leng": 1.16327793998}, "geometry": {"type": "LineString", "coordinates": [[98.66252630700006, 80.73534504400004], [97.49924992800004, 80.73343934000007]]}}, {"type": "Feature", "properties": {"OBJECTID": 322, "FID_E_Leve": 141, "SHAPE_Leng": 1.40259816237}, "geometry": {"type": "LineString", "coordinates": [[98.66252630700006, 80.73534504400004], [98.64869306900005, 79.33281509900007]]}}, {"type": "Feature", "properties": {"OBJECTID": 323, "FID_E_Leve": 96, "SHAPE_Leng": 2.28252383888}, "geometry": {"type": "LineString", "coordinates": [[100.94504708300008, 80.73908431800004], [98.66252630700006, 80.73534504400004]]}}, {"type": "Feature", "properties": {"OBJECTID": 324, "FID_E_Leve": 140, "SHAPE_Leng": 1.36971563649}, "geometry": {"type": "LineString", "coordinates": [[100.94504708300008, 80.73908431800004], [100.95869475200004, 79.36943667500003]]}}, {"type": "Feature", "properties": {"OBJECTID": 325, "FID_E_Leve": 96, "SHAPE_Leng": 0.612359976715}, "geometry": {"type": "LineString", "coordinates": [[101.55740623800006, 80.74008749800004], [100.94504708300008, 80.73908431800004]]}}, {"type": "Feature", "properties": {"OBJECTID": 326, "FID_E_Leve": 97, "SHAPE_Leng": 3.06175568002}, "geometry": {"type": "LineString", "coordinates": [[127.33203226800003, 80.74095650900006], [130.39373963700007, 80.72375677800005]]}}, {"type": "Feature", "properties": {"OBJECTID": 327, "FID_E_Leve": 96, "SHAPE_Leng": 1.86496007356}, "geometry": {"type": "LineString", "coordinates": [[103.42236380900005, 80.74314271100008], [101.55740623800006, 80.74008749800004]]}}, {"type": "Feature", "properties": {"OBJECTID": 328, "FID_E_Leve": 96, "SHAPE_Leng": 6.29047023507}, "geometry": {"type": "LineString", "coordinates": [[109.71282560300006, 80.75344787900008], [103.42236380900005, 80.74314271100008]]}}, {"type": "Feature", "properties": {"OBJECTID": 329, "FID_E_Leve": 136, "SHAPE_Leng": 1.46055861086}, "geometry": {"type": "LineString", "coordinates": [[109.71282560300006, 80.75344787900008], [109.72643808100008, 79.29295270400007]]}}, {"type": "Feature", "properties": {"OBJECTID": 330, "FID_E_Leve": 96, "SHAPE_Leng": 1.29446591202}, "geometry": {"type": "LineString", "coordinates": [[111.00728977800009, 80.75556849800006], [109.71282560300006, 80.75344787900008]]}}, {"type": "Feature", "properties": {"OBJECTID": 331, "FID_E_Leve": 97, "SHAPE_Leng": 3.15948790612}, "geometry": {"type": "LineString", "coordinates": [[124.17259421500012, 80.75870526100005], [127.33203226800003, 80.74095650900006]]}}, {"type": "Feature", "properties": {"OBJECTID": 332, "FID_E_Leve": 96, "SHAPE_Leng": 3.5766933545}, "geometry": {"type": "LineString", "coordinates": [[114.583978333, 80.76142790500006], [111.00728977800009, 80.75556849800006]]}}, {"type": "Feature", "properties": {"OBJECTID": 333, "FID_E_Leve": 96, "SHAPE_Leng": 0.347840606761}, "geometry": {"type": "LineString", "coordinates": [[114.93181847300002, 80.76199774400004], [114.583978333, 80.76142790500006]]}}, {"type": "Feature", "properties": {"OBJECTID": 334, "FID_E_Leve": 135, "SHAPE_Leng": 1.46105574446}, "geometry": {"type": "LineString", "coordinates": [[114.93181847300002, 80.76199774400004], [114.9320092590001, 79.30094201200006]]}}, {"type": "Feature", "properties": {"OBJECTID": 335, "FID_E_Leve": 96, "SHAPE_Leng": 0.988240324101}, "geometry": {"type": "LineString", "coordinates": [[115.92005747100006, 80.76361669800008], [114.93181847300002, 80.76199774400004]]}}, {"type": "Feature", "properties": {"OBJECTID": 336, "FID_E_Leve": 96, "SHAPE_Leng": 0.44535271061}, "geometry": {"type": "LineString", "coordinates": [[116.36540958400008, 80.76434628300007], [115.92005747100006, 80.76361669800008]]}}, {"type": "Feature", "properties": {"OBJECTID": 337, "FID_E_Leve": 134, "SHAPE_Leng": 1.45577491099}, "geometry": {"type": "LineString", "coordinates": [[116.36540958400008, 80.76434628300007], [116.35175453900001, 79.30863541500008]]}}, {"type": "Feature", "properties": {"OBJECTID": 338, "FID_E_Leve": 96, "SHAPE_Leng": 1.97622985187}, "geometry": {"type": "LineString", "coordinates": [[118.34163678400012, 80.76758378000005], [116.36540958400008, 80.76434628300007]]}}, {"type": "Feature", "properties": {"OBJECTID": 339, "FID_E_Leve": 142, "SHAPE_Leng": 1.39088310042}, "geometry": {"type": "LineString", "coordinates": [[118.34163678400012, 80.76758378000005], [118.3414931310001, 79.37670068700004]]}}, {"type": "Feature", "properties": {"OBJECTID": 340, "FID_E_Leve": 96, "SHAPE_Leng": 1.04374981559}, "geometry": {"type": "LineString", "coordinates": [[119.3853851990001, 80.76929367100007], [118.34163678400012, 80.76758378000005]]}}, {"type": "Feature", "properties": {"OBJECTID": 341, "FID_E_Leve": 96, "SHAPE_Leng": 2.17114006241}, "geometry": {"type": "LineString", "coordinates": [[121.55652234800004, 80.77285047400005], [119.3853851990001, 80.76929367100007]]}}, {"type": "Feature", "properties": {"OBJECTID": 342, "FID_E_Leve": 96, "SHAPE_Leng": 0.0759484439136}, "geometry": {"type": "LineString", "coordinates": [[121.6324706900001, 80.77297489400007], [121.55652234800004, 80.77285047400005]]}}, {"type": "Feature", "properties": {"OBJECTID": 343, "FID_E_Leve": 92, "SHAPE_Leng": 6.79082154329}, "geometry": {"type": "LineString", "coordinates": [[121.69348460600008, 73.98242745400006], [121.6324706900001, 80.77297489400007]]}}, {"type": "Feature", "properties": {"OBJECTID": 344, "FID_E_Leve": 97, "SHAPE_Leng": 2.54016360589}, "geometry": {"type": "LineString", "coordinates": [[121.6324706900001, 80.77297489400007], [124.17259421500012, 80.75870526100005]]}}, {"type": "Feature", "properties": {"OBJECTID": 345, "FID_E_Leve": 126, "SHAPE_Leng": 1.24975072697}, "geometry": {"type": "LineString", "coordinates": [[132.13358063900012, 80.71398288600005], [132.14756607000004, 81.96365535800004]]}}, {"type": "Feature", "properties": {"OBJECTID": 346, "FID_E_Leve": 127, "SHAPE_Leng": 1.2502103857}, "geometry": {"type": "LineString", "coordinates": [[130.39373963700007, 80.72375677800005], [130.40841608300002, 81.97388101600006]]}}, {"type": "Feature", "properties": {"OBJECTID": 347, "FID_E_Leve": 122, "SHAPE_Leng": 1.31932532198}, "geometry": {"type": "LineString", "coordinates": [[138.27130313100008, 80.67950304700008], [138.25701228900004, 81.99875096800008]]}}, {"type": "Feature", "properties": {"OBJECTID": 348, "FID_E_Leve": 125, "SHAPE_Leng": 1.30986066513}, "geometry": {"type": "LineString", "coordinates": [[135.25142449800012, 80.69646779800007], [135.25112111900012, 82.00632842800007]]}}, {"type": "Feature", "properties": {"OBJECTID": 349, "FID_E_Leve": 128, "SHAPE_Leng": 1.29639094983}, "geometry": {"type": "LineString", "coordinates": [[127.33203226800003, 80.74095650900006], [127.31901002600011, 82.03728205300007]]}}, {"type": "Feature", "properties": {"OBJECTID": 350, "FID_E_Leve": 130, "SHAPE_Leng": 1.34151131729}, "geometry": {"type": "LineString", "coordinates": [[121.55652234800004, 80.77285047400005], [121.55666221600006, 82.11436178400004]]}}, {"type": "Feature", "properties": {"OBJECTID": 351, "FID_E_Leve": 137, "SHAPE_Leng": 1.36830011075}, "geometry": {"type": "LineString", "coordinates": [[111.00728977800009, 80.75556849800006], [110.97974666700009, 82.12359136700007]]}}, {"type": "Feature", "properties": {"OBJECTID": 352, "FID_E_Leve": 129, "SHAPE_Leng": 1.37066115722}, "geometry": {"type": "LineString", "coordinates": [[124.17259421500012, 80.75870526100005], [124.20036590000007, 82.12908504100005]]}}, {"type": "Feature", "properties": {"OBJECTID": 353, "FID_E_Leve": 131, "SHAPE_Leng": 1.37647017758}, "geometry": {"type": "LineString", "coordinates": [[119.3853851990001, 80.76929367100007], [119.39932787600003, 82.14569323200004]]}}, {"type": "Feature", "properties": {"OBJECTID": 354, "FID_E_Leve": 139, "SHAPE_Leng": 1.43641606934}, "geometry": {"type": "LineString", "coordinates": [[101.55740623800006, 80.74008749800004], [101.55692284600008, 82.17650348600006]]}}, {"type": "Feature", "properties": {"OBJECTID": 355, "FID_E_Leve": 138, "SHAPE_Leng": 1.44139311092}, "geometry": {"type": "LineString", "coordinates": [[103.42236380900005, 80.74314271100008], [103.39475188900008, 82.18427132500005]]}}, {"type": "Feature", "properties": {"OBJECTID": 356, "FID_E_Leve": 132, "SHAPE_Leng": 1.44185946717}, "geometry": {"type": "LineString", "coordinates": [[115.92005747100006, 80.76361669800008], [115.93374753300009, 82.20541117200008]]}}, {"type": "Feature", "properties": {"OBJECTID": 357, "FID_E_Leve": 133, "SHAPE_Leng": 1.46073712291}, "geometry": {"type": "LineString", "coordinates": [[114.583978333, 80.76142790500006], [114.58421334500008, 82.22216500900004]]}}]}